{"type":"FeatureCollection","features":[{"type":"Feature","geometry":{"type":"Polygon","coordinates":[[[-121.6988860976337,38.30783045336581],[-121.69123099301456,38.319551682122295],[-121.70006155327059,38.33010000087511],[-121.71654728101002,38.32892596675959],[-121.72419902168252,38.31720468135542],[-121.7153683995026,38.306657486617254],[-121.6988860976337,38.30783045336581]]]},"properties":{"h3_index":"872830401ffffff","station_count":1,"program_id":"delta","program":"Delta","resolution":7,"stations":[{"station_id":"Yolo-004","station_name":"Yolo Bypass - Cache Slough Subregion - Yolo-004","lat":38.319567,"lon":-121.692765,"county":"YOLO"}]}},{"type":"Feature","geometry":{"type":"Polygon","coordinates":[[[-121.6494270029115,38.31133615024518],[-121.64176371263446,38.323055673023916],[-121.65059217464882,38.333608892002616],[-121.66708399773434,38.3324414644036],[-121.67474392885002,38.32072188136265],[-121.66591539698388,38.31016978608612],[-121.6494270029115,38.31133615024518]]]},"properties":{"h3_index":"872830402ffffff","station_count":1,"program_id":"delta","program":"Delta","resolution":7,"stations":[{"station_id":"Yolo-022","station_name":"Yolo Bypass - Cache Slough Subregion - Yolo-022","lat":38.317985,"lon":-121.651769,"county":"YOLO"}]}},{"type":"Feature","geometry":{"type":"Polygon","coordinates":[[[-121.6724042924426,38.276171115720295],[-121.66474729222855,38.287893870100525],[-121.67357386237485,38.29844861585794],[-121.69005749980123,38.297279482281],[-121.69771114081229,38.285556669225066],[-121.6888845045405,38.2750030483248],[-121.6724042924426,38.276171115720295]]]},"properties":{"h3_index":"872830404ffffff","station_count":4,"program_id":"delta","program":"Delta","resolution":7,"stations":[{"station_id":"Yolo-020","station_name":"Yolo Bypass - Cache Slough Subregion - Yolo-020","lat":38.278806,"lon":-121.677797,"county":"SOLANO"},{"station_id":"Yolo-023","station_name":"Yolo Bypass - Cache Slough Subregion - Yolo-023","lat":38.278994,"lon":-121.687788,"county":"SOLANO"},{"station_id":"Yolo-017","station_name":"Yolo Bypass - Cache Slough Subregion - Yolo-017","lat":38.283297,"lon":-121.685768,"county":"SOLANO"},{"station_id":"Yolo-012","station_name":"Yolo Bypass - Cache Slough Subregion - Yolo-012","lat":38.282414,"lon":-121.681004,"county":"SOLANO"}]}},{"type":"Feature","geometry":{"type":"Polygon","coordinates":[[[-121.6482623257579,38.28905917030192],[-121.64060050277364,38.30078028012159],[-121.6494270029115,38.31133615024518],[-121.66591539698388,38.31016978608612],[-121.67357386237485,38.29844861585794],[-121.66474729222855,38.287893870100525],[-121.6482623257579,38.28905917030192]]]},"properties":{"h3_index":"872830406ffffff","station_count":1,"program_id":"delta","program":"Delta","resolution":7,"stations":[{"station_id":"Yolo-011","station_name":"Yolo Bypass - Cache Slough Subregion - Yolo-011","lat":38.305684,"lon":-121.657211,"county":"SOLANO"}]}},{"type":"Feature","geometry":{"type":"Polygon","coordinates":[[[-121.59879528590547,38.29254185911216],[-121.5911252868615,38.304261255729486],[-121.59994967399554,38.314822023061716],[-121.61644413905731,38.31366226963648],[-121.62411078531166,38.30194280899908],[-121.61528632023774,38.29138316571062],[-121.59879528590547,38.29254185911216]]]},"properties":{"h3_index":"872830414ffffff","station_count":1,"program_id":"delta","program":"Delta","resolution":7,"stations":[{"station_id":"Sacr-021","station_name":"Sacramento River Subregion - Sacr-021","lat":38.310348,"lon":-121.598472,"county":"SOLANO"}]}},{"type":"Feature","geometry":{"type":"Polygon","coordinates":[[[-121.57462951059767,38.30541717177886],[-121.5669546894172,38.31713491286095],[-121.57577899471723,38.32769680374168],[-121.59227820397693,38.32653982989561],[-121.59994967399554,38.314822023061716],[-121.5911252868615,38.304261255729486],[-121.57462951059767,38.30541717177886]]]},"properties":{"h3_index":"872830416ffffff","station_count":1,"program_id":"delta","program":"Delta","resolution":7,"stations":[{"station_id":"Sacr-009","station_name":"Sacramento River Subregion - Sacr-009","lat":38.314358,"lon":-121.577233,"county":"SACRAMENTO"}]}},{"type":"Feature","geometry":{"type":"Polygon","coordinates":[[[-121.62759160345209,38.36875944214944],[-121.61992054731827,38.38047412390596],[-121.62875286224379,38.391023154946566],[-121.64525630768028,38.3898563822438],[-121.65292400313163,38.378141638776256],[-121.6440916147738,38.367593729625824],[-121.62759160345209,38.36875944214944]]]},"properties":{"h3_index":"87283041affffff","station_count":1,"program_id":"delta","program":"Delta","resolution":7,"stations":[{"station_id":"Yolo-014","station_name":"Yolo Bypass - Cache Slough Subregion - Yolo-014","lat":38.381949,"lon":-121.626014,"county":"YOLO"}]}},{"type":"Feature","geometry":{"type":"Polygon","coordinates":[[[-121.72065949303983,38.25038179391337],[-121.71301213684391,38.26210782354777],[-121.72183883536269,38.27266031910091],[-121.7383129493884,38.271485659086125],[-121.74595694318087,38.25975957424169],[-121.73713018628902,38.24920820452475],[-121.72065949303983,38.25038179391337]]]},"properties":{"h3_index":"872830421ffffff","station_count":1,"program_id":"delta","program":"Delta","resolution":7,"stations":[{"station_id":"Yolo-016","station_name":"Yolo Bypass - Cache Slough Subregion - Yolo-016","lat":38.258063,"lon":-121.725798,"county":"SOLANO"}]}},{"type":"Feature","geometry":{"type":"Polygon","coordinates":[[[-121.67123521873816,38.25388938650747],[-121.66357968315357,38.26561372200126],[-121.6724042924426,38.276171115720295],[-121.6888845045405,38.2750030483248],[-121.69653668248989,38.263278654006164],[-121.68771200691654,38.25272238581089],[-121.67123521873816,38.25388938650747]]]},"properties":{"h3_index":"872830422ffffff","station_count":3,"program_id":"delta","program":"Delta","resolution":7,"stations":[{"station_id":"Yolo-018","station_name":"Yolo Bypass - Cache Slough Subregion - Yolo-018","lat":38.260249,"lon":-121.678858,"county":"SOLANO"},{"station_id":"Yolo-008","station_name":"Yolo Bypass - Cache Slough Subregion - Yolo-008","lat":38.274304,"lon":-121.673917,"county":"SOLANO"},{"station_id":"Yolo-002","station_name":"Yolo Bypass - Cache Slough Subregion - Yolo-002","lat":38.269193,"lon":-121.692386,"county":"SOLANO"}]}},{"type":"Feature","geometry":{"type":"Polygon","coordinates":[[[-121.69653668248989,38.263278654006164],[-121.6888845045405,38.2750030483248],[-121.69771114081229,38.285556669225066],[-121.71419001821968,38.284384770362394],[-121.72183883536269,38.27266031910091],[-121.71301213684391,38.26210782354777],[-121.69653668248989,38.263278654006164]]]},"properties":{"h3_index":"872830423ffffff","station_count":1,"program_id":"delta","program":"Delta","resolution":7,"stations":[{"station_id":"Yolo-007","station_name":"Yolo Bypass - Cache Slough Subregion - Yolo-007","lat":38.271217,"lon":-121.702826,"county":"SOLANO"}]}},{"type":"Feature","geometry":{"type":"Polygon","coordinates":[[[-121.6700666409468,38.23160343378441],[-121.66241256944448,38.243329347349935],[-121.67123521873816,38.25388938650747],[-121.68771200691654,38.25272238581089],[-121.6953627223503,38.24099641326958],[-121.68654000661364,38.230437500303665],[-121.6700666409468,38.23160343378441]]]},"properties":{"h3_index":"872830426ffffff","station_count":3,"program_id":"delta","program":"Delta","resolution":7,"stations":[{"station_id":"Yolo-009","station_name":"Yolo Bypass - Cache Slough Subregion - Yolo-009","lat":38.249572,"lon":-121.674817,"county":"SOLANO"},{"station_id":"510ADVLIM","station_name":"Cache Slough at Liberty Island Mouth-510ADVLIM","lat":38.24213,"lon":-121.68539,"county":"SOLANO"},{"station_id":"Yolo-006","station_name":"Yolo Bypass - Cache Slough Subregion - Yolo-006","lat":38.252141,"lon":-121.675583,"county":"SOLANO"}]}},{"type":"Feature","geometry":{"type":"Polygon","coordinates":[[[-121.7230186781377,38.294934616766945],[-121.7153683995026,38.306657486617254],[-121.72419902168252,38.31720468135542],[-121.74067998148182,38.31602788164505],[-121.74832689457165,38.30430495688204],[-121.73949621434654,38.2937588866447],[-121.7230186781377,38.294934616766945]]]},"properties":{"h3_index":"87283042affffff","station_count":1,"program_id":"delta","program":"Delta","resolution":7,"stations":[{"station_id":"Yolo-021","station_name":"Yolo Bypass - Cache Slough Subregion - Yolo-021","lat":38.301076,"lon":-121.729774,"county":"SOLANO"}]}},{"type":"Feature","geometry":{"type":"Polygon","coordinates":[[[-121.74595694318087,38.25975957424169],[-121.7383129493884,38.271485659086125],[-121.7471416675157,38.28203438032274],[-121.76361443471018,38.28085589096282],[-121.7712550629372,38.26912975279183],[-121.76242629047238,38.25858215720978],[-121.74595694318087,38.25975957424169]]]},"properties":{"h3_index":"87283042cffffff","station_count":1,"program_id":"delta","program":"Delta","resolution":7,"stations":[{"station_id":"Yolo-003","station_name":"Yolo Bypass - Cache Slough Subregion - Yolo-003","lat":38.261052,"lon":-121.747855,"county":"SOLANO"}]}},{"type":"Feature","geometry":{"type":"Polygon","coordinates":[[[-121.6470981428742,38.266777957727854],[-121.63943778663388,38.2785006515515],[-121.6482623257579,38.28905917030192],[-121.66474729222855,38.287893870100525],[-121.6724042924426,38.276171115720295],[-121.66357968315357,38.26561372200126],[-121.6470981428742,38.266777957727854]]]},"properties":{"h3_index":"872830431ffffff","station_count":2,"program_id":"delta","program":"Delta","resolution":7,"stations":[{"station_id":"Yolo-001","station_name":"Yolo Bypass - Cache Slough Subregion - Yolo-001","lat":38.279518,"lon":-121.660997,"county":"SOLANO"},{"station_id":"Yolo-015","station_name":"Yolo Bypass - Cache Slough Subregion - Yolo-015","lat":38.26789,"lon":-121.663211,"county":"SOLANO"}]}},{"type":"Feature","geometry":{"type":"Polygon","coordinates":[[[-121.6459344539468,38.24449251808516],[-121.6382755639018,38.25621679287253],[-121.6470981428742,38.266777957727854],[-121.66357968315357,38.26561372200126],[-121.67123521873816,38.25388938650747],[-121.66241256944448,38.243329347349935],[-121.6459344539468,38.24449251808516]]]},"properties":{"h3_index":"872830435ffffff","station_count":2,"program_id":"delta","program":"Delta","resolution":7,"stations":[{"station_id":"Sacr-002","station_name":"Sacramento River Subregion - Sacr-002","lat":38.262066,"lon":-121.651285,"county":"SOLANO"},{"station_id":"Yolo-005","station_name":"Yolo Bypass - Cache Slough Subregion - Yolo-005","lat":38.259048,"lon":-121.667654,"county":"SOLANO"}]}},{"type":"Feature","geometry":{"type":"Polygon","coordinates":[[[-121.8495663543935,38.341710214194656],[-121.84193293510393,38.35343333978403],[-121.85077362884752,38.36396162786992],[-121.86724778065397,38.362765666703204],[-121.87487781860725,38.351042495615225],[-121.8660370870257,38.34051533109414],[-121.8495663543935,38.341710214194656]]]},"properties":{"h3_index":"872830444ffffff","station_count":1,"program_id":"delta","program":"Delta","resolution":7,"stations":[{"station_id":"511OACSBL","station_name":"Old Alamo Creek at Sunnybrook Ln.","lat":38.344197,"lon":-121.869089,"county":"SOLANO"}]}},{"type":"Feature","geometry":{"type":"Polygon","coordinates":[[[-121.848359592057,38.31945455749876],[-121.84072762638401,38.33117926523127],[-121.8495663543935,38.341710214194656],[-121.8660370870257,38.34051533109414],[-121.87366567294299,38.3287905777187],[-121.86482690691861,38.31826075298828],[-121.848359592057,38.31945455749876]]]},"properties":{"h3_index":"872830462ffffff","station_count":2,"program_id":"delta","program":"Delta","resolution":7,"stations":[{"station_id":"511OACUNA","station_name":"Terminus of Old Alamo Creek upstream of confluence with New Alamo Creek","lat":38.329869,"lon":-121.869231,"county":"SOLANO"},{"station_id":"511NACDOA","station_name":"New Alamo Creek downstream of confluence between New and Old Alamo Creeks","lat":38.329789,"lon":-121.860019,"county":"SOLANO"}]}},{"type":"Feature","geometry":{"type":"Polygon","coordinates":[[[-121.87366567294299,38.3287905777187],[-121.8660370870257,38.34051533109414],[-121.87487781860725,38.351042495615225],[-121.89134717101503,38.349843782623985],[-121.89897237403137,38.33811898549023],[-121.8901316084749,38.3275929450074],[-121.87366567294299,38.3287905777187]]]},"properties":{"h3_index":"872830463ffffff","station_count":2,"program_id":"delta","program":"Delta","resolution":7,"stations":[{"station_id":"511NACUOA","station_name":"New Alamo Creek upstream of confluence with Old Alamo Creek","lat":38.329939,"lon":-121.888569,"county":"SOLANO"},{"station_id":"511OACCLN","station_name":"Old Alamo Creek at Chicorp Ln.","lat":38.347147,"lon":-121.887617,"county":"SOLANO"}]}},{"type":"Feature","geometry":{"type":"Polygon","coordinates":[[[-121.89897237403137,38.33811898549023],[-121.89134717101503,38.349843782623985],[-121.90018990281371,38.36036716106418],[-121.91665786849667,38.359164618430874],[-121.92427968547055,38.3474397794238],[-121.91543692373722,38.336917524824514],[-121.89897237403137,38.33811898549023]]]},"properties":{"h3_index":"87283046effffff","station_count":1,"program_id":"delta","program":"Delta","resolution":7,"stations":[{"station_id":"511SOL011","station_name":"Old Alamo Creek at Lewis Road","lat":38.34643,"lon":-121.89702,"county":"SOLANO"}]}},{"type":"Feature","geometry":{"type":"Polygon","coordinates":[[[-121.82425552002891,38.332370318198286],[-121.81661872255383,38.34409339640547],[-121.82545740868322,38.354625469126056],[-121.84193293510393,38.35343333978403],[-121.8495663543935,38.341710214194656],[-121.84072762638401,38.33117926523127],[-121.82425552002891,38.332370318198286]]]},"properties":{"h3_index":"872830471ffffff","station_count":1,"program_id":"delta","program":"Delta","resolution":7,"stations":[{"station_id":"511NACARD","station_name":"Terminus of New Alamo Creek at Rio Dixon Rd before confluence with Ulatis Creek","lat":38.336511,"lon":-121.823136,"county":"SOLANO"}]}},{"type":"Feature","geometry":{"type":"Polygon","coordinates":[[[-121.79774933029087,38.300759685328536],[-121.79011061455701,38.31248429612279],[-121.79894532536841,38.32302280903318],[-121.81541879894367,38.32183558643661],[-121.82305414122341,38.310110926231296],[-121.81421938431832,38.2995735379356],[-121.79774933029087,38.300759685328536]]]},"properties":{"h3_index":"872830474ffffff","station_count":1,"program_id":"delta","program":"Delta","resolution":7,"stations":[{"station_id":"511ULCABR","station_name":"Ulatis Creek at Brown Road","lat":38.307,"lon":-121.7942,"county":"SOLANO"}]}},{"type":"Feature","geometry":{"type":"Polygon","coordinates":[[[-121.50548051796449,38.41083770131989],[-121.49778678750289,38.422545634985234],[-121.50661671219174,38.433102928237226],[-121.52314046140937,38.43195116763764],[-121.53083084094021,38.420243163445],[-121.5220008231349,38.40968699028357],[-121.50548051796449,38.41083770131989]]]},"properties":{"h3_index":"872830483ffffff","station_count":1,"program_id":"delta","program":"Delta","resolution":7,"stations":[{"station_id":"Sacr-022","station_name":"Sacramento River Subregion - Sacr-022","lat":38.414242,"lon":-121.521469,"county":"SACRAMENTO"}]}},{"type":"Feature","geometry":{"type":"Polygon","coordinates":[[[-121.50320957842399,38.3662944580339],[-121.49551880852054,38.378005603451655],[-121.50434480681092,38.388568209408426],[-121.52086166935592,38.387418548451535],[-121.52854909145638,38.375707332228565],[-121.51972299976443,38.36514584767205],[-121.50320957842399,38.3662944580339]]]},"properties":{"h3_index":"872830484ffffff","station_count":3,"program_id":"delta","program":"Delta","resolution":7,"stations":[{"station_id":"510SACC3A","station_name":"Sacramento River at Hood Monitoring Station Platform","lat":38.36771,"lon":-121.5205,"county":"SACRAMENTO"},{"station_id":"B9D82211312","station_name":"Sacramento River at Hood-B9D82211312","lat":38.3677,"lon":-121.5205,"county":"SACRAMENTO"},{"station_id":"SR3_SRNC","station_name":"Sacramento River 3_SRNC","lat":38.368506,"lon":-121.5214,"county":"YOLO"}]}},{"type":"Feature","geometry":{"type":"Polygon","coordinates":[[[-121.52854909145638,38.375707332228565],[-121.52086166935592,38.387418548451535],[-121.52968972367236,38.39797737856453],[-121.54620529038475,38.3968238711186],[-121.55388936147058,38.38511258596408],[-121.54506121780754,38.374554877091164],[-121.52854909145638,38.375707332228565]]]},"properties":{"h3_index":"872830485ffffff","station_count":1,"program_id":"delta","program":"Delta","resolution":7,"stations":[{"station_id":"Sacr-014","station_name":"Sacramento River Subregion - Sacr-014","lat":38.377698,"lon":-121.542165,"county":"YOLO"}]}},{"type":"Feature","geometry":{"type":"Polygon","coordinates":[[[-121.48239301412129,38.445958209330854],[-121.4746929700305,38.45766284703332],[-121.48352476232056,38.46821859912074],[-121.50005669654938,38.467068594466014],[-121.5077533898001,38.455363884636625],[-121.49892150061461,38.44480925149335],[-121.48239301412129,38.445958209330854]]]},"properties":{"h3_index":"872830498ffffff","station_count":4,"program_id":"delta","program":"Delta","resolution":7,"stations":[{"station_id":"Sacr-010","station_name":"Sacramento River Subregion - Sacr-010","lat":38.458809,"lon":-121.502396,"county":"SACRAMENTO"},{"station_id":"510ST1301","station_name":"Sacramento River at Freeport, CA-510ST1301","lat":38.45555,"lon":-121.50194,"county":"YOLO"},{"station_id":"510ST1317","station_name":"Sacramento River/Freeport-510ST1317","lat":38.4556,"lon":-121.5019,"county":"SACRAMENTO"},{"station_id":"SR1_SRNC","station_name":"Sacramento River 1_SRNC","lat":38.456503,"lon":-121.502353,"county":"YOLO"}]}},{"type":"Feature","geometry":{"type":"Polygon","coordinates":[[[-121.5077533898001,38.455363884636625],[-121.50005669654938,38.467068594466014],[-121.50889055109721,38.47762056500152],[-121.52542119267817,38.47646670682612],[-121.53311453186599,38.46476192674022],[-121.52428058448763,38.454211074990496],[-121.5077533898001,38.455363884636625]]]},"properties":{"h3_index":"872830499ffffff","station_count":1,"program_id":"delta","program":"Delta","resolution":7,"stations":[{"station_id":"Sacr-007","station_name":"Sacramento River Subregion - Sacr-007","lat":38.47372,"lon":-121.520266,"county":"YOLO"}]}},{"type":"Feature","geometry":{"type":"Polygon","coordinates":[[[-121.50661671219174,38.433102928237226],[-121.49892150061461,38.44480925149335],[-121.5077533898001,38.455363884636625],[-121.52428058448763,38.454211074990496],[-121.53197244356846,38.44250468134335],[-121.52314046140937,38.43195116763764],[-121.50661671219174,38.433102928237226]]]},"properties":{"h3_index":"87283049dffffff","station_count":1,"program_id":"delta","program":"Delta","resolution":7,"stations":[{"station_id":"SR2_SRNC","station_name":"Sacramento River 2_SRNC","lat":38.434775,"lon":-121.522908,"county":"SACRAMENTO"}]}},{"type":"Feature","geometry":{"type":"Polygon","coordinates":[[[-121.55045417463211,38.31828804743366],[-121.54277453083294,38.33000412835984],[-121.55159875040017,38.34056714229283],[-121.56810270044582,38.33941295215135],[-121.57577899471723,38.32769680374168],[-121.5669546894172,38.31713491286095],[-121.55045417463211,38.31828804743366]]]},"properties":{"h3_index":"8728304a5ffffff","station_count":1,"program_id":"delta","program":"Delta","resolution":7,"stations":[{"station_id":"Sacr-013","station_name":"Sacramento River Subregion - Sacr-013","lat":38.338212,"lon":-121.565304,"county":"YOLO"}]}},{"type":"Feature","geometry":{"type":"Polygon","coordinates":[[[-121.58268616624889,38.46128529262478],[-121.57500102180886,38.47299182143902],[-121.58383907554297,38.483535105356374],[-121.60036235545012,38.48237074141569],[-121.608044137753,38.470664147826234],[-121.59920600323504,38.46012198285633],[-121.58268616624889,38.46128529262478]]]},"properties":{"h3_index":"8728304d6ffffff","station_count":1,"program_id":"delta","program":"Delta","resolution":7,"stations":[{"station_id":"Yolo-010","station_name":"Yolo Bypass - Cache Slough Subregion - Yolo-010","lat":38.461784,"lon":-121.588634,"county":"YOLO"}]}},{"type":"Feature","geometry":{"type":"Polygon","coordinates":[[[-121.60572897585676,38.426159135882706],[-121.5980501426849,38.43786894835866],[-121.60688631069574,38.44841377831672],[-121.6234013898518,38.447247675614534],[-121.63107686082522,38.43553779996735],[-121.62224061578833,38.42499409009708],[-121.60572897585676,38.426159135882706]]]},"properties":{"h3_index":"8728304f2ffffff","station_count":1,"program_id":"delta","program":"Delta","resolution":7,"stations":[{"station_id":"Yolo-019","station_name":"Yolo Bypass - Cache Slough Subregion - Yolo-019","lat":38.433007,"lon":-121.602884,"county":"YOLO"}]}},{"type":"Feature","geometry":{"type":"Polygon","coordinates":[[[-121.64128463153682,38.15530860032471],[-121.6336316007938,38.16703916849777],[-121.64244634776999,38.17761089247563],[-121.65891419737189,38.17645091980821],[-121.66656387990736,38.16472029031157],[-121.65774906198695,38.154149694709254],[-121.64128463153682,38.15530860032471]]]},"properties":{"h3_index":"872830502ffffff","station_count":1,"program_id":"delta","program":"Delta","resolution":7,"stations":[{"station_id":"Sacr-016","station_name":"Sacramento River Subregion - Sacr-016","lat":38.17289,"lon":-121.648523,"county":"SACRAMENTO"}]}},{"type":"Feature","geometry":{"type":"Polygon","coordinates":[[[-121.68950038334646,38.129522021943636],[-121.68185697230976,38.14125583988155],[-121.69067185730556,38.15182530660888],[-121.70713021748499,38.150659825927704],[-121.71477027711028,38.138925950118875],[-121.70595532890341,38.12835761276505],[-121.68950038334646,38.129522021943636]]]},"properties":{"h3_index":"872830505ffffff","station_count":1,"program_id":"delta","program":"Delta","resolution":7,"stations":[{"station_id":"Conf-016","station_name":"Delta Confluence Subregion - Conf-016","lat":38.136531,"lon":-121.686688,"county":"SACRAMENTO"}]}},{"type":"Feature","geometry":{"type":"Polygon","coordinates":[[[-121.56774284447383,38.17165058251324],[-121.56007685024305,38.18337781576545],[-121.56888940482767,38.19395555730922],[-121.58536803731073,38.19280493796515],[-121.59303068974502,38.181077638054845],[-121.58421805243448,38.170501024050616],[-121.56774284447383,38.17165058251324]]]},"properties":{"h3_index":"872830512ffffff","station_count":1,"program_id":"delta","program":"Delta","resolution":7,"stations":[{"station_id":"GS3_SRNC","station_name":"Georgiana Slough 3_SRNC","lat":38.182925,"lon":-121.568922,"county":"SACRAMENTO"}]}},{"type":"Feature","geometry":{"type":"Polygon","coordinates":[[[-121.5907282728214,38.136462466516576],[-121.58306855518029,38.14819290639085],[-121.59187923719745,38.15877215262978],[-121.60834971679182,38.157619830184025],[-121.61600609257124,38.14588932521857],[-121.60719533155789,38.135311207693775],[-121.5907282728214,38.136462466516576]]]},"properties":{"h3_index":"872830514ffffff","station_count":1,"program_id":"delta","program":"Delta","resolution":7,"stations":[{"station_id":"Nort-011","station_name":"Northeast Delta Subregion - Nort-011","lat":38.145961,"lon":-121.600692,"county":"SACRAMENTO"}]}},{"type":"Feature","geometry":{"type":"Polygon","coordinates":[[[-121.61600609257124,38.14588932521857],[-121.60834971679182,38.157619830184025],[-121.61716243294829,38.16819531614493],[-121.6336316007938,38.16703916849777],[-121.64128463153682,38.15530860032471],[-121.63247184040989,38.14473424290995],[-121.61600609257124,38.14588932521857]]]},"properties":{"h3_index":"872830515ffffff","station_count":1,"program_id":"delta","program":"Delta","resolution":7,"stations":[{"station_id":"Sacr-001","station_name":"Sacramento River Subregion - Sacr-001","lat":38.164981,"lon":-121.620986,"county":"SACRAMENTO"}]}},{"type":"Feature","geometry":{"type":"Polygon","coordinates":[[[-121.56659677033284,38.14934140345989],[-121.55893224533051,38.16107020806537],[-121.56774284447383,38.17165058251324],[-121.58421805243448,38.170501024050616],[-121.59187923719745,38.15877215262978],[-121.58306855518029,38.14819290639085],[-121.56659677033284,38.14934140345989]]]},"properties":{"h3_index":"872830516ffffff","station_count":1,"program_id":"delta","program":"Delta","resolution":7,"stations":[{"station_id":"GS4_SRNC","station_name":"Georgiana Slough 4_SRNC","lat":38.162442,"lon":-121.584361,"county":"SACRAMENTO"}]}},{"type":"Feature","geometry":{"type":"Polygon","coordinates":[[[-121.64360855670763,38.19990897987883],[-121.63595259740895,38.21163640745949],[-121.64477125866227,38.22220285694329],[-121.6612459507871,38.221040751715414],[-121.66889855875401,38.2093132631233],[-121.66007982686745,38.198747940673755],[-121.64360855670763,38.19990897987883]]]},"properties":{"h3_index":"872830518ffffff","station_count":1,"program_id":"delta","program":"Delta","resolution":7,"stations":[{"station_id":"Yolo-013","station_name":"Yolo Bypass - Cache Slough Subregion - Yolo-013","lat":38.208199,"lon":-121.663062,"county":"SOLANO"}]}},{"type":"Feature","geometry":{"type":"Polygon","coordinates":[[[-121.66889855875401,38.2093132631233],[-121.6612459507871,38.221040751715414],[-121.6700666409468,38.23160343378441],[-121.68654000661364,38.230437500303665],[-121.69418926007758,38.21870995258305],[-121.68536850331651,38.20814839737471],[-121.66889855875401,38.2093132631233]]]},"properties":{"h3_index":"872830519ffffff","station_count":1,"program_id":"delta","program":"Delta","resolution":7,"stations":[{"station_id":"B9D81281401","station_name":"Cache Slough near Ryer Island","lat":38.225002,"lon":-121.674806,"county":"SOLANO"}]}},{"type":"Feature","geometry":{"type":"Polygon","coordinates":[[[-121.64244634776999,38.17761089247563],[-121.6347918530228,38.18933989187926],[-121.64360855670763,38.19990897987883],[-121.66007982686745,38.198747940673755],[-121.6677309718455,38.18701888010349],[-121.65891419737189,38.17645091980821],[-121.64244634776999,38.17761089247563]]]},"properties":{"h3_index":"87283051cffffff","station_count":3,"program_id":"delta","program":"Delta","resolution":7,"stations":[{"station_id":"Sacr-005","station_name":"Sacramento River Subregion - Sacr-005","lat":38.188992,"lon":-121.641271,"county":"SACRAMENTO"},{"station_id":"Yolo-024","station_name":"Yolo Bypass - Cache Slough Subregion - Yolo-024","lat":38.184875,"lon":-121.661012,"county":"SOLANO"},{"station_id":"Sacr-020","station_name":"Sacramento River Subregion - Sacr-020","lat":38.184598,"lon":-121.648059,"county":"SACRAMENTO"}]}},{"type":"Feature","geometry":{"type":"Polygon","coordinates":[[[-121.61831926376354,38.190497104351586],[-121.61065995630781,38.20222446903817],[-121.61947658532812,38.21279468424303],[-121.63595259740895,38.21163640745949],[-121.64360855670763,38.19990897987883],[-121.6347918530228,38.18933989187926],[-121.61831926376354,38.190497104351586]]]},"properties":{"h3_index":"87283051effffff","station_count":1,"program_id":"delta","program":"Delta","resolution":7,"stations":[{"station_id":"Sacr-008","station_name":"Sacramento River Subregion - Sacr-008","lat":38.194726,"lon":-121.619071,"county":"SOLANO"}]}},{"type":"Feature","geometry":{"type":"Polygon","coordinates":[[[-121.712418082817,38.09431421521851],[-121.70478093801525,38.10605120811331],[-121.71359393084545,38.116622176882515],[-121.73004412892493,38.11545502211193],[-121.7376779222855,38.103717972910545],[-121.72886486994183,38.09314813468907],[-121.712418082817,38.09431421521851]]]},"properties":{"h3_index":"872830521ffffff","station_count":2,"program_id":"delta","program":"Delta","resolution":7,"stations":[{"station_id":"Conf-011","station_name":"Delta Confluence Subregion - Conf-011","lat":38.100046,"lon":-121.719033,"county":"SOLANO"},{"station_id":"Conf-012","station_name":"Delta Confluence Subregion - Conf-012","lat":38.109611,"lon":-121.710003,"county":"SOLANO"}]}},{"type":"Feature","geometry":{"type":"Polygon","coordinates":[[[-121.68598893795955,38.0625870383778],[-121.67834990302693,38.07432552686123],[-121.68715892398764,38.08490288221365],[-121.70360704450528,38.08374061758276],[-121.71124273270938,38.07200207074041],[-121.70243364805859,38.06142584679085],[-121.68598893795955,38.0625870383778]]]},"properties":{"h3_index":"872830524ffffff","station_count":1,"program_id":"delta","program":"Delta","resolution":7,"stations":[{"station_id":"Conf-007","station_name":"Delta Confluence Subregion - Conf-007","lat":38.078031,"lon":-121.682563,"county":"SACRAMENTO"}]}},{"type":"Feature","geometry":{"type":"Polygon","coordinates":[[[-121.71124273270938,38.07200207074041],[-121.70360704450528,38.08374061758276],[-121.712418082817,38.09431421521851],[-121.72886486994183,38.09314813468907],[-121.73649720826646,38.081409531376394],[-121.72768611027924,38.070837064966256],[-121.71124273270938,38.07200207074041]]]},"properties":{"h3_index":"872830525ffffff","station_count":1,"program_id":"delta","program":"Delta","resolution":7,"stations":[{"station_id":"Conf-023","station_name":"Delta Confluence Subregion - Conf-023","lat":38.084378,"lon":-121.710044,"county":"SACRAMENTO"}]}},{"type":"Feature","geometry":{"type":"Polygon","coordinates":[[[-121.58842780734639,38.09183051466154],[-121.58077102230166,38.10356408225816],[-121.58957779630744,38.114148585322404],[-121.60604143559283,38.11299839063443],[-121.61369488188849,38.1012647576246],[-121.60488802858663,38.090681384619714],[-121.58842780734639,38.09183051466154]]]},"properties":{"h3_index":"872830536ffffff","station_count":2,"program_id":"delta","program":"Delta","resolution":7,"stations":[{"station_id":"Cent-007","station_name":"Central Delta Subregion - Cent-007","lat":38.100008,"lon":-121.600551,"county":"SACRAMENTO"},{"station_id":"Cent-016","station_name":"Central Delta Subregion - Cent-016","lat":38.104203,"lon":-121.593001,"county":"SACRAMENTO"}]}},{"type":"Feature","geometry":{"type":"Polygon","coordinates":[[[-121.49640832903448,38.232562811715965],[-121.48872642744416,38.24428351962217],[-121.49754066725696,38.25486200331046],[-121.51403690385807,38.25371865363851],[-121.52171546700293,38.24199787405084],[-121.5129011329383,38.23142051572101],[-121.49640832903448,38.232562811715965]]]},"properties":{"h3_index":"872830580ffffff","station_count":2,"program_id":"delta","program":"Delta","resolution":7,"stations":[{"station_id":"Nort-014","station_name":"Northeast Delta Subregion - Nort-014","lat":38.246966,"lon":-121.498288,"county":"SACRAMENTO"},{"station_id":"SREM_SRNC","station_name":"Sacramento River End Member_SRNC","lat":38.253011,"lon":-121.512269,"county":"SACRAMENTO"}]}},{"type":"Feature","geometry":{"type":"Polygon","coordinates":[[[-121.47222890658367,38.24542303293472],[-121.4645421915348,38.257142081284705],[-121.47335633319535,38.267721689825215],[-121.48985728900448,38.26658112506815],[-121.49754066725696,38.25486200331046],[-121.48872642744416,38.24428351962217],[-121.47222890658367,38.24542303293472]]]},"properties":{"h3_index":"872830582ffffff","station_count":1,"program_id":"delta","program":"Delta","resolution":7,"stations":[{"station_id":"Nort-006","station_name":"Northeast Delta Subregion - Nort-006","lat":38.253551,"lon":-121.479792,"county":"SAN JOAQUIN"}]}},{"type":"Feature","geometry":{"type":"Polygon","coordinates":[[[-121.49754066725696,38.25486200331046],[-121.48985728900448,38.26658112506815],[-121.4986734864087,38.27715696878045],[-121.51517315712283,38.27601256594379],[-121.52285319537299,38.26429337265509],[-121.51403690385807,38.25371865363851],[-121.49754066725696,38.25486200331046]]]},"properties":{"h3_index":"872830583ffffff","station_count":1,"program_id":"delta","program":"Delta","resolution":7,"stations":[{"station_id":"Nort-022","station_name":"Northeast Delta Subregion - Nort-022","lat":38.269635,"lon":-121.496414,"county":"SACRAMENTO"}]}},{"type":"Feature","geometry":{"type":"Polygon","coordinates":[[[-121.49527647143599,38.21025939957875],[-121.48759604595256,38.22198169058586],[-121.49640832903448,38.232562811715965],[-121.5129011329383,38.23142051572101],[-121.52057822153212,38.21969815288018],[-121.51176584405734,38.209118157772494],[-121.49527647143599,38.21025939957875]]]},"properties":{"h3_index":"872830584ffffff","station_count":3,"program_id":"delta","program":"Delta","resolution":7,"stations":[{"station_id":"Nort-013","station_name":"Northeast Delta Subregion - Nort-013","lat":38.209808,"lon":-121.507131,"county":"SAN JOAQUIN"},{"station_id":"SFM1_SRNC","station_name":"South Fork Mokelumne River 1_SRNC","lat":38.224786,"lon":-121.491506,"county":"SAN JOAQUIN"},{"station_id":"NFM1_SRNC","station_name":"North Fork Mokelumne River 1_SRNC","lat":38.222397,"lon":-121.507483,"county":"SACRAMENTO"}]}},{"type":"Feature","geometry":{"type":"Polygon","coordinates":[[[-121.52057822153212,38.21969815288018],[-121.5129011329383,38.23142051572101],[-121.52171546700293,38.24199787405084],[-121.53820698096233,38.240851743580336],[-121.54588072946804,38.22912931078427],[-121.53706630504736,38.21855307831821],[-121.52057822153212,38.21969815288018]]]},"properties":{"h3_index":"872830585ffffff","station_count":2,"program_id":"delta","program":"Delta","resolution":7,"stations":[{"station_id":"Sacr-003","station_name":"Sacramento River Subregion - Sacr-003","lat":38.239172,"lon":-121.521494,"county":"SACRAMENTO"},{"station_id":"Nort-007","station_name":"Northeast Delta Subregion - Nort-007","lat":38.224865,"lon":-121.534385,"county":"SACRAMENTO"}]}},{"type":"Feature","geometry":{"type":"Polygon","coordinates":[[[-121.47110195862427,38.22312015194254],[-121.46341672179258,38.23484078628985],[-121.47222890658367,38.24542303293472],[-121.48872642744416,38.24428351962217],[-121.49640832903448,38.232562811715965],[-121.48759604595256,38.22198169058586],[-121.47110195862427,38.22312015194254]]]},"properties":{"h3_index":"872830586ffffff","station_count":1,"program_id":"delta","program":"Delta","resolution":7,"stations":[{"station_id":"MOKEM_SRNC","station_name":"Mokelumne River End Member_SRNC","lat":38.230939,"lon":-121.490592,"county":"SACRAMENTO"}]}},{"type":"Feature","geometry":{"type":"Polygon","coordinates":[[[-121.5734805145462,38.283133302083606],[-121.56580716590395,38.2948526328025],[-121.57462951059767,38.30541717177886],[-121.5911252868615,38.304261255729486],[-121.59879528590547,38.29254185911216],[-121.58997285922848,38.281978444346464],[-121.5734805145462,38.283133302083606]]]},"properties":{"h3_index":"872830589ffffff","station_count":1,"program_id":"delta","program":"Delta","resolution":7,"stations":[{"station_id":"Sacr-025","station_name":"Sacramento River Subregion - Sacr-025","lat":38.294,"lon":-121.582442,"county":"SACRAMENTO"}]}},{"type":"Feature","geometry":{"type":"Polygon","coordinates":[[[-121.57233200625292,38.26084520021703],[-121.5646601295965,38.2725661175338],[-121.5734805145462,38.283133302083606],[-121.58997285922848,38.281978444346464],[-121.59764138784915,38.2702574609829],[-121.58882092076728,38.25969140130711],[-121.57233200625292,38.26084520021703]]]},"properties":{"h3_index":"87283058dffffff","station_count":1,"program_id":"delta","program":"Delta","resolution":7,"stations":[{"station_id":"Sacr-017","station_name":"Sacramento River Subregion - Sacr-017","lat":38.274153,"lon":-121.588592,"county":"SACRAMENTO"}]}},{"type":"Feature","geometry":{"type":"Polygon","coordinates":[[[-121.42272436815095,38.24882832427025],[-121.41502950726101,38.260545631433914],[-121.42384148375865,38.27113012758137],[-121.44034842819589,38.269996191973725],[-121.44803995715978,38.25827880780099],[-121.43922787456194,38.24769543615002],[-121.42272436815095,38.24882832427025]]]},"properties":{"h3_index":"872830590ffffff","station_count":2,"program_id":"delta","program":"Delta","resolution":7,"stations":[{"station_id":"544ADVLM6","station_name":"Lower Mokelumne River 6-544ADVLM6","lat":38.25542,"lon":-121.44006,"county":"SAN JOAQUIN"},{"station_id":"B9D81531264","station_name":"Mokelumne River at Benson's Ferry","lat":38.254614,"lon":-121.436581,"county":"SAN JOAQUIN"}]}},{"type":"Feature","geometry":{"type":"Polygon","coordinates":[[[-121.42160772694173,38.226522295325914],[-121.4139143479322,38.23824119123204],[-121.42272436815095,38.24882832427025],[-121.43922787456194,38.24769543615002],[-121.4469179231977,38.23597646308402],[-121.4381077967451,38.22539045520321],[-121.42160772694173,38.226522295325914]]]},"properties":{"h3_index":"872830594ffffff","station_count":1,"program_id":"delta","program":"Delta","resolution":7,"stations":[{"station_id":"544SAC002","station_name":"Mokelumne River at New Hope Road","lat":38.23611,"lon":-121.41889,"county":"SAN JOAQUIN"}]}},{"type":"Feature","geometry":{"type":"Polygon","coordinates":[[[-121.47335633319535,38.267721689825215],[-121.46566813937261,38.27943914913184],[-121.47448423876345,38.29001611703507],[-121.4909886309385,38.288874501345376],[-121.4986734864087,38.27715696878045],[-121.48985728900448,38.26658112506815],[-121.47335633319535,38.267721689825215]]]},"properties":{"h3_index":"87283059cffffff","station_count":1,"program_id":"delta","program":"Delta","resolution":7,"stations":[{"station_id":"Nort-010","station_name":"Northeast Delta Subregion - Nort-010","lat":38.269986,"lon":-121.477449,"county":"SACRAMENTO"}]}},{"type":"Feature","geometry":{"type":"Polygon","coordinates":[[[-121.4986734864087,38.27715696878045],[-121.4909886309385,38.288874501345376],[-121.49980678679536,38.29944770255148],[-121.51630989303901,38.29830224706289],[-121.52399140694895,38.28658464311568],[-121.51517315712283,38.27601256594379],[-121.4986734864087,38.27715696878045]]]},"properties":{"h3_index":"87283059dffffff","station_count":1,"program_id":"delta","program":"Delta","resolution":7,"stations":[{"station_id":"Nort-019","station_name":"Northeast Delta Subregion - Nort-019","lat":38.286125,"lon":-121.503182,"county":"SACRAMENTO"}]}},{"type":"Feature","geometry":{"type":"Polygon","coordinates":[[[-121.5183051780625,38.1750860651849],[-121.51063103690927,38.1868115853813],[-121.51944145865406,38.19739421472764],[-121.53592611313839,38.19625019658621],[-121.54359691731568,38.184524606126146],[-121.53478640492831,38.17394310397549],[-121.5183051780625,38.1750860651849]]]},"properties":{"h3_index":"8728305a0ffffff","station_count":1,"program_id":"delta","program":"Delta","resolution":7,"stations":[{"station_id":"NFM3_SRNC","station_name":"North Fork Mokelumne River 3_SRNC","lat":38.182644,"lon":-121.526664,"county":"SAN JOAQUIN"}]}},{"type":"Feature","geometry":{"type":"Polygon","coordinates":[[[-121.54359691731568,38.184524606126146],[-121.53592611313839,38.19625019658621],[-121.54473858111258,38.2068290651648],[-121.5612219408175,38.20568121615261],[-121.56888940482767,38.19395555730922],[-121.56007685024305,38.18337781576545],[-121.54359691731568,38.184524606126146]]]},"properties":{"h3_index":"8728305a1ffffff","station_count":3,"program_id":"delta","program":"Delta","resolution":7,"stations":[{"station_id":"Sacr-012","station_name":"Sacramento River Subregion - Sacr-012","lat":38.192723,"lon":-121.567525,"county":"SACRAMENTO"},{"station_id":"Nort-016","station_name":"Northeast Delta Subregion - Nort-016","lat":38.201632,"lon":-121.541379,"county":"SACRAMENTO"},{"station_id":"GS2_SRNC","station_name":"Georgiana Slough 2_SRNC","lat":38.201247,"lon":-121.541736,"county":"SACRAMENTO"}]}},{"type":"Feature","geometry":{"type":"Polygon","coordinates":[[[-121.51944145865406,38.19739421472764],[-121.51176584405734,38.209118157772494],[-121.52057822153212,38.21969815288018],[-121.53706630504736,38.21855307831821],[-121.54473858111258,38.2068290651648],[-121.53592611313839,38.19625019658621],[-121.51944145865406,38.19739421472764]]]},"properties":{"h3_index":"8728305a3ffffff","station_count":1,"program_id":"delta","program":"Delta","resolution":7,"stations":[{"station_id":"NFM2_SRNC","station_name":"North Fork Mokelumne River 2_SRNC","lat":38.202994,"lon":-121.518447,"county":"SAN JOAQUIN"}]}},{"type":"Feature","geometry":{"type":"Polygon","coordinates":[[[-121.51716937945145,38.15277370985091],[-121.50949671118843,38.16450080414305],[-121.5183051780625,38.1750860651849],[-121.53478640492831,38.17394310397549],[-121.5424557377699,38.1622159392628],[-121.53364718011028,38.15163180608439],[-121.51716937945145,38.15277370985091]]]},"properties":{"h3_index":"8728305a4ffffff","station_count":1,"program_id":"delta","program":"Delta","resolution":7,"stations":[{"station_id":"NFM4_SRNC","station_name":"North Fork Mokelumne River 4_SRNC","lat":38.160164,"lon":-121.533933,"county":"SAN JOAQUIN"}]}},{"type":"Feature","geometry":{"type":"Polygon","coordinates":[[[-121.49301419689095,38.16563993603918],[-121.48533672195659,38.17736538409201],[-121.49414509415638,38.187951772487786],[-121.51063103690927,38.1868115853813],[-121.5183051780625,38.1750860651849],[-121.50949671118843,38.16450080414305],[-121.49301419689095,38.16563993603918]]]},"properties":{"h3_index":"8728305a6ffffff","station_count":1,"program_id":"delta","program":"Delta","resolution":7,"stations":[{"station_id":"SFM3_SRNC","station_name":"South Fork Mokelumne River 3_SRNC","lat":38.181264,"lon":-121.489256,"county":"SAN JOAQUIN"}]}},{"type":"Feature","geometry":{"type":"Polygon","coordinates":[[[-121.59533506059401,38.225675984447996],[-121.58766947116733,38.23740013217922],[-121.5964879795156,38.247968834237795],[-121.61297215662651,38.246812262430694],[-121.6206343979534,38.23508805023099],[-121.6118158112113,38.224520474210514],[-121.59533506059401,38.225675984447996]]]},"properties":{"h3_index":"8728305a9ffffff","station_count":2,"program_id":"delta","program":"Delta","resolution":7,"stations":[{"station_id":"Sacr-006","station_name":"Sacramento River Subregion - Sacr-006","lat":38.240241,"lon":-121.601982,"county":"SACRAMENTO"},{"station_id":"Sacr-024","station_name":"Sacramento River Subregion - Sacr-024","lat":38.229703,"lon":-121.603385,"county":"SOLANO"}]}},{"type":"Feature","geometry":{"type":"Polygon","coordinates":[[[-121.54588072946804,38.22912931078427],[-121.53820698096233,38.240851743580336],[-121.54702336268967,38.25142533739734],[-121.56351358018561,38.25027537261987],[-121.57118398540824,38.23855287174753],[-121.56236751736219,38.227980403632976],[-121.54588072946804,38.22912931078427]]]},"properties":{"h3_index":"8728305aaffffff","station_count":1,"program_id":"delta","program":"Delta","resolution":7,"stations":[{"station_id":"Sacr-018","station_name":"Sacramento River Subregion - Sacr-018","lat":38.239655,"lon":-121.539994,"county":"SACRAMENTO"}]}},{"type":"Feature","geometry":{"type":"Polygon","coordinates":[[[-121.54473858111258,38.2068290651648],[-121.53706630504736,38.21855307831821],[-121.54588072946804,38.22912931078427],[-121.56236751736219,38.227980403632976],[-121.57003645170288,38.21625632225066],[-121.5612219408175,38.20568121615261],[-121.54473858111258,38.2068290651648]]]},"properties":{"h3_index":"8728305aeffffff","station_count":1,"program_id":"delta","program":"Delta","resolution":7,"stations":[{"station_id":"GS1_SRNC","station_name":"Georgiana Slough 1_SRNC","lat":38.223233,"lon":-121.541328,"county":"SACRAMENTO"}]}},{"type":"Feature","geometry":{"type":"Polygon","coordinates":[[[-121.46997548901321,38.2008130524349],[-121.46229172984239,38.212535269730175],[-121.47110195862427,38.22312015194254],[-121.48759604595256,38.22198169058586],[-121.49527647143599,38.21025939957875],[-121.48646614422485,38.199675643544865],[-121.46997548901321,38.2008130524349]]]},"properties":{"h3_index":"8728305b1ffffff","station_count":1,"program_id":"delta","program":"Delta","resolution":7,"stations":[{"station_id":"SFM2_SRNC","station_name":"South Fork Mokelumne River 2_SRNC","lat":38.207314,"lon":-121.482539,"county":"SAN JOAQUIN"}]}},{"type":"Feature","geometry":{"type":"Polygon","coordinates":[[[-121.70889352499613,38.02736525583208],[-121.70126074836053,38.03910690136217],[-121.71006788020743,38.04968574906896],[-121.72650784962119,38.0485218185636],[-121.73413727949756,38.03678011623037],[-121.72533008765178,38.02620240110844],[-121.70889352499613,38.02736525583208]]]},"properties":{"h3_index":"872830c88ffffff","station_count":2,"program_id":"delta","program":"Delta","resolution":7,"stations":[{"station_id":"Conf-024","station_name":"Delta Confluence Subregion - Conf-024","lat":38.039095,"lon":-121.724537,"county":"SACRAMENTO"},{"station_id":"Conf-008","station_name":"Delta Confluence Subregion - Conf-008","lat":38.043454,"lon":-121.709291,"county":"SACRAMENTO"}]}},{"type":"Feature","geometry":{"type":"Polygon","coordinates":[[[-121.68481944728047,38.04026701939255],[-121.67718186996197,38.05200705858929],[-121.68598893795955,38.0625870383778],[-121.70243364805859,38.06142584679085],[-121.71006788020743,38.04968574906896],[-121.70126074836053,38.03910690136217],[-121.68481944728047,38.04026701939255]]]},"properties":{"h3_index":"872830c8affffff","station_count":1,"program_id":"delta","program":"Delta","resolution":7,"stations":[{"station_id":"Conf-027","station_name":"Delta Confluence Subregion - Conf-027","lat":38.051607,"lon":-121.691584,"county":"CONTRA COSTA"}]}},{"type":"Feature","geometry":{"type":"Polygon","coordinates":[[[-121.73295806411525,38.01445915387251],[-121.72533008765178,38.02620240110844],[-121.73413727949756,38.03678011623037],[-121.75057250489077,38.03561345093183],[-121.75819713301163,38.02387014861472],[-121.74938988501296,38.013293566579904],[-121.73295806411525,38.01445915387251]]]},"properties":{"h3_index":"872830c8dffffff","station_count":3,"program_id":"delta","program":"Delta","resolution":7,"stations":[{"station_id":"Conf-004","station_name":"Delta Confluence Subregion - Conf-004","lat":38.021703,"lon":-121.735157,"county":"CONTRA COSTA"},{"station_id":"Conf-010","station_name":"Delta Confluence Subregion - Conf-010","lat":38.025202,"lon":-121.748279,"county":"CONTRA COSTA"},{"station_id":"Conf-003","station_name":"Delta Confluence Subregion - Conf-003","lat":38.029355,"lon":-121.754009,"county":"SACRAMENTO"}]}},{"type":"Feature","geometry":{"type":"Polygon","coordinates":[[[-121.58498076269262,38.024851222129826],[-121.5773283724287,38.036589458299204],[-121.58612929084754,38.04718182743299],[-121.60258268021177,38.04603482821509],[-121.6102317363875,38.03429652613621],[-121.60143073822432,38.023705289088554],[-121.58498076269262,38.024851222129826]]]},"properties":{"h3_index":"872830c93ffffff","station_count":4,"program_id":"delta","program":"Delta","resolution":7,"stations":[{"station_id":"Cent-004","station_name":"Central Delta Subregion - Cent-004","lat":38.038042,"lon":-121.596678,"county":"CONTRA COSTA"},{"station_id":"Cent-008","station_name":"Central Delta Subregion - Cent-008","lat":38.042058,"lon":-121.590154,"county":"CONTRA COSTA"},{"station_id":"Cent-020","station_name":"Central Delta Subregion - Cent-020","lat":38.029193,"lon":-121.58338,"county":"CONTRA COSTA"},{"station_id":"Cent-011","station_name":"Central Delta Subregion - Cent-011","lat":38.034919,"lon":-121.600466,"county":"CONTRA COSTA"}]}},{"type":"Feature","geometry":{"type":"Polygon","coordinates":[[[-121.5826851650311,37.980177516360804],[-121.57503570188204,37.991918849533036],[-121.58383272085644,38.00251644988906],[-121.60027928395809,38.00137158353336],[-121.60792541612093,37.98963018411188],[-121.59912831710433,37.97903371719914],[-121.5826851650311,37.980177516360804]]]},"properties":{"h3_index":"872830c94ffffff","station_count":1,"program_id":"delta","program":"Delta","resolution":7,"stations":[{"station_id":"Cent-009","station_name":"Central Delta Subregion - Cent-009","lat":37.991086,"lon":-121.577781,"county":"SAN JOAQUIN"}]}},{"type":"Feature","geometry":{"type":"Polygon","coordinates":[[[-121.63548343001679,38.04373426454375],[-121.62783771109474,38.05547263064506],[-121.63664268740682,38.066057496316226],[-121.65309345529468,38.06490286403978],[-121.66073583380113,38.0531644358035],[-121.65193078577101,38.042580701881995],[-121.63548343001679,38.04373426454375]]]},"properties":{"h3_index":"872830c98ffffff","station_count":1,"program_id":"delta","program":"Delta","resolution":7,"stations":[{"station_id":"Cent-023","station_name":"Central Delta Subregion - Cent-023","lat":38.051593,"lon":-121.634194,"county":"CONTRA COSTA"}]}},{"type":"Feature","geometry":{"type":"Polygon","coordinates":[[[-121.66073583380113,38.0531644358035],[-121.65309345529468,38.06490286403978],[-121.66190045558797,38.075483975405845],[-121.67834990302693,38.07432552686123],[-121.68598893795955,38.0625870383778],[-121.67718186996197,38.05200705858929],[-121.66073583380113,38.0531644358035]]]},"properties":{"h3_index":"872830c99ffffff","station_count":1,"program_id":"delta","program":"Delta","resolution":7,"stations":[{"station_id":"Conf-019","station_name":"Delta Confluence Subregion - Conf-019","lat":38.059039,"lon":-121.677863,"county":"CONTRA COSTA"}]}},{"type":"Feature","geometry":{"type":"Polygon","coordinates":[[[-121.61138562923145,38.056623446477325],[-121.60373511022945,38.068360195270564],[-121.61254001096184,38.07894619218391],[-121.62899550721289,38.07779430896539],[-121.63664268740682,38.066057496316226],[-121.62783771109474,38.05547263064506],[-121.61138562923145,38.056623446477325]]]},"properties":{"h3_index":"872830c9affffff","station_count":1,"program_id":"delta","program":"Delta","resolution":7,"stations":[{"station_id":"Cent-019","station_name":"Central Delta Subregion - Cent-019","lat":38.061566,"lon":-121.619269,"county":"CONTRA COSTA"}]}},{"type":"Feature","geometry":{"type":"Polygon","coordinates":[[[-121.70654630518715,37.98271177720929],[-121.69891643795295,37.99445650912875],[-121.70771966676085,38.00504059666479],[-121.72415282405558,38.00387881823525],[-121.73177934764651,37.9921340291727],[-121.72297605851725,37.98155107558561],[-121.70654630518715,37.98271177720929]]]},"properties":{"h3_index":"872830caaffffff","station_count":1,"program_id":"delta","program":"Delta","resolution":7,"stations":[{"station_id":"B9C75861385","station_name":"Rock Slough at CCWD Fish Facility","lat":37.9955,"lon":-121.7018,"county":"CONTRA COSTA"}]}},{"type":"Feature","geometry":{"type":"Polygon","coordinates":[[[-121.83391827125924,38.052057743028996],[-121.82630370698071,38.06380119923977],[-121.83511891343575,38.074363882281936],[-121.85154872521734,38.07318197667062],[-121.85915992862242,38.061438472946435],[-121.85034468204749,38.05087692224879],[-121.83391827125924,38.052057743028996]]]},"properties":{"h3_index":"872830cc0ffffff","station_count":1,"program_id":"delta","program":"Delta","resolution":7,"stations":[{"station_id":"Conf-006","station_name":"Delta Confluence Subregion - Conf-006","lat":38.062165,"lon":-121.84303,"county":"SACRAMENTO"}]}},{"type":"Feature","geometry":{"type":"Polygon","coordinates":[[[-121.83271813700014,38.029747433255],[-121.82510501934624,38.0414924319689],[-121.83391827125924,38.052057743028996],[-121.85034468204749,38.05087692224879],[-121.85795444039447,38.03913187585408],[-121.84914114818768,38.02856769782222],[-121.83271813700014,38.029747433255]]]},"properties":{"h3_index":"872830cc4ffffff","station_count":1,"program_id":"delta","program":"Delta","resolution":7,"stations":[{"station_id":"Conf-009","station_name":"Delta Confluence Subregion - Conf-009","lat":38.035015,"lon":-121.831321,"county":"SACRAMENTO"}]}},{"type":"Feature","geometry":{"type":"Polygon","coordinates":[[[-121.8086772463545,38.04266944468358],[-121.80105932432978,38.054412851488486],[-121.80987253211408,38.06497929508259],[-121.82630370698071,38.06380119923977],[-121.83391827125924,38.052057743028996],[-121.82510501934624,38.0414924319689],[-121.8086772463545,38.04266944468358]]]},"properties":{"h3_index":"872830cc6ffffff","station_count":2,"program_id":"delta","program":"Delta","resolution":7,"stations":[{"station_id":"Conf-018","station_name":"Delta Confluence Subregion - Conf-018","lat":38.056084,"lon":-121.807265,"county":"SACRAMENTO"},{"station_id":"Conf-002","station_name":"Delta Confluence Subregion - Conf-002","lat":38.059262,"lon":-121.82224,"county":"SACRAMENTO"}]}},{"type":"Feature","geometry":{"type":"Polygon","coordinates":[[[-121.76056677920644,38.0685005025025],[-121.75293924684074,38.080240711606415],[-121.7617523548449,38.090809418782165],[-121.77819304795827,38.08963678521362],[-121.78581722571782,38.077896523253536],[-121.77700406590162,38.06732894762056],[-121.76056677920644,38.0685005025025]]]},"properties":{"h3_index":"872830cd0ffffff","station_count":1,"program_id":"delta","program":"Delta","resolution":7,"stations":[{"station_id":"Conf-013","station_name":"Delta Confluence Subregion - Conf-013","lat":38.074392,"lon":-121.772879,"county":"SOLANO"}]}},{"type":"Feature","geometry":{"type":"Polygon","coordinates":[[[-121.78462679283214,38.05558713735243],[-121.77700406590162,38.06732894762056],[-121.78581722571782,38.077896523253536],[-121.80225316136286,38.07672115648171],[-121.80987253211408,38.06497929508259],[-121.80105932432978,38.054412851488486],[-121.78462679283214,38.05558713735243]]]},"properties":{"h3_index":"872830cd5ffffff","station_count":1,"program_id":"delta","program":"Delta","resolution":7,"stations":[{"station_id":"Conf-025","station_name":"Delta Confluence Subregion - Conf-025","lat":38.065923,"lon":-121.793419,"county":"SOLANO"}]}},{"type":"Feature","geometry":{"type":"Polygon","coordinates":[[[-121.90721322487005,38.03557472860604],[-121.89961163588556,38.04732140461771],[-121.90842890607696,38.057878060634735],[-121.924847794632,38.05668690741085],[-121.93244601652627,38.04494018923288],[-121.92362871788055,38.03438466634634],[-121.90721322487005,38.03557472860604]]]},"properties":{"h3_index":"872830ce8ffffff","station_count":1,"program_id":"delta","program":"Delta","resolution":7,"stations":[{"station_id":"207SRD10A","station_name":"Sacramento River at Mallard Island","lat":38.04288,"lon":-121.92011,"county":"CONTRA COSTA","waterbody":"Suisun Bay"}]}},{"type":"Feature","geometry":{"type":"Polygon","coordinates":[[[-121.80748246626202,38.02035542580291],[-121.79986599242658,38.03210037494283],[-121.8086772463545,38.04266944468358],[-121.82510501934624,38.0414924319689],[-121.83271813700014,38.029747433255],[-121.8239068387722,38.01917949673178],[-121.80748246626202,38.02035542580291]]]},"properties":{"h3_index":"872830cf1ffffff","station_count":3,"program_id":"delta","program":"Delta","resolution":7,"stations":[{"station_id":"Conf-021","station_name":"Delta Confluence Subregion - Conf-021","lat":38.027242,"lon":-121.811241,"county":"SACRAMENTO"},{"station_id":"Conf-005","station_name":"Delta Confluence Subregion - Conf-005","lat":38.023859,"lon":-121.816109,"county":"SACRAMENTO"},{"station_id":"Conf-001","station_name":"Delta Confluence Subregion - Conf-001","lat":38.041066,"lon":-121.824614,"county":"SACRAMENTO"}]}},{"type":"Feature","geometry":{"type":"Polygon","coordinates":[[[-121.75819713301163,38.02387014861472],[-121.75057250489077,38.03561345093183],[-121.75938170536784,38.0461874105713],[-121.77581558704134,38.04501693489074],[-121.78343686368143,38.03327357938383],[-121.77462761105915,38.02270075264969],[-121.75819713301163,38.02387014861472]]]},"properties":{"h3_index":"872830cf2ffffff","station_count":1,"program_id":"delta","program":"Delta","resolution":7,"stations":[{"station_id":"Conf-026","station_name":"Delta Confluence Subregion - Conf-026","lat":38.035816,"lon":-121.776929,"county":"SACRAMENTO"}]}},{"type":"Feature","geometry":{"type":"Polygon","coordinates":[[[-121.78343686368143,38.03327357938383],[-121.77581558704134,38.04501693489074],[-121.78462679283214,38.05558713735243],[-121.80105932432978,38.054412851488486],[-121.8086772463545,38.04266944468358],[-121.79986599242658,38.03210037494283],[-121.78343686368143,38.03327357938383]]]},"properties":{"h3_index":"872830cf3ffffff","station_count":2,"program_id":"delta","program":"Delta","resolution":7,"stations":[{"station_id":"Conf-017","station_name":"Delta Confluence Subregion - Conf-017","lat":38.044987,"lon":-121.802135,"county":"SACRAMENTO"},{"station_id":"Conf-014","station_name":"Delta Confluence Subregion - Conf-014","lat":38.047866,"lon":-121.794964,"county":"SACRAMENTO"}]}},{"type":"Feature","geometry":{"type":"Polygon","coordinates":[[[-121.60331862862155,37.90024765302499],[-121.59567833793437,37.911995210125276],[-121.60446959463864,37.92259950251307],[-121.62090121960073,37.921455101698115],[-121.62853818233823,37.90970747953905],[-121.61974684899636,37.89910432315741],[-121.60331862862155,37.90024765302499]]]},"properties":{"h3_index":"872830d9affffff","station_count":1,"program_id":"delta","program":"Delta","resolution":7,"stations":[{"station_id":"Cent-005","station_name":"Central Delta Subregion - Cent-005","lat":37.901526,"lon":-121.613998,"county":"CONTRA COSTA"}]}},{"type":"Feature","geometry":{"type":"Polygon","coordinates":[[[-121.5735221779563,37.8013169221651],[-121.56588440140605,37.81307051974849],[-121.57466585674817,37.82368894172955],[-121.59108517079699,37.82255262711198],[-121.59871962872622,37.810798961849436],[-121.58993809215917,37.80018167878754],[-121.5735221779563,37.8013169221651]]]},"properties":{"h3_index":"872830db2ffffff","station_count":1,"program_id":"delta","program":"Delta","resolution":7,"stations":[{"station_id":"544DMC020","station_name":"DMC off HWY 4 ","lat":37.81239,"lon":-121.57887,"county":"CONTRA COSTA"}]}},{"type":"Feature","geometry":{"type":"Polygon","coordinates":[[[-121.59871962872622,37.810798961849436],[-121.59108517079699,37.82255262711198],[-121.59986864968906,37.83316731723548],[-121.61628666467864,37.83202720324576],[-121.62391780083964,37.820273472198075],[-121.61513424471006,37.80965992082898],[-121.59871962872622,37.810798961849436]]]},"properties":{"h3_index":"872830db3ffffff","station_count":1,"program_id":"delta","program":"Delta","resolution":7,"stations":[{"station_id":"KA000331","station_name":"Banks Pumping Plant","lat":37.814797,"lon":-121.615733,"county":"CONTRA COSTA"}]}},{"type":"Feature","geometry":{"type":"Polygon","coordinates":[[[-121.57237898241587,37.778940792485926],[-121.56474266423604,37.79069590916176],[-121.5735221779563,37.8013169221651],[-121.58993809215917,37.80018167878754],[-121.59757109325884,37.788426494245854],[-121.58879149816674,37.7778066208515],[-121.57237898241587,37.778940792485926]]]},"properties":{"h3_index":"872830db6ffffff","station_count":1,"program_id":"delta","program":"Delta","resolution":7,"stations":[{"station_id":"B9C74781351","station_name":"Jones Pumping Plant","lat":37.7969,"lon":-121.5855,"county":"ALAMEDA"}]}},{"type":"Feature","geometry":{"type":"Polygon","coordinates":[[[-121.61848678284703,38.67072428572231],[-121.61079170201077,38.6824162456953],[-121.61964954935355,38.69293162435836],[-121.63620255381656,38.69175393000206],[-121.6438942551032,38.680061908247986],[-121.63503633242998,38.669547642534546],[-121.61848678284703,38.67072428572231]]]},"properties":{"h3_index":"872832a2dffffff","station_count":1,"program_id":"delta","program":"Delta","resolution":7,"stations":[{"station_id":"519SUT108","station_name":"Sacramento River at Elkhorn Boat Launch Facility","lat":38.67245,"lon":-121.625,"county":"SACRAMENTO"}]}},{"type":"Feature","geometry":{"type":"Polygon","coordinates":[[[-121.4683183749151,38.658992707812686],[-121.46060010432042,38.67068097454329],[-121.46944951780775,38.68121378051056],[-121.48601730241894,38.680057206997844],[-121.49373220971236,38.6683688675318],[-121.48488269665495,38.6578371742184],[-121.4683183749151,38.658992707812686]]]},"properties":{"h3_index":"872832a30ffffff","station_count":1,"program_id":"delta","program":"Delta","resolution":7,"stations":[{"station_id":"519SHCDDC","station_name":"Steelhead Creek main stem downstream of confluence with Dry Creek","lat":38.66407,"lon":-121.4772,"county":"SACRAMENTO"}]}},{"type":"Feature","geometry":{"type":"Polygon","coordinates":[[[-121.46718771419282,38.63676730819512],[-121.45947093401833,38.64845721810685],[-121.4683183749151,38.658992707812686],[-121.48488269665495,38.6578371742184],[-121.49259611510185,38.646147191453046],[-121.48374857449505,38.63561281504012],[-121.46718771419282,38.63676730819512]]]},"properties":{"h3_index":"872832a34ffffff","station_count":1,"program_id":"delta","program":"Delta","resolution":7,"stations":[{"station_id":"519SHCDRC","station_name":"Steelhead Creek main stem downstream of Robla and Steelhead Creek confluence","lat":38.6565,"lon":-121.475453,"county":"SACRAMENTO"}]}},{"type":"Feature","geometry":{"type":"Polygon","coordinates":[[[-121.44290532522726,38.64960888241782],[-121.43518369458043,38.66129707455043],[-121.44403103181699,38.67183367706535],[-121.46060010432042,38.67068097454329],[-121.4683183749151,38.658992707812686],[-121.45947093401833,38.64845721810685],[-121.44290532522726,38.64960888241782]]]},"properties":{"h3_index":"872832a36ffffff","station_count":1,"program_id":"delta","program":"Delta","resolution":7,"stations":[{"station_id":"519DRYRLB","station_name":"Terminus of Dry Creek at Rio Linda Blvd","lat":38.67109,"lon":-121.45415,"county":"SACRAMENTO"}]}},{"type":"Feature","geometry":{"type":"Polygon","coordinates":[[[-121.72486191131998,38.796772078762004],[-121.71717446848471,38.80845769140637],[-121.72604842150528,38.8189470300634],[-121.7426098766241,38.81774964629878],[-121.7502939206819,38.80606397978443],[-121.7414199093512,38.79557575080699],[-121.72486191131998,38.796772078762004]]]},"properties":{"h3_index":"872832a4effffff","station_count":1,"program_id":"delta","program":"Delta","resolution":7,"stations":[{"station_id":"A0294500","station_name":"Colusa Basin Ag Drain","lat":38.801973,"lon":-121.725518,"county":"YOLO"}]}},{"type":"Feature","geometry":{"type":"Polygon","coordinates":[[[-121.39654381030398,38.71972117128971],[-121.38880948312448,38.73140260749189],[-121.3976605480349,38.74193606041786],[-121.41424605239732,38.740786966476435],[-121.42197701975144,38.72910545241592],[-121.41312584353216,38.71857311006021],[-121.39654381030398,38.71972117128971]]]},"properties":{"h3_index":"872832aa5ffffff","station_count":1,"program_id":"delta","program":"Delta","resolution":7,"stations":[{"station_id":"519DRYWAB","station_name":"Dry Creek at Watt Ave bridge","lat":38.73456,"lon":-121.3929,"county":"PLACER"}]}},{"type":"Feature","geometry":{"type":"Polygon","coordinates":[[[-121.29700959392387,38.72656245633301],[-121.28925885110186,38.73824024497879],[-121.29810548316776,38.748783514132626],[-121.31470298648031,38.74764788466106],[-121.32245037943765,38.7359700109529],[-121.31360361991474,38.725427851684536],[-121.29700959392387,38.72656245633301]]]},"properties":{"h3_index":"872832ab4ffffff","station_count":1,"program_id":"delta","program":"Delta","resolution":7,"stations":[{"station_id":"519DRYCRK","station_name":"Dry Creek at Roseville WWTP","lat":38.734098,"lon":-121.314445,"county":"PLACER"}]}},{"type":"Feature","geometry":{"type":"Polygon","coordinates":[[[-121.32245037943765,38.7359700109529],[-121.31470298648031,38.74764788466106],[-121.32355171938208,38.75818735638697],[-121.34014796956241,38.75704784456555],[-121.34789200937247,38.74536988765056],[-121.33904315311642,38.73483152566947],[-121.32245037943765,38.7359700109529]]]},"properties":{"h3_index":"872832ab5ffffff","station_count":1,"program_id":"delta","program":"Delta","resolution":7,"stations":[{"station_id":"519DRYCRB","station_name":"Dry Creek at Cook Riolo Rd bridge","lat":38.73672,"lon":-121.3367,"county":"PLACER"}]}},{"type":"Feature","geometry":{"type":"Polygon","coordinates":[[[-121.5134440393351,38.566604416039596],[-121.50573992933505,38.578301013590064],[-121.5145836236997,38.58883963373829],[-121.53113152113129,38.58768054069492],[-121.53883226921923,38.5759838735338],[-121.52998848274248,38.565446368930864],[-121.5134440393351,38.566604416039596]]]},"properties":{"h3_index":"872832b03ffffff","station_count":1,"program_id":"delta","program":"Delta","resolution":7,"stations":[{"station_id":"Sacr-019","station_name":"Sacramento River Subregion - Sacr-019","lat":38.575381,"lon":-121.511692,"county":"YOLO"}]}},{"type":"Feature","geometry":{"type":"Polygon","coordinates":[[[-121.51116632598955,38.52212107559795],[-121.50346518436675,38.53382092707557],[-121.51230494020135,38.54436489483274],[-121.52884593101246,38.543207894178714],[-121.5365437138661,38.53150797283743],[-121.5277038656314,38.52096512191806],[-121.51116632598955,38.52212107559795]]]},"properties":{"h3_index":"872832b04ffffff","station_count":2,"program_id":"delta","program":"Delta","resolution":7,"stations":[{"station_id":"Sacr-015","station_name":"Sacramento River Subregion - Sacr-015","lat":38.534813,"lon":-121.519246,"county":"SACRAMENTO"},{"station_id":"B9D83221310","station_name":"Sacramento River at Westin Boat Dock","lat":38.530034,"lon":-121.530912,"county":"YOLO"}]}},{"type":"Feature","geometry":{"type":"Polygon","coordinates":[[[-121.49032537807122,38.60169087451118],[-121.482614935631,38.61338413491504],[-121.49146050465764,38.62392119196105],[-121.50801661298753,38.62276387409004],[-121.5157236936044,38.611070542456005],[-121.50687802867135,38.60053459982751],[-121.49032537807122,38.60169087451118]]]},"properties":{"h3_index":"872832b18ffffff","station_count":1,"program_id":"delta","program":"Delta","resolution":7,"stations":[{"station_id":"519AMNDVY","station_name":"American River at Discovery Park","lat":38.60094,"lon":-121.5055,"county":"SACRAMENTO"}]}},{"type":"Feature","geometry":{"type":"Polygon","coordinates":[[[-121.46492783803025,38.592303550018315],[-121.45721403700644,38.603996737326916],[-121.46605753533356,38.61453758711036],[-121.482614935631,38.61338413491504],[-121.49032537807122,38.60169087451118],[-121.48148177975489,38.591151139302475],[-121.46492783803025,38.592303550018315]]]},"properties":{"h3_index":"872832b1effffff","station_count":1,"program_id":"delta","program":"Delta","resolution":7,"stations":[{"station_id":"A0V83671280","station_name":"Natomas East Main Drainage Canal","lat":38.6111,"lon":-121.4673,"county":"SACRAMENTO"}]}},{"type":"Feature","geometry":{"type":"Polygon","coordinates":[[[-121.53425710614181,38.48701489412352],[-121.52656228628973,38.498718057635806],[-121.53540016670532,38.509263577988435],[-121.55193295654396,38.50810481675881],[-121.55962441754443,38.49640158499285],[-121.55078644850958,38.48585718261426],[-121.53425710614181,38.48701489412352]]]},"properties":{"h3_index":"872832b20ffffff","station_count":1,"program_id":"delta","program":"Delta","resolution":7,"stations":[{"station_id":"Sacr-023","station_name":"Sacramento River Subregion - Sacr-023","lat":38.494161,"lon":-121.555867,"county":"SACRAMENTO"}]}},{"type":"Feature","geometry":{"type":"Polygon","coordinates":[[[-121.53540016670532,38.509263577988435],[-121.5277038656314,38.52096512191806],[-121.5365437138661,38.53150797283743],[-121.55307995260019,38.53034816240671],[-121.56077289325184,38.518646550353665],[-121.55193295654396,38.50810481675881],[-121.53540016670532,38.509263577988435]]]},"properties":{"h3_index":"872832b23ffffff","station_count":1,"program_id":"delta","program":"Delta","resolution":7,"stations":[{"station_id":"Sacr-011","station_name":"Sacramento River Subregion - Sacr-011","lat":38.514541,"lon":-121.545627,"county":"SACRAMENTO"}]}},{"type":"Feature","geometry":{"type":"Polygon","coordinates":[[[-121.36215977027805,38.0289327763259],[-121.35447159984277,38.040664109603654],[-121.36326187770621,38.05127973338733],[-121.37974044228486,38.05016289301937],[-121.3874253011338,38.038431477549594],[-121.3786349079362,38.0278169845454],[-121.36215977027805,38.0289327763259]]]},"properties":{"h3_index":"87283620cffffff","station_count":1,"program_id":"delta","program":"Delta","resolution":7,"stations":[{"station_id":"Sout-006","station_name":"South Delta Subregion - Sout-006","lat":38.032827,"lon":-121.379842,"county":"SAN JOAQUIN"}]}},{"type":"Feature","geometry":{"type":"Polygon","coordinates":[[[-121.3336076471427,37.952349678465396],[-121.32592061109028,37.96408560042949],[-121.33470298593475,37.974712782062866],[-121.35117251750076,37.9736029086998],[-121.35885624978391,37.96186690215147],[-121.35007375521502,37.951240853456326],[-121.3336076471427,37.952349678465396]]]},"properties":{"h3_index":"872836220ffffff","station_count":1,"program_id":"delta","program":"Delta","resolution":7,"stations":[{"station_id":"Sout-013","station_name":"South Delta Subregion - Sout-013","lat":37.952684,"lon":-121.341496,"county":"SAN JOAQUIN"}]}},{"type":"Feature","geometry":{"type":"Polygon","coordinates":[[[-121.35885624978391,37.96186690215147],[-121.35117251750076,37.9736029086998],[-121.35995695661292,37.98422635504279],[-121.37642524466604,37.98311266194609],[-121.38410566997672,37.971376572695895],[-121.3753211151508,37.96075425914994],[-121.35885624978391,37.96186690215147]]]},"properties":{"h3_index":"872836221ffffff","station_count":2,"program_id":"delta","program":"Delta","resolution":7,"stations":[{"station_id":"544SJRNBC","station_name":"San Joaquin River near Buckley Cove","lat":37.97417,"lon":-121.37601,"county":"SAN JOAQUIN"},{"station_id":"544LSAC13","station_name":"San Joaquin R at Buckley Cove","lat":37.971833,"lon":-121.373619,"county":"SAN JOAQUIN"}]}},{"type":"Feature","geometry":{"type":"Polygon","coordinates":[[[-121.33470298593475,37.974712782062866],[-121.32701446952123,37.98644714952769],[-121.33579878903271,37.9970717281354],[-121.3522717455037,37.995960806919406],[-121.35995695661292,37.98422635504279],[-121.35117251750076,37.9736029086998],[-121.33470298593475,37.974712782062866]]]},"properties":{"h3_index":"872836223ffffff","station_count":1,"program_id":"delta","program":"Delta","resolution":7,"stations":[{"station_id":"B9D75891188","station_name":"Calaveras River at UOP Footbridge","lat":37.980025,"lon":-121.336477,"county":"SAN JOAQUIN"}]}},{"type":"Feature","geometry":{"type":"Polygon","coordinates":[[[-121.40935589795326,37.98087868844109],[-121.40167878281473,37.99261485851036],[-121.41046734060814,38.003230828963616],[-121.42693312217357,38.00210949674602],[-121.43460692394386,37.99037324774086],[-121.42581825845961,37.97975840979441],[-121.40935589795326,37.98087868844109]]]},"properties":{"h3_index":"87283622dffffff","station_count":1,"program_id":"delta","program":"Delta","resolution":7,"stations":[{"station_id":"Sout-007","station_name":"South Delta Subregion - Sout-007","lat":37.997654,"lon":-121.410041,"county":"SAN JOAQUIN"}]}},{"type":"Feature","geometry":{"type":"Polygon","coordinates":[[[-121.35995695661292,37.98422635504279],[-121.3522717455037,37.995960806919406],[-121.36105813001234,38.006581648323845],[-121.37752984216226,38.005466905633966],[-121.38521174476212,37.993732371227196],[-121.37642524466604,37.98311266194609],[-121.35995695661292,37.98422635504279]]]},"properties":{"h3_index":"87283622effffff","station_count":1,"program_id":"delta","program":"Delta","resolution":7,"stations":[{"station_id":"Sout-023","station_name":"South Delta Subregion - Sout-023","lat":37.995899,"lon":-121.368843,"county":"SAN JOAQUIN"}]}},{"type":"Feature","geometry":{"type":"Polygon","coordinates":[[[-121.48849540188337,38.07635060884426],[-121.48082382139697,38.08808233427125],[-121.48962438213519,38.09867922661753],[-121.5060966195365,38.097543263410046],[-121.51376487244583,38.08581146519851],[-121.50496421647311,38.07521570288359],[-121.48849540188337,38.07635060884426]]]},"properties":{"h3_index":"872836240ffffff","station_count":1,"program_id":"delta","program":"Delta","resolution":7,"stations":[{"station_id":"544LILPSL","station_name":"Little Potato Slough","lat":38.09627,"lon":-121.49602,"county":"SAN JOAQUIN"}]}},{"type":"Feature","geometry":{"type":"Polygon","coordinates":[[[-121.46435030556573,38.089214473186345],[-121.45667392636426,38.10094455936446],[-121.46547438798416,38.11154258122599],[-121.48195132886732,38.110409387298915],[-121.48962438213519,38.09867922661753],[-121.48082382139697,38.08808233427125],[-121.46435030556573,38.089214473186345]]]},"properties":{"h3_index":"872836242ffffff","station_count":2,"program_id":"delta","program":"Delta","resolution":7,"stations":[{"station_id":"Sout-012","station_name":"South Delta Subregion - Sout-012","lat":38.100074,"lon":-121.488692,"county":"SAN JOAQUIN"},{"station_id":"Sout-016","station_name":"South Delta Subregion - Sout-016","lat":38.089906,"lon":-121.480798,"county":"SAN JOAQUIN"}]}},{"type":"Feature","geometry":{"type":"Polygon","coordinates":[[[-121.48962438213519,38.09867922661753],[-121.48195132886732,38.110409387298915],[-121.49075384118446,38.121003657489894],[-121.50722950280708,38.11986663754382],[-121.51489922694849,38.1081364042408],[-121.5060966195365,38.097543263410046],[-121.48962438213519,38.09867922661753]]]},"properties":{"h3_index":"872836243ffffff","station_count":1,"program_id":"delta","program":"Delta","resolution":7,"stations":[{"station_id":"Sout-020","station_name":"South Delta Subregion - Sout-020","lat":38.105627,"lon":-121.489373,"county":"SAN JOAQUIN"}]}},{"type":"Feature","geometry":{"type":"Polygon","coordinates":[[[-121.48736690012554,38.054017809802225],[-121.47969679186748,38.06575109690401],[-121.48849540188337,38.07635060884426],[-121.50496421647311,38.07521570288359],[-121.5126309987025,38.06348234283258],[-121.50383229331247,38.05288396159605],[-121.48736690012554,38.054017809802225]]]},"properties":{"h3_index":"872836244ffffff","station_count":1,"program_id":"delta","program":"Delta","resolution":7,"stations":[{"station_id":"Sout-024","station_name":"South Delta Subregion - Sout-024","lat":38.063877,"lon":-121.498171,"county":"SAN JOAQUIN"}]}},{"type":"Feature","geometry":{"type":"Polygon","coordinates":[[[-121.54017483020353,38.117586004475804],[-121.53250843837777,38.12931630851846],[-121.54131504216814,38.1399030701764],[-121.55778812577194,38.13875839865346],[-121.56545118209634,38.1270280257536],[-121.5566444912596,38.116442393138016],[-121.54017483020353,38.117586004475804]]]},"properties":{"h3_index":"872836248ffffff","station_count":1,"program_id":"delta","program":"Delta","resolution":7,"stations":[{"station_id":"Nort-015","station_name":"Northeast Delta Subregion - Nort-015","lat":38.129693,"lon":-121.561755,"county":"SAN JOAQUIN"}]}},{"type":"Feature","geometry":{"type":"Polygon","coordinates":[[[-121.56545118209634,38.1270280257536],[-121.55778812577194,38.13875839865346],[-121.56659677033284,38.14934140345989],[-121.58306855518029,38.14819290639085],[-121.5907282728214,38.136462466516576],[-121.58191954523897,38.125880590589674],[-121.56545118209634,38.1270280257536]]]},"properties":{"h3_index":"872836249ffffff","station_count":2,"program_id":"delta","program":"Delta","resolution":7,"stations":[{"station_id":"Nort-020","station_name":"Northeast Delta Subregion - Nort-020","lat":38.130875,"lon":-121.574056,"county":"SACRAMENTO"},{"station_id":"Nort-024","station_name":"Northeast Delta Subregion - Nort-024","lat":38.135147,"lon":-121.563099,"county":"SAN JOAQUIN"}]}},{"type":"Feature","geometry":{"type":"Polygon","coordinates":[[[-121.53903510156938,38.09526474777707],[-121.53137017942444,38.106996616890434],[-121.54017483020353,38.117586004475804],[-121.5566444912596,38.116442393138016],[-121.56430607945639,38.104710455005936],[-121.55550134148599,38.09412219713452],[-121.53903510156938,38.09526474777707]]]},"properties":{"h3_index":"87283624cffffff","station_count":1,"program_id":"delta","program":"Delta","resolution":7,"stations":[{"station_id":"Nort-004","station_name":"Northeast Delta Subregion - Nort-004","lat":38.115854,"lon":-121.551717,"county":"SAN JOAQUIN"}]}},{"type":"Feature","geometry":{"type":"Polygon","coordinates":[[[-121.56430607945639,38.104710455005936],[-121.5566444912596,38.116442393138016],[-121.56545118209634,38.1270280257536],[-121.58191954523897,38.125880590589674],[-121.58957779630744,38.114148585322404],[-121.58077102230166,38.10356408225816],[-121.56430607945639,38.104710455005936]]]},"properties":{"h3_index":"87283624dffffff","station_count":1,"program_id":"delta","program":"Delta","resolution":7,"stations":[{"station_id":"Nort-008","station_name":"Northeast Delta Subregion - Nort-008","lat":38.120163,"lon":-121.58254,"county":"SAN JOAQUIN"}]}},{"type":"Feature","geometry":{"type":"Polygon","coordinates":[[[-121.51489922694849,38.1081364042408],[-121.50722950280708,38.11986663754382],[-121.51603406251527,38.13045715433177],[-121.53250843837777,38.12931630851846],[-121.54017483020353,38.117586004475804],[-121.53137017942444,38.106996616890434],[-121.51489922694849,38.1081364042408]]]},"properties":{"h3_index":"87283624effffff","station_count":1,"program_id":"delta","program":"Delta","resolution":7,"stations":[{"station_id":"Nort-012","station_name":"Northeast Delta Subregion - Nort-012","lat":38.122799,"lon":-121.525212,"county":"SAN JOAQUIN"}]}},{"type":"Feature","geometry":{"type":"Polygon","coordinates":[[[-121.4665989472354,38.13386649878931],[-121.45891961771191,38.145593446598916],[-121.46772398362204,38.15618622025405],[-121.48420777884351,38.15505091782735],[-121.49188377933504,38.14332389583637],[-121.48307931458167,38.13273225035817],[-121.4665989472354,38.13386649878931]]]},"properties":{"h3_index":"872836258ffffff","station_count":1,"program_id":"delta","program":"Delta","resolution":7,"stations":[{"station_id":"Nort-017","station_name":"Northeast Delta Subregion - Nort-017","lat":38.142763,"lon":-121.47036,"county":"SAN JOAQUIN"}]}},{"type":"Feature","geometry":{"type":"Polygon","coordinates":[[[-121.49188377933504,38.14332389583637],[-121.48420777884351,38.15505091782735],[-121.49301419689095,38.16563993603918],[-121.50949671118843,38.16450080414305],[-121.51716937945145,38.15277370985091],[-121.50836286658941,38.14218581966056],[-121.49188377933504,38.14332389583637]]]},"properties":{"h3_index":"872836259ffffff","station_count":2,"program_id":"delta","program":"Delta","resolution":7,"stations":[{"station_id":"SFM4_SRNC","station_name":"South Fork Mokelumne River 4_SRNC","lat":38.153822,"lon":-121.503183,"county":"SAN JOAQUIN"},{"station_id":"Nort-021","station_name":"Northeast Delta Subregion - Nort-021","lat":38.156139,"lon":-121.503108,"county":"SAN JOAQUIN"}]}},{"type":"Feature","geometry":{"type":"Polygon","coordinates":[[[-121.46772398362204,38.15618622025405],[-121.46004317810497,38.16791159428379],[-121.46884949744695,38.178501740005196],[-121.48533672195659,38.17736538409201],[-121.49301419689095,38.16563993603918],[-121.48420777884351,38.15505091782735],[-121.46772398362204,38.15618622025405]]]},"properties":{"h3_index":"87283625bffffff","station_count":2,"program_id":"delta","program":"Delta","resolution":7,"stations":[{"station_id":"Nort-002","station_name":"Northeast Delta Subregion - Nort-002","lat":38.165568,"lon":-121.491334,"county":"SAN JOAQUIN"},{"station_id":"Nort-018","station_name":"Northeast Delta Subregion - Nort-018","lat":38.168812,"lon":-121.47039,"county":"SAN JOAQUIN"}]}},{"type":"Feature","geometry":{"type":"Polygon","coordinates":[[[-121.49075384118446,38.121003657489894],[-121.48307931458167,38.13273225035817],[-121.49188377933504,38.14332389583637],[-121.50836286658941,38.14218581966056],[-121.51603406251527,38.13045715433177],[-121.50722950280708,38.11986663754382],[-121.49075384118446,38.121003657489894]]]},"properties":{"h3_index":"87283625dffffff","station_count":3,"program_id":"delta","program":"Delta","resolution":7,"stations":[{"station_id":"Nort-005","station_name":"Northeast Delta Subregion - Nort-005","lat":38.142496,"lon":-121.496832,"county":"SAN JOAQUIN"},{"station_id":"Nort-025","station_name":"Northeast Delta Subregion - Nort-025","lat":38.128988,"lon":-121.499448,"county":"SAN JOAQUIN"},{"station_id":"Nort-009","station_name":"Northeast Delta Subregion - Nort-009","lat":38.122351,"lon":-121.498294,"county":"SAN JOAQUIN"}]}},{"type":"Feature","geometry":{"type":"Polygon","coordinates":[[[-121.51036469227509,38.0188115706765],[-121.50270084975051,38.03054804518617],[-121.51149760541371,38.0411490427779],[-121.52795829618032,38.040012433869094],[-121.53561881258796,38.02827588796032],[-121.52682196528575,38.017676022263856],[-121.51036469227509,38.0188115706765]]]},"properties":{"h3_index":"872836260ffffff","station_count":1,"program_id":"delta","program":"Delta","resolution":7,"stations":[{"station_id":"Cent-012","station_name":"Central Delta Subregion - Cent-012","lat":38.023199,"lon":-121.513719,"county":"SAN JOAQUIN"}]}},{"type":"Feature","geometry":{"type":"Polygon","coordinates":[[[-121.48623887655846,38.03168083513073],[-121.47857023997582,38.043415680833206],[-121.48736690012554,38.054017809802225],[-121.50383229331247,38.05288396159605],[-121.51149760541371,38.0411490427779],[-121.50270084975051,38.03054804518617],[-121.48623887655846,38.03168083513073]]]},"properties":{"h3_index":"872836262ffffff","station_count":3,"program_id":"delta","program":"Delta","resolution":7,"stations":[{"station_id":"Sout-005","station_name":"South Delta Subregion - Sout-005","lat":38.038762,"lon":-121.483378,"county":"SAN JOAQUIN"},{"station_id":"Sout-001","station_name":"South Delta Subregion - Sout-001","lat":38.052834,"lon":-121.498638,"county":"SAN JOAQUIN"},{"station_id":"Sout-017","station_name":"South Delta Subregion - Sout-017","lat":38.041658,"lon":-121.497708,"county":"SAN JOAQUIN"}]}},{"type":"Feature","geometry":{"type":"Polygon","coordinates":[[[-121.50923225898245,37.9964699321776],[-121.50156988548332,38.00820795929988],[-121.51036469227509,38.0188115706765],[-121.52682196528575,38.017676022263856],[-121.534481014215,38.00593792357315],[-121.52568611564269,37.995335444767946],[-121.50923225898245,37.9964699321776]]]},"properties":{"h3_index":"872836264ffffff","station_count":1,"program_id":"delta","program":"Delta","resolution":7,"stations":[{"station_id":"Cent-022","station_name":"Central Delta Subregion - Cent-022","lat":38.003637,"lon":-121.52884,"county":"SAN JOAQUIN"}]}},{"type":"Feature","geometry":{"type":"Polygon","coordinates":[[[-121.56201732973506,38.06006275686882],[-121.55435867614392,38.07179781626561],[-121.56316146210513,38.082388696835686],[-121.57962298605973,38.08124338701444],[-121.58727830562931,38.069508260155516],[-121.57847543620477,38.05891851048395],[-121.56201732973506,38.06006275686882]]]},"properties":{"h3_index":"872836268ffffff","station_count":2,"program_id":"delta","program":"Delta","resolution":7,"stations":[{"station_id":"Cent-003","station_name":"Central Delta Subregion - Cent-003","lat":38.077624,"lon":-121.575533,"county":"SAN JOAQUIN"},{"station_id":"Cent-014","station_name":"Central Delta Subregion - Cent-014","lat":38.063075,"lon":-121.561028,"county":"SAN JOAQUIN"}]}},{"type":"Feature","geometry":{"type":"Polygon","coordinates":[[[-121.53789585595948,38.07293930570345],[-121.53023240294424,38.08467273682027],[-121.53903510156938,38.09526474777707],[-121.55550134148599,38.09412219713452],[-121.56316146210513,38.082388696835686],[-121.55435867614392,38.07179781626561],[-121.53789585595948,38.07293930570345]]]},"properties":{"h3_index":"87283626affffff","station_count":1,"program_id":"delta","program":"Delta","resolution":7,"stations":[{"station_id":"Sout-008","station_name":"South Delta Subregion - Sout-008","lat":38.085783,"lon":-121.552624,"county":"SAN JOAQUIN"}]}},{"type":"Feature","geometry":{"type":"Polygon","coordinates":[[[-121.56316146210513,38.082388696835686],[-121.55550134148599,38.09412219713452],[-121.56430607945639,38.104710455005936],[-121.58077102230166,38.10356408225816],[-121.58842780734639,38.09183051466154],[-121.57962298605973,38.08124338701444],[-121.56316146210513,38.082388696835686]]]},"properties":{"h3_index":"87283626bffffff","station_count":1,"program_id":"delta","program":"Delta","resolution":7,"stations":[{"station_id":"Nort-023","station_name":"Northeast Delta Subregion - Nort-023","lat":38.101147,"lon":-121.562982,"county":"SAN JOAQUIN"}]}},{"type":"Feature","geometry":{"type":"Polygon","coordinates":[[[-121.56087368203897,38.03773264073846],[-121.55321649492646,38.049469256161125],[-121.56201732973506,38.06006275686882],[-121.57847543620477,38.05891851048395],[-121.58612929084754,38.04718182743299],[-121.5773283724287,38.036589458299204],[-121.56087368203897,38.03773264073846]]]},"properties":{"h3_index":"87283626cffffff","station_count":1,"program_id":"delta","program":"Delta","resolution":7,"stations":[{"station_id":"Cent-024","station_name":"Central Delta Subregion - Cent-024","lat":38.038923,"lon":-121.569685,"county":"SAN JOAQUIN"}]}},{"type":"Feature","geometry":{"type":"Polygon","coordinates":[[[-121.58612929084754,38.04718182743299],[-121.57847543620477,38.05891851048395],[-121.58727830562931,38.069508260155516],[-121.60373511022945,38.068360195270564],[-121.61138562923145,38.056623446477325],[-121.60258268021177,38.04603482821509],[-121.58612929084754,38.04718182743299]]]},"properties":{"h3_index":"87283626dffffff","station_count":1,"program_id":"delta","program":"Delta","resolution":7,"stations":[{"station_id":"Cent-015","station_name":"Central Delta Subregion - Cent-015","lat":38.056924,"lon":-121.608651,"county":"CONTRA COSTA"}]}},{"type":"Feature","geometry":{"type":"Polygon","coordinates":[[[-121.46210357001817,38.04454570820286],[-121.45443013892053,38.05627892047241],[-121.46322669967776,38.066882180299764],[-121.47969679186748,38.06575109690401],[-121.48736690012554,38.054017809802225],[-121.47857023997582,38.043415680833206],[-121.46210357001817,38.04454570820286]]]},"properties":{"h3_index":"872836271ffffff","station_count":2,"program_id":"delta","program":"Delta","resolution":7,"stations":[{"station_id":"Sout-019","station_name":"South Delta Subregion - Sout-019","lat":38.050892,"lon":-121.465035,"county":"SAN JOAQUIN"},{"station_id":"Sout-003","station_name":"South Delta Subregion - Sout-003","lat":38.046231,"lon":-121.475567,"county":"SAN JOAQUIN"}]}},{"type":"Feature","geometry":{"type":"Polygon","coordinates":[[[-121.41269163951168,38.04792261303855],[-121.40501009545437,38.05965410881966],[-121.41380449635805,38.070262245278386],[-121.43028054955919,38.069137755373156],[-121.43795877562314,38.05740618116179],[-121.42916426742362,38.04679917519111],[-121.41269163951168,38.04792261303855]]]},"properties":{"h3_index":"872836272ffffff","station_count":1,"program_id":"delta","program":"Delta","resolution":7,"stations":[{"station_id":"Sout-022","station_name":"South Delta Subregion - Sout-022","lat":38.050653,"lon":-121.418343,"county":"SAN JOAQUIN"}]}},{"type":"Feature","geometry":{"type":"Polygon","coordinates":[[[-121.41157925436137,38.025578805716044],[-121.40389918716629,38.03731186267374],[-121.41269163951168,38.04792261303855],[-121.42916426742362,38.04679917519111],[-121.43684101816812,38.03506603963638],[-121.42804845839503,38.02445642043135],[-121.41157925436137,38.025578805716044]]]},"properties":{"h3_index":"872836276ffffff","station_count":1,"program_id":"delta","program":"Delta","resolution":7,"stations":[{"station_id":"Sout-014","station_name":"South Delta Subregion - Sout-014","lat":38.041055,"lon":-121.42992,"county":"SAN JOAQUIN"}]}},{"type":"Feature","geometry":{"type":"Polygon","coordinates":[[[-121.4171459000674,38.13725603508282],[-121.40945844299465,38.1489812554295],[-121.4182606466931,38.15957891060882],[-121.43475041517732,38.15845021753353],[-121.44243454807506,38.14672491940598],[-121.43363223761017,38.136128392039744],[-121.4171459000674,38.13725603508282]]]},"properties":{"h3_index":"8728362edffffff","station_count":1,"program_id":"delta","program":"Delta","resolution":7,"stations":[{"station_id":"Nort-001","station_name":"Northeast Delta Subregion - Nort-001","lat":38.144768,"lon":-121.439405,"county":"SAN JOAQUIN"}]}},{"type":"Feature","geometry":{"type":"Polygon","coordinates":[[[-121.3061813154099,37.89807895845559],[-121.2984939409049,37.90981789332318],[-121.30727036288656,37.9204540029107],[-121.32373428429402,37.91935004310973],[-121.33141836129968,37.90761102142439],[-121.32264181534156,37.89697604626385],[-121.3061813154099,37.89807895845559]]]},"properties":{"h3_index":"87283631dffffff","station_count":1,"program_id":"delta","program":"Delta","resolution":7,"stations":[{"station_id":"Sout-025","station_name":"South Delta Subregion - Sout-025","lat":37.916627,"lon":-121.321438,"county":"SAN JOAQUIN"}]}},{"type":"Feature","geometry":{"type":"Polygon","coordinates":[[[-121.30074298964037,37.78614177501257],[-121.29306301063228,37.797888404002784],[-121.30182973421816,37.808537454133464],[-121.31827656233142,37.807438737356954],[-121.32595325147965,37.795692020639045],[-121.31718640331596,37.78504410833148],[-121.30074298964037,37.78614177501257]]]},"properties":{"h3_index":"872836326ffffff","station_count":1,"program_id":"delta","program":"Delta","resolution":7,"stations":[{"station_id":"Sout-011","station_name":"South Delta Subregion - Sout-011","lat":37.793685,"lon":-121.307466,"county":"SAN JOAQUIN"}]}},{"type":"Feature","geometry":{"type":"Polygon","coordinates":[[[-121.5047073181974,37.907061827441794],[-121.49705081529412,37.91880603415957],[-121.50583783514264,37.92942007489541],[-121.52228145117604,37.92828877353004],[-121.5299346356869,37.916544494548965],[-121.52114752349381,37.905931589100994],[-121.5047073181974,37.907061827441794]]]},"properties":{"h3_index":"872836345ffffff","station_count":1,"program_id":"delta","program":"Delta","resolution":7,"stations":[{"station_id":"Cent-002","station_name":"Central Delta Subregion - Cent-002","lat":37.921025,"lon":-121.517353,"county":"SAN JOAQUIN"}]}},{"type":"Feature","geometry":{"type":"Polygon","coordinates":[[[-121.50810030523189,37.974124132937554],[-121.5004394002073,37.985863709590234],[-121.50923225898245,37.9964699321776],[-121.52568611564269,37.995335444767946],[-121.53334369764333,37.983595796375795],[-121.52455074694635,37.97299070703719],[-121.50810030523189,37.974124132937554]]]},"properties":{"h3_index":"87283634affffff","station_count":3,"program_id":"delta","program":"Delta","resolution":7,"stations":[{"station_id":"Cent-006","station_name":"Central Delta Subregion - Cent-006","lat":37.99242,"lon":-121.52336,"county":"SAN JOAQUIN"},{"station_id":"Cent-010","station_name":"Central Delta Subregion - Cent-010","lat":37.976457,"lon":-121.514616,"county":"SAN JOAQUIN"},{"station_id":"Cent-018","station_name":"Central Delta Subregion - Cent-018","lat":37.991558,"lon":-121.515346,"county":"SAN JOAQUIN"}]}},{"type":"Feature","geometry":{"type":"Polygon","coordinates":[[[-121.5563039318579,37.94837052749566],[-121.5486526051722,37.96011333623523],[-121.55744564392563,37.97071729180532],[-121.57389009449648,37.96957730425255],[-121.58153809490894,37.957834427202435],[-121.57274497195996,37.94723160591966],[-121.5563039318579,37.94837052749566]]]},"properties":{"h3_index":"87283634dffffff","station_count":1,"program_id":"delta","program":"Delta","resolution":7,"stations":[{"station_id":"B9D75811344","station_name":"Old River at Bacon Island","lat":37.9691,"lon":-121.5729,"county":"SAN JOAQUIN"}]}},{"type":"Feature","geometry":{"type":"Polygon","coordinates":[[[-121.38300006372879,37.94901661814412],[-121.3753211151508,37.96075425914994],[-121.38410566997672,37.971376572695895],[-121.40056928615468,37.97026011181318],[-121.40824492609822,37.95852238981548],[-121.39946025944103,37.94790120959785],[-121.38300006372879,37.94901661814412]]]},"properties":{"h3_index":"872836352ffffff","station_count":1,"program_id":"delta","program":"Delta","resolution":7,"stations":[{"station_id":"Sout-002","station_name":"South Delta Subregion - Sout-002","lat":37.958226,"lon":-121.379492,"county":"SAN JOAQUIN"}]}},{"type":"Feature","geometry":{"type":"Polygon","coordinates":[[[-121.43460692394386,37.99037324774086],[-121.42693312217357,38.00210949674602],[-121.4357237343751,38.012721726610934],[-121.45218825296743,38.01159657501788],[-121.45985873817689,37.9998602489604],[-121.45106802229681,37.98924915145331],[-121.43460692394386,37.99037324774086]]]},"properties":{"h3_index":"87283635affffff","station_count":1,"program_id":"delta","program":"Delta","resolution":7,"stations":[{"station_id":"Sout-010","station_name":"South Delta Subregion - Sout-010","lat":38.005638,"lon":-121.444296,"county":"SAN JOAQUIN"}]}},{"type":"Feature","geometry":{"type":"Polygon","coordinates":[[[-121.45985873817689,37.9998602489604],[-121.45218825296743,38.01159657501788],[-121.4609809162851,38.02220506253942],[-121.47744416541933,38.02107609170209],[-121.48511133087906,38.00933969047631],[-121.47631856789555,37.998732335160994],[-121.45985873817689,37.9998602489604]]]},"properties":{"h3_index":"87283635bffffff","station_count":1,"program_id":"delta","program":"Delta","resolution":7,"stations":[{"station_id":"Sout-026","station_name":"South Delta Subregion - Sout-026","lat":38.007743,"lon":-121.455756,"county":"SAN JOAQUIN"}]}},{"type":"Feature","geometry":{"type":"Polygon","coordinates":[[[-121.47835607550883,37.87520557001432],[-121.47069772519946,37.88695123957036],[-121.47948076021069,37.8975716155889],[-121.49592224295183,37.8964451858306],[-121.50357727958118,37.8846994419441],[-121.49479414808656,37.87408020205104],[-121.47835607550883,37.87520557001432]]]},"properties":{"h3_index":"872836362ffffff","station_count":1,"program_id":"delta","program":"Delta","resolution":7,"stations":[{"station_id":"544MDRBH4","station_name":"Middle River at Borden Hwy (Hwy 4)","lat":37.89083,"lon":-121.48833,"county":"SAN JOAQUIN"}]}},{"type":"Feature","geometry":{"type":"Polygon","coordinates":[[[-121.55402195684137,37.90366456088125],[-121.5463735570806,37.915410447761346],[-121.55516270293172,37.92601961529563],[-121.5716003339656,37.92488176020274],[-121.579245410545,37.913135804660314],[-121.57045618020689,37.9025277727772],[-121.55402195684137,37.90366456088125]]]},"properties":{"h3_index":"872836368ffffff","station_count":1,"program_id":"delta","program":"Delta","resolution":7,"stations":[{"station_id":"Cent-017","station_name":"Central Delta Subregion - Cent-017","lat":37.920262,"lon":-121.555689,"county":"SAN JOAQUIN"}]}},{"type":"Feature","geometry":{"type":"Polygon","coordinates":[[[-121.55516270293172,37.92601961529563],[-121.54751283998226,37.93776396465134],[-121.5563039318579,37.94837052749566],[-121.57274497195996,37.94723160591966],[-121.58039151018264,37.9354871880784],[-121.5716003339656,37.92488176020274],[-121.55516270293172,37.92601961529563]]]},"properties":{"h3_index":"87283636bffffff","station_count":1,"program_id":"delta","program":"Delta","resolution":7,"stations":[{"station_id":"Cent-013","station_name":"Central Delta Subregion - Cent-013","lat":37.942479,"lon":-121.559276,"county":"SAN JOAQUIN"}]}},{"type":"Feature","geometry":{"type":"Polygon","coordinates":[[[-121.55288169328139,37.88130536993579],[-121.54523475616202,37.89305279124518],[-121.55402195684137,37.90366456088125],[-121.57045618020689,37.9025277727772],[-121.57809979568923,37.890780282626956],[-121.5693125103775,37.880169649325715],[-121.55288169328139,37.88130536993579]]]},"properties":{"h3_index":"87283636cffffff","station_count":1,"program_id":"delta","program":"Delta","resolution":7,"stations":[{"station_id":"Cent-021","station_name":"Central Delta Subregion - Cent-021","lat":37.889297,"lon":-121.574674,"county":"SAN JOAQUIN"}]}},{"type":"Feature","geometry":{"type":"Polygon","coordinates":[[[-121.27013346026975,37.664525967279424],[-121.26245758376245,37.67628012191976],[-121.27121256811726,37.68694575562199],[-121.28764355907228,37.685856093208095],[-121.29531615652094,37.67410184799598],[-121.28656104301253,37.66343735567596],[-121.27013346026975,37.664525967279424]]]},"properties":{"h3_index":"872836ab1ffffff","station_count":2,"program_id":"delta","program":"Delta","resolution":7,"stations":[{"station_id":"541SJC501","station_name":"San Joaquin River at Airport Way near Vernalis","lat":37.675556,"lon":-121.264167,"county":"SAN JOAQUIN"},{"station_id":"B0702000","station_name":"San Joaquin River near Vernalis","lat":37.6793,"lon":-121.2651,"county":"SAN JOAQUIN"}]}},{"type":"Feature","geometry":{"type":"Polygon","coordinates":[[[-121.52426247336344,37.80470959821932],[-121.51661660703344,37.816461532933886],[-121.5253959464854,37.827084823571425],[-121.54182124225723,37.82595504084591],[-121.54946379473304,37.81420303485167],[-121.54068436622467,37.803580882766944],[-121.52426247336344,37.80470959821932]]]},"properties":{"h3_index":"872836ac8ffffff","station_count":1,"program_id":"delta","program":"Delta","resolution":7,"stations":[{"station_id":"Sout-021","station_name":"South Delta Subregion - Sout-021","lat":37.819769,"lon":-121.526459,"county":"SAN JOAQUIN"}]}},{"type":"Feature","geometry":{"type":"Polygon","coordinates":[[[-121.54946379473304,37.81420303485167],[-121.54182124225723,37.82595504084591],[-121.55060261253205,37.83657460121997],[-121.56702662128275,37.835441017110924],[-121.57466585674817,37.82368894172955],[-121.56588440140605,37.81307051974849],[-121.54946379473304,37.81420303485167]]]},"properties":{"h3_index":"872836ac9ffffff","station_count":1,"program_id":"delta","program":"Delta","resolution":7,"stations":[{"station_id":"Cent-001","station_name":"Central Delta Subregion - Cent-001","lat":37.835727,"lon":-121.555037,"county":"CONTRA COSTA"}]}},{"type":"Feature","geometry":{"type":"Polygon","coordinates":[[[-121.40048128048747,37.80191235008347],[-121.392815951382,37.81366084889604],[-121.40158896508042,37.82429759615283],[-121.41802741755794,37.82318470655989],[-121.42568944558231,37.811436127385065],[-121.41691632314834,37.800800518070766],[-121.40048128048747,37.80191235008347]]]},"properties":{"h3_index":"872836ad3ffffff","station_count":1,"program_id":"delta","program":"Delta","resolution":7,"stations":[{"station_id":"Sout-004","station_name":"South Delta Subregion - Sout-004","lat":37.807513,"lon":-121.415354,"county":"SAN JOAQUIN"}]}},{"type":"Feature","geometry":{"type":"Polygon","coordinates":[[[-121.47498487484252,37.80808267457016],[-121.46733092467318,37.81983293648049],[-121.47610813312558,37.830461093797695],[-121.49253938957881,37.82933785093112],[-121.5001900306814,37.81758751414311],[-121.49141272533296,37.806960495004084],[-121.47498487484252,37.80808267457016]]]},"properties":{"h3_index":"872836addffffff","station_count":1,"program_id":"delta","program":"Delta","resolution":7,"stations":[{"station_id":"Sout-009","station_name":"South Delta Subregion - Sout-009","lat":37.820284,"lon":-121.492476,"county":"SAN JOAQUIN"}]}}]}