{"type":"FeatureCollection","features":[{"type":"Feature","geometry":{"type":"Polygon","coordinates":[[[-121.6724042924426,38.276171115720295],[-121.64060050277364,38.30078028012159],[-121.65059217464882,38.333608892002616],[-121.69240498449666,38.34181964229875],[-121.72419902168251,38.31720468135541],[-121.71419001821968,38.284384770362394],[-121.6724042924426,38.276171115720295]]]},"properties":{"h3_index":"862830407ffffff","station_count":6,"program_id":"delta","program":"Delta","resolution":6,"stations":[{"station_id":"Yolo-020","station_name":"Yolo Bypass - Cache Slough Subregion - Yolo-020","lat":38.278806,"lon":-121.677797,"county":"SOLANO"},{"station_id":"Yolo-011","station_name":"Yolo Bypass - Cache Slough Subregion - Yolo-011","lat":38.305684,"lon":-121.657211,"county":"SOLANO"},{"station_id":"Yolo-022","station_name":"Yolo Bypass - Cache Slough Subregion - Yolo-022","lat":38.317985,"lon":-121.651769,"county":"YOLO"},{"station_id":"Yolo-017","station_name":"Yolo Bypass - Cache Slough Subregion - Yolo-017","lat":38.283297,"lon":-121.685768,"county":"SOLANO"},{"station_id":"Yolo-012","station_name":"Yolo Bypass - Cache Slough Subregion - Yolo-012","lat":38.282414,"lon":-121.681004,"county":"SOLANO"},{"station_id":"Yolo-004","station_name":"Yolo Bypass - Cache Slough Subregion - Yolo-004","lat":38.319567,"lon":-121.692765,"county":"YOLO"}]}},{"type":"Feature","geometry":{"type":"Polygon","coordinates":[[[-121.59879528590547,38.29254185911216],[-121.5669546894172,38.31713491286095],[-121.57692896721494,38.349972192418136],[-121.61876125228501,38.358207754279434],[-121.65059217464882,38.333608892002616],[-121.64060050277364,38.30078028012159],[-121.59879528590547,38.29254185911216]]]},"properties":{"h3_index":"862830417ffffff","station_count":2,"program_id":"delta","program":"Delta","resolution":6,"stations":[{"station_id":"Sacr-021","station_name":"Sacramento River Subregion - Sacr-021","lat":38.310348,"lon":-121.598472,"county":"SOLANO"},{"station_id":"Sacr-009","station_name":"Sacramento River Subregion - Sacr-009","lat":38.314358,"lon":-121.577233,"county":"SACRAMENTO"}]}},{"type":"Feature","geometry":{"type":"Polygon","coordinates":[[[-121.65059217464882,38.333608892002616],[-121.61876125228501,38.358207754279434],[-121.62875286224379,38.391023154946566],[-121.67059277910775,38.39923101791157],[-121.70241396225792,38.3746263638223],[-121.69240498449666,38.34181964229875],[-121.65059217464882,38.333608892002616]]]},"properties":{"h3_index":"86283041fffffff","station_count":1,"program_id":"delta","program":"Delta","resolution":6,"stations":[{"station_id":"Yolo-014","station_name":"Yolo Bypass - Cache Slough Subregion - Yolo-014","lat":38.381949,"lon":-121.626014,"county":"YOLO"}]}},{"type":"Feature","geometry":{"type":"Polygon","coordinates":[[[-121.69418926007761,38.21870995258304],[-121.66241256944448,38.243329347349935],[-121.6724042924426,38.276171115720295],[-121.71419001821968,38.284384770362394],[-121.74595694318087,38.25975957424169],[-121.73594792473013,38.226926528523244],[-121.69418926007761,38.21870995258304]]]},"properties":{"h3_index":"862830427ffffff","station_count":10,"program_id":"delta","program":"Delta","resolution":6,"stations":[{"station_id":"Yolo-018","station_name":"Yolo Bypass - Cache Slough Subregion - Yolo-018","lat":38.260249,"lon":-121.678858,"county":"SOLANO"},{"station_id":"Yolo-009","station_name":"Yolo Bypass - Cache Slough Subregion - Yolo-009","lat":38.249572,"lon":-121.674817,"county":"SOLANO"},{"station_id":"Yolo-016","station_name":"Yolo Bypass - Cache Slough Subregion - Yolo-016","lat":38.258063,"lon":-121.725798,"county":"SOLANO"},{"station_id":"Yolo-023","station_name":"Yolo Bypass - Cache Slough Subregion - Yolo-023","lat":38.278994,"lon":-121.687788,"county":"SOLANO"},{"station_id":"510ADVLIM","station_name":"Cache Slough at Liberty Island Mouth-510ADVLIM","lat":38.24213,"lon":-121.68539,"county":"SOLANO"},{"station_id":"Yolo-008","station_name":"Yolo Bypass - Cache Slough Subregion - Yolo-008","lat":38.274304,"lon":-121.673917,"county":"SOLANO"},{"station_id":"Yolo-002","station_name":"Yolo Bypass - Cache Slough Subregion - Yolo-002","lat":38.269193,"lon":-121.692386,"county":"SOLANO"},{"station_id":"Yolo-006","station_name":"Yolo Bypass - Cache Slough Subregion - Yolo-006","lat":38.252141,"lon":-121.675583,"county":"SOLANO"},{"station_id":"Yolo-005","station_name":"Yolo Bypass - Cache Slough Subregion - Yolo-005","lat":38.259048,"lon":-121.667654,"county":"SOLANO"},{"station_id":"Yolo-007","station_name":"Yolo Bypass - Cache Slough Subregion - Yolo-007","lat":38.271217,"lon":-121.702826,"county":"SOLANO"}]}},{"type":"Feature","geometry":{"type":"Polygon","coordinates":[[[-121.74595694318087,38.25975957424169],[-121.71419001821968,38.284384770362394],[-121.72419902168251,38.31720468135541],[-121.76599223588642,38.32539066591147],[-121.79774933029087,38.300759685328536],[-121.78772305777329,38.26794850833154],[-121.74595694318087,38.25975957424169]]]},"properties":{"h3_index":"86283042fffffff","station_count":2,"program_id":"delta","program":"Delta","resolution":6,"stations":[{"station_id":"Yolo-021","station_name":"Yolo Bypass - Cache Slough Subregion - Yolo-021","lat":38.301076,"lon":-121.729774,"county":"SOLANO"},{"station_id":"Yolo-003","station_name":"Yolo Bypass - Cache Slough Subregion - Yolo-003","lat":38.261052,"lon":-121.747855,"county":"SOLANO"}]}},{"type":"Feature","geometry":{"type":"Polygon","coordinates":[[[-121.6206343979534,38.23508805023099],[-121.58882092076726,38.259691401307094],[-121.59879528590547,38.29254185911216],[-121.64060050277364,38.30078028012159],[-121.6724042924426,38.276171115720295],[-121.66241256944448,38.243329347349935],[-121.6206343979534,38.23508805023099]]]},"properties":{"h3_index":"862830437ffffff","station_count":3,"program_id":"delta","program":"Delta","resolution":6,"stations":[{"station_id":"Yolo-001","station_name":"Yolo Bypass - Cache Slough Subregion - Yolo-001","lat":38.279518,"lon":-121.660997,"county":"SOLANO"},{"station_id":"Sacr-002","station_name":"Sacramento River Subregion - Sacr-002","lat":38.262066,"lon":-121.651285,"county":"SOLANO"},{"station_id":"Yolo-015","station_name":"Yolo Bypass - Cache Slough Subregion - Yolo-015","lat":38.26789,"lon":-121.663211,"county":"SOLANO"}]}},{"type":"Feature","geometry":{"type":"Polygon","coordinates":[[[-121.87124292346752,38.28427402905458],[-121.83952282891725,38.308920950162225],[-121.8495663543935,38.341710214194656],[-121.89134717101503,38.349843782623985],[-121.92305729237803,38.32519110626742],[-121.91299658707206,38.29241062037475],[-121.87124292346752,38.28427402905458]]]},"properties":{"h3_index":"862830467ffffff","station_count":5,"program_id":"delta","program":"Delta","resolution":6,"stations":[{"station_id":"511OACSBL","station_name":"Old Alamo Creek at Sunnybrook Ln.","lat":38.344197,"lon":-121.869089,"county":"SOLANO"},{"station_id":"511NACUOA","station_name":"New Alamo Creek upstream of confluence with Old Alamo Creek","lat":38.329939,"lon":-121.888569,"county":"SOLANO"},{"station_id":"511OACCLN","station_name":"Old Alamo Creek at Chicorp Ln.","lat":38.347147,"lon":-121.887617,"county":"SOLANO"},{"station_id":"511OACUNA","station_name":"Terminus of Old Alamo Creek upstream of confluence with New Alamo Creek","lat":38.329869,"lon":-121.869231,"county":"SOLANO"},{"station_id":"511NACDOA","station_name":"New Alamo Creek downstream of confluence between New and Old Alamo Creeks","lat":38.329789,"lon":-121.860019,"county":"SOLANO"}]}},{"type":"Feature","geometry":{"type":"Polygon","coordinates":[[[-121.92305729237803,38.32519110626742],[-121.89134717101503,38.349843782623985],[-121.90140794824967,38.382611089665396],[-121.9431960166951,38.39071693479969],[-121.97489609998829,38.36605852027544],[-121.96481816970248,38.33330000241808],[-121.92305729237803,38.32519110626742]]]},"properties":{"h3_index":"86283046fffffff","station_count":1,"program_id":"delta","program":"Delta","resolution":6,"stations":[{"station_id":"511SOL011","station_name":"Old Alamo Creek at Lewis Road","lat":38.34643,"lon":-121.89702,"county":"SOLANO"}]}},{"type":"Feature","geometry":{"type":"Polygon","coordinates":[[[-121.79774933029087,38.300759685328536],[-121.76599223588642,38.32539066591147],[-121.7760185188342,38.35818867518885],[-121.81781915547181,38.3663469623073],[-121.8495663543935,38.341710214194656],[-121.83952282891725,38.308920950162225],[-121.79774933029087,38.300759685328536]]]},"properties":{"h3_index":"862830477ffffff","station_count":2,"program_id":"delta","program":"Delta","resolution":6,"stations":[{"station_id":"511ULCABR","station_name":"Ulatis Creek at Brown Road","lat":38.307,"lon":-121.7942,"county":"SOLANO"},{"station_id":"511NACARD","station_name":"Terminus of New Alamo Creek at Rio Dixon Rd before confluence with Ulatis Creek","lat":38.336511,"lon":-121.823136,"county":"SOLANO"}]}},{"type":"Feature","geometry":{"type":"Polygon","coordinates":[[[-121.50320957842399,38.3662944580339],[-121.47130506063873,38.39086088625728],[-121.48126174732079,38.42369354548913],[-121.52314046140937,38.43195116763764],[-121.55503539739156,38.407378923695596],[-121.54506121780754,38.374554877091164],[-121.50320957842399,38.3662944580339]]]},"properties":{"h3_index":"862830487ffffff","station_count":2,"program_id":"delta","program":"Delta","resolution":6,"stations":[{"station_id":"Sacr-022","station_name":"Sacramento River Subregion - Sacr-022","lat":38.414242,"lon":-121.521469,"county":"SACRAMENTO"},{"station_id":"Sacr-014","station_name":"Sacramento River Subregion - Sacr-014","lat":38.377698,"lon":-121.542165,"county":"YOLO"}]}},{"type":"Feature","geometry":{"type":"Polygon","coordinates":[[[-121.55503539739156,38.407378923695596],[-121.52314046140937,38.43195116763764],[-121.53311453186599,38.464761926740216],[-121.57500102180886,38.47299182143901],[-121.60688631069574,38.44841377831672],[-121.59689477348704,38.415611643432584],[-121.55503539739156,38.407378923695596]]]},"properties":{"h3_index":"86283048fffffff","station_count":1,"program_id":"delta","program":"Delta","resolution":6,"stations":[{"station_id":"Yolo-010","station_name":"Yolo Bypass - Cache Slough Subregion - Yolo-010","lat":38.461784,"lon":-121.588634,"county":"YOLO"}]}},{"type":"Feature","geometry":{"type":"Polygon","coordinates":[[[-121.48126174732079,38.42369354548913],[-121.44933002302689,38.44824946603886],[-121.4592865641222,38.48106881605587],[-121.50119237561455,38.48932365839],[-121.53311453186599,38.464761926740216],[-121.52314046140937,38.43195116763764],[-121.48126174732079,38.42369354548913]]]},"properties":{"h3_index":"86283049fffffff","station_count":6,"program_id":"delta","program":"Delta","resolution":6,"stations":[{"station_id":"Sacr-010","station_name":"Sacramento River Subregion - Sacr-010","lat":38.458809,"lon":-121.502396,"county":"SACRAMENTO"},{"station_id":"510ST1301","station_name":"Sacramento River at Freeport, CA-510ST1301","lat":38.45555,"lon":-121.50194,"county":"YOLO"},{"station_id":"510ST1317","station_name":"Sacramento River/Freeport-510ST1317","lat":38.4556,"lon":-121.5019,"county":"SACRAMENTO"},{"station_id":"SR1_SRNC","station_name":"Sacramento River 1_SRNC","lat":38.456503,"lon":-121.502353,"county":"YOLO"},{"station_id":"SR2_SRNC","station_name":"Sacramento River 2_SRNC","lat":38.434775,"lon":-121.522908,"county":"SACRAMENTO"},{"station_id":"Sacr-007","station_name":"Sacramento River Subregion - Sacr-007","lat":38.47372,"lon":-121.520266,"county":"YOLO"}]}},{"type":"Feature","geometry":{"type":"Polygon","coordinates":[[[-121.52513010203789,38.30887167986254],[-121.49325275714887,38.33344854411611],[-121.50320957842399,38.3662944580339],[-121.54506121780754,38.374554877091164],[-121.57692896721494,38.349972192418136],[-121.5669546894172,38.31713491286095],[-121.52513010203789,38.30887167986254]]]},"properties":{"h3_index":"8628304a7ffffff","station_count":4,"program_id":"delta","program":"Delta","resolution":6,"stations":[{"station_id":"510SACC3A","station_name":"Sacramento River at Hood Monitoring Station Platform","lat":38.36771,"lon":-121.5205,"county":"SACRAMENTO"},{"station_id":"Sacr-013","station_name":"Sacramento River Subregion - Sacr-013","lat":38.338212,"lon":-121.565304,"county":"YOLO"},{"station_id":"B9D82211312","station_name":"Sacramento River at Hood-B9D82211312","lat":38.3677,"lon":-121.5205,"county":"SACRAMENTO"},{"station_id":"SR3_SRNC","station_name":"Sacramento River 3_SRNC","lat":38.368506,"lon":-121.5214,"county":"YOLO"}]}},{"type":"Feature","geometry":{"type":"Polygon","coordinates":[[[-121.62875286224379,38.391023154946566],[-121.59689477348704,38.415611643432584],[-121.60688631069574,38.44841377831672],[-121.64875335752016,38.45661877102797],[-121.68060172041372,38.43202449537673],[-121.67059277910775,38.39923101791157],[-121.62875286224379,38.391023154946566]]]},"properties":{"h3_index":"8628304f7ffffff","station_count":1,"program_id":"delta","program":"Delta","resolution":6,"stations":[{"station_id":"Yolo-019","station_name":"Yolo Bypass - Cache Slough Subregion - Yolo-019","lat":38.433007,"lon":-121.602884,"county":"YOLO"}]}},{"type":"Feature","geometry":{"type":"Polygon","coordinates":[[[-121.66423117968752,38.12011051279365],[-121.63247184040989,38.14473424290995],[-121.64244634776999,38.17761089247563],[-121.68419749670997,38.18585508260286],[-121.71594712192716,38.161225529321186],[-121.70595532890341,38.12835761276505],[-121.66423117968752,38.12011051279365]]]},"properties":{"h3_index":"862830507ffffff","station_count":2,"program_id":"delta","program":"Delta","resolution":6,"stations":[{"station_id":"Sacr-016","station_name":"Sacramento River Subregion - Sacr-016","lat":38.17289,"lon":-121.648523,"county":"SACRAMENTO"},{"station_id":"Conf-016","station_name":"Delta Confluence Subregion - Conf-016","lat":38.136531,"lon":-121.686688,"county":"SACRAMENTO"}]}},{"type":"Feature","geometry":{"type":"Polygon","coordinates":[[[-121.5907282728214,38.136462466516576],[-121.55893224533051,38.16107020806537],[-121.56888940482764,38.19395555730922],[-121.61065995630781,38.20222446903817],[-121.64244634776999,38.17761089247563],[-121.63247184040989,38.14473424290995],[-121.5907282728214,38.136462466516576]]]},"properties":{"h3_index":"862830517ffffff","station_count":5,"program_id":"delta","program":"Delta","resolution":6,"stations":[{"station_id":"Nort-011","station_name":"Northeast Delta Subregion - Nort-011","lat":38.145961,"lon":-121.600692,"county":"SACRAMENTO"},{"station_id":"GS3_SRNC","station_name":"Georgiana Slough 3_SRNC","lat":38.182925,"lon":-121.568922,"county":"SACRAMENTO"},{"station_id":"GS4_SRNC","station_name":"Georgiana Slough 4_SRNC","lat":38.162442,"lon":-121.584361,"county":"SACRAMENTO"},{"station_id":"Sacr-001","station_name":"Sacramento River Subregion - Sacr-001","lat":38.164981,"lon":-121.620986,"county":"SACRAMENTO"},{"station_id":"Sacr-008","station_name":"Sacramento River Subregion - Sacr-008","lat":38.194726,"lon":-121.619071,"county":"SOLANO"}]}},{"type":"Feature","geometry":{"type":"Polygon","coordinates":[[[-121.64244634776999,38.17761089247563],[-121.61065995630781,38.20222446903817],[-121.6206343979534,38.23508805023099],[-121.66241256944448,38.243329347349935],[-121.69418926007761,38.21870995258304],[-121.68419749670997,38.18585508260286],[-121.64244634776999,38.17761089247563]]]},"properties":{"h3_index":"86283051fffffff","station_count":5,"program_id":"delta","program":"Delta","resolution":6,"stations":[{"station_id":"Sacr-005","station_name":"Sacramento River Subregion - Sacr-005","lat":38.188992,"lon":-121.641271,"county":"SACRAMENTO"},{"station_id":"Yolo-024","station_name":"Yolo Bypass - Cache Slough Subregion - Yolo-024","lat":38.184875,"lon":-121.661012,"county":"SOLANO"},{"station_id":"B9D81281401","station_name":"Cache Slough near Ryer Island","lat":38.225002,"lon":-121.674806,"county":"SOLANO"},{"station_id":"Sacr-020","station_name":"Sacramento River Subregion - Sacr-020","lat":38.184598,"lon":-121.648059,"county":"SACRAMENTO"},{"station_id":"Yolo-013","station_name":"Yolo Bypass - Cache Slough Subregion - Yolo-013","lat":38.208199,"lon":-121.663062,"county":"SOLANO"}]}},{"type":"Feature","geometry":{"type":"Polygon","coordinates":[[[-121.68598893795955,38.0625870383778],[-121.65425661736586,38.08722085002417],[-121.66423117968752,38.12011051279365],[-121.70595532890341,38.12835761276505],[-121.7376779222855,38.103717972910545],[-121.72768611027924,38.070837064966256],[-121.68598893795955,38.0625870383778]]]},"properties":{"h3_index":"862830527ffffff","station_count":4,"program_id":"delta","program":"Delta","resolution":6,"stations":[{"station_id":"Conf-011","station_name":"Delta Confluence Subregion - Conf-011","lat":38.100046,"lon":-121.719033,"county":"SOLANO"},{"station_id":"Conf-023","station_name":"Delta Confluence Subregion - Conf-023","lat":38.084378,"lon":-121.710044,"county":"SACRAMENTO"},{"station_id":"Conf-012","station_name":"Delta Confluence Subregion - Conf-012","lat":38.109611,"lon":-121.710003,"county":"SOLANO"},{"station_id":"Conf-007","station_name":"Delta Confluence Subregion - Conf-007","lat":38.078031,"lon":-121.682563,"county":"SACRAMENTO"}]}},{"type":"Feature","geometry":{"type":"Polygon","coordinates":[[[-121.61254001096184,38.07894619218391],[-121.58077102230166,38.10356408225816],[-121.5907282728214,38.136462466516576],[-121.63247184040989,38.14473424290995],[-121.66423117968752,38.12011051279365],[-121.65425661736586,38.08722085002417],[-121.61254001096184,38.07894619218391]]]},"properties":{"h3_index":"862830537ffffff","station_count":2,"program_id":"delta","program":"Delta","resolution":6,"stations":[{"station_id":"Cent-007","station_name":"Central Delta Subregion - Cent-007","lat":38.100008,"lon":-121.600551,"county":"SACRAMENTO"},{"station_id":"Cent-016","station_name":"Central Delta Subregion - Cent-016","lat":38.104203,"lon":-121.593001,"county":"SACRAMENTO"}]}},{"type":"Feature","geometry":{"type":"Polygon","coordinates":[[[-121.49527647143596,38.210259399578746],[-121.46341672179258,38.23484078628985],[-121.47335633319535,38.267721689825215],[-121.51517315712283,38.27601256594379],[-121.54702336268967,38.251425337397336],[-121.53706630504736,38.21855307831821],[-121.49527647143596,38.210259399578746]]]},"properties":{"h3_index":"862830587ffffff","station_count":10,"program_id":"delta","program":"Delta","resolution":6,"stations":[{"station_id":"Nort-014","station_name":"Northeast Delta Subregion - Nort-014","lat":38.246966,"lon":-121.498288,"county":"SACRAMENTO"},{"station_id":"Nort-022","station_name":"Northeast Delta Subregion - Nort-022","lat":38.269635,"lon":-121.496414,"county":"SACRAMENTO"},{"station_id":"Sacr-003","station_name":"Sacramento River Subregion - Sacr-003","lat":38.239172,"lon":-121.521494,"county":"SACRAMENTO"},{"station_id":"Nort-007","station_name":"Northeast Delta Subregion - Nort-007","lat":38.224865,"lon":-121.534385,"county":"SACRAMENTO"},{"station_id":"Sacr-018","station_name":"Sacramento River Subregion - Sacr-018","lat":38.239655,"lon":-121.539994,"county":"SACRAMENTO"},{"station_id":"SREM_SRNC","station_name":"Sacramento River End Member_SRNC","lat":38.253011,"lon":-121.512269,"county":"SACRAMENTO"},{"station_id":"SFM1_SRNC","station_name":"South Fork Mokelumne River 1_SRNC","lat":38.224786,"lon":-121.491506,"county":"SAN JOAQUIN"},{"station_id":"MOKEM_SRNC","station_name":"Mokelumne River End Member_SRNC","lat":38.230939,"lon":-121.490592,"county":"SACRAMENTO"},{"station_id":"NFM1_SRNC","station_name":"North Fork Mokelumne River 1_SRNC","lat":38.222397,"lon":-121.507483,"county":"SACRAMENTO"},{"station_id":"Nort-006","station_name":"Northeast Delta Subregion - Nort-006","lat":38.253551,"lon":-121.479792,"county":"SAN JOAQUIN"}]}},{"type":"Feature","geometry":{"type":"Polygon","coordinates":[[[-121.54702336268967,38.251425337397336],[-121.51517315712283,38.27601256594379],[-121.52513010203789,38.30887167986254],[-121.5669546894172,38.31713491286095],[-121.59879528590547,38.29254185911216],[-121.58882092076726,38.259691401307094],[-121.54702336268967,38.251425337397336]]]},"properties":{"h3_index":"86283058fffffff","station_count":2,"program_id":"delta","program":"Delta","resolution":6,"stations":[{"station_id":"Sacr-025","station_name":"Sacramento River Subregion - Sacr-025","lat":38.294,"lon":-121.582442,"county":"SACRAMENTO"},{"station_id":"Sacr-017","station_name":"Sacramento River Subregion - Sacr-017","lat":38.274153,"lon":-121.588592,"county":"SACRAMENTO"}]}},{"type":"Feature","geometry":{"type":"Polygon","coordinates":[[[-121.42160772694173,38.226522295325914],[-121.38971138641872,38.251087469086706],[-121.3996334893922,38.2839769835445],[-121.44146945794942,38.29229271709421],[-121.47335633319535,38.267721689825215],[-121.46341672179258,38.23484078628985],[-121.42160772694173,38.226522295325914]]]},"properties":{"h3_index":"862830597ffffff","station_count":3,"program_id":"delta","program":"Delta","resolution":6,"stations":[{"station_id":"544SAC002","station_name":"Mokelumne River at New Hope Road","lat":38.23611,"lon":-121.41889,"county":"SAN JOAQUIN"},{"station_id":"544ADVLM6","station_name":"Lower Mokelumne River 6-544ADVLM6","lat":38.25542,"lon":-121.44006,"county":"SAN JOAQUIN"},{"station_id":"B9D81531264","station_name":"Mokelumne River at Benson's Ferry","lat":38.254614,"lon":-121.436581,"county":"SAN JOAQUIN"}]}},{"type":"Feature","geometry":{"type":"Polygon","coordinates":[[[-121.47335633319535,38.267721689825215],[-121.44146945794942,38.29229271709421],[-121.45140892032367,38.32516045370195],[-121.49325275714887,38.33344854411611],[-121.52513010203789,38.30887167986254],[-121.51517315712283,38.27601256594379],[-121.47335633319535,38.267721689825215]]]},"properties":{"h3_index":"86283059fffffff","station_count":2,"program_id":"delta","program":"Delta","resolution":6,"stations":[{"station_id":"Nort-019","station_name":"Northeast Delta Subregion - Nort-019","lat":38.286125,"lon":-121.503182,"county":"SACRAMENTO"},{"station_id":"Nort-010","station_name":"Northeast Delta Subregion - Nort-010","lat":38.269986,"lon":-121.477449,"county":"SACRAMENTO"}]}},{"type":"Feature","geometry":{"type":"Polygon","coordinates":[[[-121.51716937945145,38.15277370985091],[-121.48533672195659,38.177365384092006],[-121.49527647143596,38.210259399578746],[-121.53706630504736,38.21855307831821],[-121.56888940482764,38.19395555730922],[-121.55893224533051,38.16107020806537],[-121.51716937945145,38.15277370985091]]]},"properties":{"h3_index":"8628305a7ffffff","station_count":8,"program_id":"delta","program":"Delta","resolution":6,"stations":[{"station_id":"Sacr-012","station_name":"Sacramento River Subregion - Sacr-012","lat":38.192723,"lon":-121.567525,"county":"SACRAMENTO"},{"station_id":"Nort-013","station_name":"Northeast Delta Subregion - Nort-013","lat":38.209808,"lon":-121.507131,"county":"SAN JOAQUIN"},{"station_id":"Nort-016","station_name":"Northeast Delta Subregion - Nort-016","lat":38.201632,"lon":-121.541379,"county":"SACRAMENTO"},{"station_id":"NFM4_SRNC","station_name":"North Fork Mokelumne River 4_SRNC","lat":38.160164,"lon":-121.533933,"county":"SAN JOAQUIN"},{"station_id":"SFM3_SRNC","station_name":"South Fork Mokelumne River 3_SRNC","lat":38.181264,"lon":-121.489256,"county":"SAN JOAQUIN"},{"station_id":"GS2_SRNC","station_name":"Georgiana Slough 2_SRNC","lat":38.201247,"lon":-121.541736,"county":"SACRAMENTO"},{"station_id":"NFM3_SRNC","station_name":"North Fork Mokelumne River 3_SRNC","lat":38.182644,"lon":-121.526664,"county":"SAN JOAQUIN"},{"station_id":"NFM2_SRNC","station_name":"North Fork Mokelumne River 2_SRNC","lat":38.202994,"lon":-121.518447,"county":"SAN JOAQUIN"}]}},{"type":"Feature","geometry":{"type":"Polygon","coordinates":[[[-121.56888940482764,38.19395555730922],[-121.53706630504736,38.21855307831821],[-121.54702336268967,38.251425337397336],[-121.58882092076726,38.259691401307094],[-121.6206343979534,38.23508805023099],[-121.61065995630781,38.20222446903817],[-121.56888940482764,38.19395555730922]]]},"properties":{"h3_index":"8628305afffffff","station_count":3,"program_id":"delta","program":"Delta","resolution":6,"stations":[{"station_id":"Sacr-006","station_name":"Sacramento River Subregion - Sacr-006","lat":38.240241,"lon":-121.601982,"county":"SACRAMENTO"},{"station_id":"Sacr-024","station_name":"Sacramento River Subregion - Sacr-024","lat":38.229703,"lon":-121.603385,"county":"SOLANO"},{"station_id":"GS1_SRNC","station_name":"Georgiana Slough 1_SRNC","lat":38.223233,"lon":-121.541328,"county":"SACRAMENTO"}]}},{"type":"Feature","geometry":{"type":"Polygon","coordinates":[[[-121.44355467835126,38.16904411885129],[-121.41168544958893,38.19361964713537],[-121.42160772694173,38.226522295325914],[-121.46341672179258,38.23484078628985],[-121.49527647143596,38.210259399578746],[-121.48533672195659,38.177365384092006],[-121.44355467835126,38.16904411885129]]]},"properties":{"h3_index":"8628305b7ffffff","station_count":1,"program_id":"delta","program":"Delta","resolution":6,"stations":[{"station_id":"SFM2_SRNC","station_name":"South Fork Mokelumne River 2_SRNC","lat":38.207314,"lon":-121.482539,"county":"SAN JOAQUIN"}]}},{"type":"Feature","geometry":{"type":"Polygon","coordinates":[[[-121.65608227445418,37.96384460277962],[-121.6243672632333,37.98848257349899],[-121.63432466346143,38.0214068617206],[-121.67601433138935,38.02968441772725],[-121.70771966676085,38.005040596664784],[-121.69774502661546,37.972125073609014],[-121.65608227445418,37.96384460277962]]]},"properties":{"h3_index":"862830c87ffffff","station_count":1,"program_id":"delta","program":"Delta","resolution":6,"stations":[{"station_id":"B9C75861385","station_name":"Rock Slough at CCWD Fish Facility","lat":37.9955,"lon":-121.7018,"county":"CONTRA COSTA"}]}},{"type":"Feature","geometry":{"type":"Polygon","coordinates":[[[-121.70771966676085,38.005040596664784],[-121.67601433138935,38.02968441772725],[-121.68598893795955,38.0625870383778],[-121.72768611027924,38.070837064966256],[-121.75938170536784,38.0461874105713],[-121.74938988501296,38.013293566579904],[-121.70771966676085,38.005040596664784]]]},"properties":{"h3_index":"862830c8fffffff","station_count":6,"program_id":"delta","program":"Delta","resolution":6,"stations":[{"station_id":"Conf-004","station_name":"Delta Confluence Subregion - Conf-004","lat":38.021703,"lon":-121.735157,"county":"CONTRA COSTA"},{"station_id":"Conf-010","station_name":"Delta Confluence Subregion - Conf-010","lat":38.025202,"lon":-121.748279,"county":"CONTRA COSTA"},{"station_id":"Conf-003","station_name":"Delta Confluence Subregion - Conf-003","lat":38.029355,"lon":-121.754009,"county":"SACRAMENTO"},{"station_id":"Conf-024","station_name":"Delta Confluence Subregion - Conf-024","lat":38.039095,"lon":-121.724537,"county":"SACRAMENTO"},{"station_id":"Conf-027","station_name":"Delta Confluence Subregion - Conf-027","lat":38.051607,"lon":-121.691584,"county":"CONTRA COSTA"},{"station_id":"Conf-008","station_name":"Delta Confluence Subregion - Conf-008","lat":38.043454,"lon":-121.709291,"county":"SACRAMENTO"}]}},{"type":"Feature","geometry":{"type":"Polygon","coordinates":[[[-121.5826851650311,37.980177516360804],[-121.55093358363868,38.004799620800675],[-121.56087368203895,38.03773264073846],[-121.60258268021174,38.04603482821509],[-121.63432466346143,38.0214068617206],[-121.6243672632333,37.98848257349899],[-121.5826851650311,37.980177516360804]]]},"properties":{"h3_index":"862830c97ffffff","station_count":6,"program_id":"delta","program":"Delta","resolution":6,"stations":[{"station_id":"Cent-004","station_name":"Central Delta Subregion - Cent-004","lat":38.038042,"lon":-121.596678,"county":"CONTRA COSTA"},{"station_id":"Cent-008","station_name":"Central Delta Subregion - Cent-008","lat":38.042058,"lon":-121.590154,"county":"CONTRA COSTA"},{"station_id":"Cent-009","station_name":"Central Delta Subregion - Cent-009","lat":37.991086,"lon":-121.577781,"county":"SAN JOAQUIN"},{"station_id":"Cent-020","station_name":"Central Delta Subregion - Cent-020","lat":38.029193,"lon":-121.58338,"county":"CONTRA COSTA"},{"station_id":"Cent-024","station_name":"Central Delta Subregion - Cent-024","lat":38.038923,"lon":-121.569685,"county":"SAN JOAQUIN"},{"station_id":"Cent-011","station_name":"Central Delta Subregion - Cent-011","lat":38.034919,"lon":-121.600466,"county":"CONTRA COSTA"}]}},{"type":"Feature","geometry":{"type":"Polygon","coordinates":[[[-121.63432466346143,38.0214068617206],[-121.60258268021174,38.04603482821509],[-121.61254001096184,38.07894619218391],[-121.65425661736586,38.08722085002417],[-121.68598893795955,38.0625870383778],[-121.67601433138935,38.02968441772725],[-121.63432466346143,38.0214068617206]]]},"properties":{"h3_index":"862830c9fffffff","station_count":4,"program_id":"delta","program":"Delta","resolution":6,"stations":[{"station_id":"Cent-019","station_name":"Central Delta Subregion - Cent-019","lat":38.061566,"lon":-121.619269,"county":"CONTRA COSTA"},{"station_id":"Conf-019","station_name":"Delta Confluence Subregion - Conf-019","lat":38.059039,"lon":-121.677863,"county":"CONTRA COSTA"},{"station_id":"Cent-015","station_name":"Central Delta Subregion - Cent-015","lat":38.056924,"lon":-121.608651,"county":"CONTRA COSTA"},{"station_id":"Cent-023","station_name":"Central Delta Subregion - Cent-023","lat":38.051593,"lon":-121.634194,"county":"CONTRA COSTA"}]}},{"type":"Feature","geometry":{"type":"Polygon","coordinates":[[[-121.83271813700014,38.029747433255],[-121.80105932432976,38.054412851488486],[-121.81106832386078,38.08728497137559],[-121.8527532780195,38.09548285546836],[-121.8844022086695,38.0708116329736],[-121.87437608381457,38.037948334271405],[-121.83271813700014,38.029747433255]]]},"properties":{"h3_index":"862830cc7ffffff","station_count":5,"program_id":"delta","program":"Delta","resolution":6,"stations":[{"station_id":"Conf-006","station_name":"Delta Confluence Subregion - Conf-006","lat":38.062165,"lon":-121.84303,"county":"SACRAMENTO"},{"station_id":"Conf-018","station_name":"Delta Confluence Subregion - Conf-018","lat":38.056084,"lon":-121.807265,"county":"SACRAMENTO"},{"station_id":"Conf-001","station_name":"Delta Confluence Subregion - Conf-001","lat":38.041066,"lon":-121.824614,"county":"SACRAMENTO"},{"station_id":"Conf-002","station_name":"Delta Confluence Subregion - Conf-002","lat":38.059262,"lon":-121.82224,"county":"SACRAMENTO"},{"station_id":"Conf-009","station_name":"Delta Confluence Subregion - Conf-009","lat":38.035015,"lon":-121.831321,"county":"SACRAMENTO"}]}},{"type":"Feature","geometry":{"type":"Polygon","coordinates":[[[-121.75938170536784,38.0461874105713],[-121.72768611027924,38.070837064966256],[-121.7376779222855,38.103717972910545],[-121.77938253352998,38.11194044205149],[-121.81106832386078,38.08728497137559],[-121.80105932432976,38.054412851488486],[-121.75938170536784,38.0461874105713]]]},"properties":{"h3_index":"862830cd7ffffff","station_count":2,"program_id":"delta","program":"Delta","resolution":6,"stations":[{"station_id":"Conf-013","station_name":"Delta Confluence Subregion - Conf-013","lat":38.074392,"lon":-121.772879,"county":"SOLANO"},{"station_id":"Conf-025","station_name":"Delta Confluence Subregion - Conf-025","lat":38.065923,"lon":-121.793419,"county":"SOLANO"}]}},{"type":"Feature","geometry":{"type":"Polygon","coordinates":[[[-121.90599805767854,38.0132672311942],[-121.87437608381457,38.037948334271405],[-121.8844022086695,38.0708116329736],[-121.92606738711348,38.07898497798979],[-121.957679401979,38.05429808276276],[-121.94763621404053,38.02144363826872],[-121.90599805767854,38.0132672311942]]]},"properties":{"h3_index":"862830cefffffff","station_count":1,"program_id":"delta","program":"Delta","resolution":6,"stations":[{"station_id":"207SRD10A","station_name":"Sacramento River at Mallard Island","lat":38.04288,"lon":-121.92011,"county":"CONTRA COSTA","waterbody":"Suisun Bay"}]}},{"type":"Feature","geometry":{"type":"Polygon","coordinates":[[[-121.78105851531062,37.988633969766596],[-121.74938988501296,38.013293566579904],[-121.75938170536784,38.0461874105713],[-121.80105932432976,38.054412851488486],[-121.83271813700014,38.029747433255],[-121.82270916493795,37.996862399159326],[-121.78105851531062,37.988633969766596]]]},"properties":{"h3_index":"862830cf7ffffff","station_count":5,"program_id":"delta","program":"Delta","resolution":6,"stations":[{"station_id":"Conf-021","station_name":"Delta Confluence Subregion - Conf-021","lat":38.027242,"lon":-121.811241,"county":"SACRAMENTO"},{"station_id":"Conf-005","station_name":"Delta Confluence Subregion - Conf-005","lat":38.023859,"lon":-121.816109,"county":"SACRAMENTO"},{"station_id":"Conf-017","station_name":"Delta Confluence Subregion - Conf-017","lat":38.044987,"lon":-121.802135,"county":"SACRAMENTO"},{"station_id":"Conf-026","station_name":"Delta Confluence Subregion - Conf-026","lat":38.035816,"lon":-121.776929,"county":"SACRAMENTO"},{"station_id":"Conf-014","station_name":"Delta Confluence Subregion - Conf-014","lat":38.047866,"lon":-121.794964,"county":"SACRAMENTO"}]}},{"type":"Feature","geometry":{"type":"Polygon","coordinates":[[[-121.6262270148764,37.864998727306165],[-121.59452931764822,37.889640757313664],[-121.60446959463864,37.92259950251307],[-121.64612481546054,37.930907445915764],[-121.67781288799577,37.906259543256304],[-121.66785538090957,37.873309573513026],[-121.6262270148764,37.864998727306165]]]},"properties":{"h3_index":"862830d9fffffff","station_count":1,"program_id":"delta","program":"Delta","resolution":6,"stations":[{"station_id":"Cent-005","station_name":"Central Delta Subregion - Cent-005","lat":37.901526,"lon":-121.613998,"county":"CONTRA COSTA"}]}},{"type":"Feature","geometry":{"type":"Polygon","coordinates":[[[-121.5964230429802,37.76604992014174],[-121.56474266423604,37.79069590916176],[-121.57466585674817,37.82368894172955],[-121.61628666467864,37.83202720324576],[-121.64795746968124,37.80737531909167],[-121.6380170569485,37.77439107221905],[-121.5964230429802,37.76604992014174]]]},"properties":{"h3_index":"862830db7ffffff","station_count":3,"program_id":"delta","program":"Delta","resolution":6,"stations":[{"station_id":"544DMC020","station_name":"DMC off HWY 4 ","lat":37.81239,"lon":-121.57887,"county":"CONTRA COSTA"},{"station_id":"KA000331","station_name":"Banks Pumping Plant","lat":37.814797,"lon":-121.615733,"county":"CONTRA COSTA"},{"station_id":"B9C74781351","station_name":"Jones Pumping Plant","lat":37.7969,"lon":-121.5855,"county":"ALAMEDA"}]}},{"type":"Feature","geometry":{"type":"Polygon","coordinates":[[[-121.59308003618536,38.661378995877655],[-121.56112261574049,38.685931043817185],[-121.57113121205299,38.71865748762292],[-121.61311476935849,38.72682330509516],[-121.64506245240473,38.70226550416997],[-121.63503633242998,38.669547642534546],[-121.59308003618536,38.661378995877655]]]},"properties":{"h3_index":"862832a2fffffff","station_count":1,"program_id":"delta","program":"Delta","resolution":6,"stations":[{"station_id":"519SUT108","station_name":"Sacramento River at Elkhorn Boat Launch Facility","lat":38.67245,"lon":-121.625,"county":"SACRAMENTO"}]}},{"type":"Feature","geometry":{"type":"Polygon","coordinates":[[[-121.46718771419282,38.63676730819511],[-121.43518369458043,38.66129707455042],[-121.44515721857813,38.69405414128868],[-121.48715239209558,38.702272907933725],[-121.51914681965508,38.67773736010404],[-121.50915568259278,38.64498883091542],[-121.46718771419282,38.63676730819511]]]},"properties":{"h3_index":"862832a37ffffff","station_count":3,"program_id":"delta","program":"Delta","resolution":6,"stations":[{"station_id":"519DRYRLB","station_name":"Terminus of Dry Creek at Rio Linda Blvd","lat":38.67109,"lon":-121.45415,"county":"SACRAMENTO"},{"station_id":"519SHCDDC","station_name":"Steelhead Creek main stem downstream of confluence with Dry Creek","lat":38.66407,"lon":-121.4772,"county":"SACRAMENTO"},{"station_id":"519SHCDRC","station_name":"Steelhead Creek main stem downstream of Robla and Steelhead Creek confluence","lat":38.6565,"lon":-121.475453,"county":"SACRAMENTO"}]}},{"type":"Feature","geometry":{"type":"Polygon","coordinates":[[[-121.6970699559751,38.743102006834256],[-121.66513207612434,38.76766554428724],[-121.67517558868639,38.800347687083956],[-121.7171744684847,38.80845769140635],[-121.74910247929976,38.783888433924915],[-121.73904149630349,38.75121489590415],[-121.6970699559751,38.743102006834256]]]},"properties":{"h3_index":"862832a47ffffff","station_count":1,"program_id":"delta","program":"Delta","resolution":6,"stations":[{"station_id":"A0294500","station_name":"Colusa Basin Ag Drain","lat":38.801973,"lon":-121.725518,"county":"YOLO"}]}},{"type":"Feature","geometry":{"type":"Polygon","coordinates":[[[-121.37111141548235,38.71032921480707],[-121.33904315311642,38.73483152566947],[-121.34899879994427,38.76758351717946],[-121.39104043885632,38.7758247190129],[-121.42309920322354,38.751316618906124],[-121.41312584353216,38.71857311006021],[-121.37111141548235,38.71032921480707]]]},"properties":{"h3_index":"862832aa7ffffff","station_count":1,"program_id":"delta","program":"Delta","resolution":6,"stations":[{"station_id":"519DRYWAB","station_name":"Dry Creek at Watt Ave bridge","lat":38.73456,"lon":-121.3929,"county":"PLACER"}]}},{"type":"Feature","geometry":{"type":"Polygon","coordinates":[[[-121.29700959392387,38.72656245633301],[-121.26490450494347,38.75104803053432],[-121.27484237593843,38.78380847133409],[-121.31690312859014,38.7920748925172],[-121.34899879994427,38.76758351717946],[-121.33904315311642,38.73483152566947],[-121.29700959392387,38.72656245633301]]]},"properties":{"h3_index":"862832ab7ffffff","station_count":2,"program_id":"delta","program":"Delta","resolution":6,"stations":[{"station_id":"519DRYCRK","station_name":"Dry Creek at Roseville WWTP","lat":38.734098,"lon":-121.314445,"county":"PLACER"},{"station_id":"519DRYCRB","station_name":"Dry Creek at Cook Riolo Rd bridge","lat":38.73672,"lon":-121.3367,"county":"PLACER"}]}},{"type":"Feature","geometry":{"type":"Polygon","coordinates":[[[-121.51116632598954,38.522121075597944],[-121.47921691573582,38.546672223488834],[-121.48919073503431,38.5794562445662],[-121.53113152113129,38.58768054069492],[-121.56307131164604,38.56312360264202],[-121.55307995260019,38.53034816240671],[-121.51116632598954,38.522121075597944]]]},"properties":{"h3_index":"862832b07ffffff","station_count":3,"program_id":"delta","program":"Delta","resolution":6,"stations":[{"station_id":"Sacr-015","station_name":"Sacramento River Subregion - Sacr-015","lat":38.534813,"lon":-121.519246,"county":"SACRAMENTO"},{"station_id":"Sacr-019","station_name":"Sacramento River Subregion - Sacr-019","lat":38.575381,"lon":-121.511692,"county":"YOLO"},{"station_id":"B9D83221310","station_name":"Sacramento River at Westin Boat Dock","lat":38.530034,"lon":-121.530912,"county":"YOLO"}]}},{"type":"Feature","geometry":{"type":"Polygon","coordinates":[[[-121.48919073503431,38.5794562445662],[-121.45721403700644,38.603996737326916],[-121.46718771419282,38.63676730819511],[-121.50915568259278,38.64498883091542],[-121.54112277468333,38.62044255237791],[-121.53113152113129,38.58768054069492],[-121.48919073503431,38.5794562445662]]]},"properties":{"h3_index":"862832b1fffffff","station_count":2,"program_id":"delta","program":"Delta","resolution":6,"stations":[{"station_id":"519AMNDVY","station_name":"American River at Discovery Park","lat":38.60094,"lon":-121.5055,"county":"SACRAMENTO"},{"station_id":"A0V83671280","station_name":"Natomas East Main Drainage Canal","lat":38.6111,"lon":-121.4673,"county":"SACRAMENTO"}]}},{"type":"Feature","geometry":{"type":"Polygon","coordinates":[[[-121.53311453186599,38.464761926740216],[-121.50119237561455,38.48932365839],[-121.51116632598954,38.522121075597944],[-121.55307995260019,38.53034816240671],[-121.5849924753934,38.50578063612706],[-121.57500102180886,38.47299182143901],[-121.53311453186599,38.464761926740216]]]},"properties":{"h3_index":"862832b27ffffff","station_count":2,"program_id":"delta","program":"Delta","resolution":6,"stations":[{"station_id":"Sacr-011","station_name":"Sacramento River Subregion - Sacr-011","lat":38.514541,"lon":-121.545627,"county":"SACRAMENTO"},{"station_id":"Sacr-023","station_name":"Sacramento River Subregion - Sacr-023","lat":38.494161,"lon":-121.555867,"county":"SACRAMENTO"}]}},{"type":"Feature","geometry":{"type":"Polygon","coordinates":[[[-121.36215977027805,38.0289327763259],[-121.33029882847302,38.05350681047201],[-121.34018665037726,38.08646582381941],[-121.38195291789573,38.09484217604669],[-121.41380449635804,38.07026224527839],[-121.40389918716629,38.03731186267374],[-121.36215977027805,38.0289327763259]]]},"properties":{"h3_index":"86283620fffffff","station_count":1,"program_id":"delta","program":"Delta","resolution":6,"stations":[{"station_id":"Sout-006","station_name":"South Delta Subregion - Sout-006","lat":38.032827,"lon":-121.379842,"county":"SAN JOAQUIN"}]}},{"type":"Feature","geometry":{"type":"Polygon","coordinates":[[[-121.33251277236234,37.92998242302338],[-121.30066953520407,37.95456073880454],[-121.3105402752216,37.98755424916005],[-121.3522717455037,37.9959608069194],[-121.38410566997672,37.971376572695895],[-121.37421745331997,37.938391702920875],[-121.33251277236234,37.92998242302338]]]},"properties":{"h3_index":"862836227ffffff","station_count":5,"program_id":"delta","program":"Delta","resolution":6,"stations":[{"station_id":"544SJRNBC","station_name":"San Joaquin River near Buckley Cove","lat":37.97417,"lon":-121.37601,"county":"SAN JOAQUIN"},{"station_id":"544LSAC13","station_name":"San Joaquin R at Buckley Cove","lat":37.971833,"lon":-121.373619,"county":"SAN JOAQUIN"},{"station_id":"Sout-013","station_name":"South Delta Subregion - Sout-013","lat":37.952684,"lon":-121.341496,"county":"SAN JOAQUIN"},{"station_id":"Sout-002","station_name":"South Delta Subregion - Sout-002","lat":37.958226,"lon":-121.379492,"county":"SAN JOAQUIN"},{"station_id":"B9D75891188","station_name":"Calaveras River at UOP Footbridge","lat":37.980025,"lon":-121.336477,"county":"SAN JOAQUIN"}]}},{"type":"Feature","geometry":{"type":"Polygon","coordinates":[[[-121.38410566997672,37.971376572695895],[-121.3522717455037,37.9959608069194],[-121.36215977027805,38.0289327763259],[-121.40389918716629,38.03731186267374],[-121.43572373437507,38.01272172661093],[-121.42581825845961,37.97975840979441],[-121.38410566997672,37.971376572695895]]]},"properties":{"h3_index":"86283622fffffff","station_count":2,"program_id":"delta","program":"Delta","resolution":6,"stations":[{"station_id":"Sout-023","station_name":"South Delta Subregion - Sout-023","lat":37.995899,"lon":-121.368843,"county":"SAN JOAQUIN"},{"station_id":"Sout-007","station_name":"South Delta Subregion - Sout-007","lat":37.997654,"lon":-121.410041,"county":"SAN JOAQUIN"}]}},{"type":"Feature","geometry":{"type":"Polygon","coordinates":[[[-121.48736690012554,38.054017809802225],[-121.45555179480534,38.07861383105989],[-121.46547438798416,38.11154258122599],[-121.50722950280708,38.11986663754382],[-121.53903510156938,38.09526474777707],[-121.5290951086314,38.062344673935065],[-121.48736690012554,38.054017809802225]]]},"properties":{"h3_index":"862836247ffffff","station_count":5,"program_id":"delta","program":"Delta","resolution":6,"stations":[{"station_id":"Sout-012","station_name":"South Delta Subregion - Sout-012","lat":38.100074,"lon":-121.488692,"county":"SAN JOAQUIN"},{"station_id":"Sout-016","station_name":"South Delta Subregion - Sout-016","lat":38.089906,"lon":-121.480798,"county":"SAN JOAQUIN"},{"station_id":"544LILPSL","station_name":"Little Potato Slough","lat":38.09627,"lon":-121.49602,"county":"SAN JOAQUIN"},{"station_id":"Sout-020","station_name":"South Delta Subregion - Sout-020","lat":38.105627,"lon":-121.489373,"county":"SAN JOAQUIN"},{"station_id":"Sout-024","station_name":"South Delta Subregion - Sout-024","lat":38.063877,"lon":-121.498171,"county":"SAN JOAQUIN"}]}},{"type":"Feature","geometry":{"type":"Polygon","coordinates":[[[-121.53903510156938,38.09526474777707],[-121.50722950280708,38.11986663754382],[-121.51716937945145,38.15277370985091],[-121.55893224533051,38.16107020806537],[-121.5907282728214,38.136462466516576],[-121.58077102230166,38.10356408225816],[-121.53903510156938,38.09526474777707]]]},"properties":{"h3_index":"86283624fffffff","station_count":7,"program_id":"delta","program":"Delta","resolution":6,"stations":[{"station_id":"Nort-004","station_name":"Northeast Delta Subregion - Nort-004","lat":38.115854,"lon":-121.551717,"county":"SAN JOAQUIN"},{"station_id":"Nort-020","station_name":"Northeast Delta Subregion - Nort-020","lat":38.130875,"lon":-121.574056,"county":"SACRAMENTO"},{"station_id":"Nort-024","station_name":"Northeast Delta Subregion - Nort-024","lat":38.135147,"lon":-121.563099,"county":"SAN JOAQUIN"},{"station_id":"Nort-023","station_name":"Northeast Delta Subregion - Nort-023","lat":38.101147,"lon":-121.562982,"county":"SAN JOAQUIN"},{"station_id":"Nort-012","station_name":"Northeast Delta Subregion - Nort-012","lat":38.122799,"lon":-121.525212,"county":"SAN JOAQUIN"},{"station_id":"Nort-008","station_name":"Northeast Delta Subregion - Nort-008","lat":38.120163,"lon":-121.58254,"county":"SAN JOAQUIN"},{"station_id":"Nort-015","station_name":"Northeast Delta Subregion - Nort-015","lat":38.129693,"lon":-121.561755,"county":"SAN JOAQUIN"}]}},{"type":"Feature","geometry":{"type":"Polygon","coordinates":[[[-121.46547438798416,38.11154258122599],[-121.43363223761017,38.13612839203974],[-121.44355467835126,38.16904411885129],[-121.48533672195659,38.177365384092006],[-121.51716937945145,38.15277370985091],[-121.50722950280708,38.11986663754382],[-121.46547438798416,38.11154258122599]]]},"properties":{"h3_index":"86283625fffffff","station_count":9,"program_id":"delta","program":"Delta","resolution":6,"stations":[{"station_id":"Nort-017","station_name":"Northeast Delta Subregion - Nort-017","lat":38.142763,"lon":-121.47036,"county":"SAN JOAQUIN"},{"station_id":"Nort-001","station_name":"Northeast Delta Subregion - Nort-001","lat":38.144768,"lon":-121.439405,"county":"SAN JOAQUIN"},{"station_id":"Nort-002","station_name":"Northeast Delta Subregion - Nort-002","lat":38.165568,"lon":-121.491334,"county":"SAN JOAQUIN"},{"station_id":"Nort-005","station_name":"Northeast Delta Subregion - Nort-005","lat":38.142496,"lon":-121.496832,"county":"SAN JOAQUIN"},{"station_id":"Nort-018","station_name":"Northeast Delta Subregion - Nort-018","lat":38.168812,"lon":-121.47039,"county":"SAN JOAQUIN"},{"station_id":"SFM4_SRNC","station_name":"South Fork Mokelumne River 4_SRNC","lat":38.153822,"lon":-121.503183,"county":"SAN JOAQUIN"},{"station_id":"Nort-025","station_name":"Northeast Delta Subregion - Nort-025","lat":38.128988,"lon":-121.499448,"county":"SAN JOAQUIN"},{"station_id":"Nort-009","station_name":"Northeast Delta Subregion - Nort-009","lat":38.122351,"lon":-121.498294,"county":"SAN JOAQUIN"},{"station_id":"Nort-021","station_name":"Northeast Delta Subregion - Nort-021","lat":38.156139,"lon":-121.503108,"county":"SAN JOAQUIN"}]}},{"type":"Feature","geometry":{"type":"Polygon","coordinates":[[[-121.50923225898245,37.9964699321776],[-121.47744416541933,38.02107609170209],[-121.48736690012554,38.054017809802225],[-121.5290951086314,38.062344673935065],[-121.56087368203895,38.03773264073846],[-121.55093358363868,38.004799620800675],[-121.50923225898245,37.9964699321776]]]},"properties":{"h3_index":"862836267ffffff","station_count":5,"program_id":"delta","program":"Delta","resolution":6,"stations":[{"station_id":"Cent-012","station_name":"Central Delta Subregion - Cent-012","lat":38.023199,"lon":-121.513719,"county":"SAN JOAQUIN"},{"station_id":"Sout-005","station_name":"South Delta Subregion - Sout-005","lat":38.038762,"lon":-121.483378,"county":"SAN JOAQUIN"},{"station_id":"Sout-001","station_name":"South Delta Subregion - Sout-001","lat":38.052834,"lon":-121.498638,"county":"SAN JOAQUIN"},{"station_id":"Sout-017","station_name":"South Delta Subregion - Sout-017","lat":38.041658,"lon":-121.497708,"county":"SAN JOAQUIN"},{"station_id":"Cent-022","station_name":"Central Delta Subregion - Cent-022","lat":38.003637,"lon":-121.52884,"county":"SAN JOAQUIN"}]}},{"type":"Feature","geometry":{"type":"Polygon","coordinates":[[[-121.56087368203895,38.03773264073846],[-121.5290951086314,38.062344673935065],[-121.53903510156938,38.09526474777707],[-121.58077102230166,38.10356408225816],[-121.61254001096184,38.07894619218391],[-121.60258268021174,38.04603482821509],[-121.56087368203895,38.03773264073846]]]},"properties":{"h3_index":"86283626fffffff","station_count":3,"program_id":"delta","program":"Delta","resolution":6,"stations":[{"station_id":"Cent-003","station_name":"Central Delta Subregion - Cent-003","lat":38.077624,"lon":-121.575533,"county":"SAN JOAQUIN"},{"station_id":"Sout-008","station_name":"South Delta Subregion - Sout-008","lat":38.085783,"lon":-121.552624,"county":"SAN JOAQUIN"},{"station_id":"Cent-014","station_name":"Central Delta Subregion - Cent-014","lat":38.063075,"lon":-121.561028,"county":"SAN JOAQUIN"}]}},{"type":"Feature","geometry":{"type":"Polygon","coordinates":[[[-121.43572373437507,38.01272172661093],[-121.40389918716629,38.03731186267374],[-121.41380449635804,38.07026224527839],[-121.45555179480534,38.07861383105989],[-121.48736690012554,38.054017809802225],[-121.47744416541933,38.02107609170209],[-121.43572373437507,38.01272172661093]]]},"properties":{"h3_index":"862836277ffffff","station_count":4,"program_id":"delta","program":"Delta","resolution":6,"stations":[{"station_id":"Sout-014","station_name":"South Delta Subregion - Sout-014","lat":38.041055,"lon":-121.42992,"county":"SAN JOAQUIN"},{"station_id":"Sout-019","station_name":"South Delta Subregion - Sout-019","lat":38.050892,"lon":-121.465035,"county":"SAN JOAQUIN"},{"station_id":"Sout-022","station_name":"South Delta Subregion - Sout-022","lat":38.050653,"lon":-121.418343,"county":"SAN JOAQUIN"},{"station_id":"Sout-003","station_name":"South Delta Subregion - Sout-003","lat":38.046231,"lon":-121.475567,"county":"SAN JOAQUIN"}]}},{"type":"Feature","geometry":{"type":"Polygon","coordinates":[[[-121.28094510673682,37.88853935303315],[-121.24909262142617,37.91311173381035],[-121.25894607643829,37.94612673904604],[-121.30066953520407,37.95456073880454],[-121.33251277236234,37.92998242302338],[-121.32264181534156,37.89697604626385],[-121.28094510673682,37.88853935303315]]]},"properties":{"h3_index":"86283631fffffff","station_count":1,"program_id":"delta","program":"Delta","resolution":6,"stations":[{"station_id":"Sout-025","station_name":"South Delta Subregion - Sout-025","lat":37.916627,"lon":-121.321438,"county":"SAN JOAQUIN"}]}},{"type":"Feature","geometry":{"type":"Polygon","coordinates":[[[-121.3248616165633,37.7732958619368],[-121.29306301063228,37.797888404002784],[-121.30291693879254,37.83092901776238],[-121.34458691922417,37.83936842092474],[-121.37637624892278,37.81476993290796],[-121.36650489081315,37.78173799142779],[-121.3248616165633,37.7732958619368]]]},"properties":{"h3_index":"862836327ffffff","station_count":1,"program_id":"delta","program":"Delta","resolution":6,"stations":[{"station_id":"Sout-011","station_name":"South Delta Subregion - Sout-011","lat":37.793685,"lon":-121.307466,"county":"SAN JOAQUIN"}]}},{"type":"Feature","geometry":{"type":"Polygon","coordinates":[[[-121.47948076021069,37.8975716155889],[-121.44771017590017,37.922181945375776],[-121.45761580763035,37.95515814069525],[-121.4993093936191,37.963515301717514],[-121.53107050868395,37.938899076193884],[-121.52114752349381,37.905931589101],[-121.47948076021069,37.8975716155889]]]},"properties":{"h3_index":"862836347ffffff","station_count":1,"program_id":"delta","program":"Delta","resolution":6,"stations":[{"station_id":"Cent-002","station_name":"Central Delta Subregion - Cent-002","lat":37.921025,"lon":-121.517353,"county":"SAN JOAQUIN"}]}},{"type":"Feature","geometry":{"type":"Polygon","coordinates":[[[-121.53107050868395,37.938899076193884],[-121.4993093936191,37.963515301717514],[-121.50923225898245,37.9964699321776],[-121.55093358363868,38.004799620800675],[-121.5826851650311,37.980177516360804],[-121.57274497195996,37.94723160591966],[-121.53107050868395,37.938899076193884]]]},"properties":{"h3_index":"86283634fffffff","station_count":4,"program_id":"delta","program":"Delta","resolution":6,"stations":[{"station_id":"Cent-006","station_name":"Central Delta Subregion - Cent-006","lat":37.99242,"lon":-121.52336,"county":"SAN JOAQUIN"},{"station_id":"Cent-010","station_name":"Central Delta Subregion - Cent-010","lat":37.976457,"lon":-121.514616,"county":"SAN JOAQUIN"},{"station_id":"Cent-018","station_name":"Central Delta Subregion - Cent-018","lat":37.991558,"lon":-121.515346,"county":"SAN JOAQUIN"},{"station_id":"B9D75811344","station_name":"Old River at Bacon Island","lat":37.9691,"lon":-121.5729,"county":"SAN JOAQUIN"}]}},{"type":"Feature","geometry":{"type":"Polygon","coordinates":[[[-121.45761580763035,37.95515814069525],[-121.42581825845961,37.97975840979441],[-121.43572373437507,38.01272172661093],[-121.47744416541933,38.02107609170209],[-121.50923225898245,37.9964699321776],[-121.4993093936191,37.963515301717514],[-121.45761580763035,37.95515814069525]]]},"properties":{"h3_index":"86283635fffffff","station_count":2,"program_id":"delta","program":"Delta","resolution":6,"stations":[{"station_id":"Sout-026","station_name":"South Delta Subregion - Sout-026","lat":38.007743,"lon":-121.455756,"county":"SAN JOAQUIN"},{"station_id":"Sout-010","station_name":"South Delta Subregion - Sout-010","lat":38.005638,"lon":-121.444296,"county":"SAN JOAQUIN"}]}},{"type":"Feature","geometry":{"type":"Polygon","coordinates":[[[-121.50131863612543,37.83996227959195],[-121.4695749835348,37.864582597628235],[-121.47948076021069,37.8975716155889],[-121.52114752349381,37.905931589101],[-121.55288169328139,37.88130536993579],[-121.54295859905487,37.8483250820897],[-121.50131863612543,37.83996227959195]]]},"properties":{"h3_index":"862836367ffffff","station_count":1,"program_id":"delta","program":"Delta","resolution":6,"stations":[{"station_id":"544MDRBH4","station_name":"Middle River at Borden Hwy (Hwy 4)","lat":37.89083,"lon":-121.48833,"county":"SAN JOAQUIN"}]}},{"type":"Feature","geometry":{"type":"Polygon","coordinates":[[[-121.55288169328139,37.88130536993579],[-121.52114752349381,37.905931589101],[-121.53107050868395,37.938899076193884],[-121.57274497195996,37.94723160591966],[-121.60446959463864,37.92259950251307],[-121.59452931764822,37.889640757313664],[-121.55288169328139,37.88130536993579]]]},"properties":{"h3_index":"86283636fffffff","station_count":3,"program_id":"delta","program":"Delta","resolution":6,"stations":[{"station_id":"Cent-013","station_name":"Central Delta Subregion - Cent-013","lat":37.942479,"lon":-121.559276,"county":"SAN JOAQUIN"},{"station_id":"Cent-017","station_name":"Central Delta Subregion - Cent-017","lat":37.920262,"lon":-121.555689,"county":"SAN JOAQUIN"},{"station_id":"Cent-021","station_name":"Central Delta Subregion - Cent-021","lat":37.889297,"lon":-121.574674,"county":"SAN JOAQUIN"}]}},{"type":"Feature","geometry":{"type":"Polygon","coordinates":[[[-121.24387829865903,37.63251510354164],[-121.21208819508877,37.657105664061895],[-121.22190792285816,37.690201642042915],[-121.2635352148925,37.698698393464625],[-121.29531615652091,37.674101847995956],[-121.2854789843612,37.64101453980936],[-121.24387829865903,37.63251510354164]]]},"properties":{"h3_index":"862836ab7ffffff","station_count":2,"program_id":"delta","program":"Delta","resolution":6,"stations":[{"station_id":"541SJC501","station_name":"San Joaquin River at Airport Way near Vernalis","lat":37.675556,"lon":-121.264167,"county":"SAN JOAQUIN"},{"station_id":"B0702000","station_name":"San Joaquin River near Vernalis","lat":37.6793,"lon":-121.2651,"county":"SAN JOAQUIN"}]}},{"type":"Feature","geometry":{"type":"Polygon","coordinates":[[[-121.52312947930636,37.78233026124573],[-121.49141272533294,37.80696049500408],[-121.50131863612543,37.83996227959195],[-121.54295859905487,37.8483250820897],[-121.57466585674817,37.82368894172955],[-121.56474266423604,37.79069590916176],[-121.52312947930636,37.78233026124573]]]},"properties":{"h3_index":"862836acfffffff","station_count":2,"program_id":"delta","program":"Delta","resolution":6,"stations":[{"station_id":"Sout-021","station_name":"South Delta Subregion - Sout-021","lat":37.819769,"lon":-121.526459,"county":"SAN JOAQUIN"},{"station_id":"Cent-001","station_name":"Central Delta Subregion - Cent-001","lat":37.835727,"lon":-121.555037,"county":"CONTRA COSTA"}]}},{"type":"Feature","geometry":{"type":"Polygon","coordinates":[[[-121.39826731626802,37.75712952614746],[-121.36650489081315,37.78173799142779],[-121.37637624892278,37.81476993290796],[-121.41802741755794,37.82318470655989],[-121.44978048868953,37.798570306498995],[-121.43989176191091,37.76554707129029],[-121.39826731626802,37.75712952614746]]]},"properties":{"h3_index":"862836ad7ffffff","station_count":1,"program_id":"delta","program":"Delta","resolution":6,"stations":[{"station_id":"Sout-004","station_name":"South Delta Subregion - Sout-004","lat":37.807513,"lon":-121.415354,"county":"SAN JOAQUIN"}]}},{"type":"Feature","geometry":{"type":"Polygon","coordinates":[[[-121.44978048868953,37.798570306498995],[-121.41802741755794,37.82318470655989],[-121.42791598517684,37.85619520938834],[-121.4695749835348,37.864582597628235],[-121.50131863612543,37.83996227959195],[-121.49141272533294,37.80696049500408],[-121.44978048868953,37.798570306498995]]]},"properties":{"h3_index":"862836adfffffff","station_count":1,"program_id":"delta","program":"Delta","resolution":6,"stations":[{"station_id":"Sout-009","station_name":"South Delta Subregion - Sout-009","lat":37.820284,"lon":-121.492476,"county":"SAN JOAQUIN"}]}}]}