{"type":"FeatureCollection","features":[{"type":"Feature","geometry":{"type":"Polygon","coordinates":[[[-118.93882415017697,34.041545955130914],[-118.90716495018823,34.06596534747581],[-118.91607061624624,34.10036126793527],[-118.95665339898282,34.11032947124782],[-118.98830647264872,34.085903027562686],[-118.97938290398127,34.05151543591875],[-118.93882415017697,34.041545955130914]]]},"properties":{"h3_index":"862912487ffffff","station_count":2,"program_id":"smc","program":"SMC","resolution":6,"stations":[{"station_id":"{9A9D636A-47D3-4B22-B51D-9AA4ADD89AF8}","station_name":"Sequit, Arroyo (48200)","lat":34.077726,"lon":-118.923951,"county":"VENTURA","waterbody":"Arroyo Sequit"},{"station_id":"{BA53A6AC-8EA0-4919-9117-7A4EFFDDF67A}","station_name":"Sequit, Arroyo (45745)","lat":34.059024,"lon":-118.933902,"county":"VENTURA","waterbody":"Arroyo Sequit"}]}},{"type":"Feature","geometry":{"type":"Polygon","coordinates":[[[-118.86659269722203,34.05597261695823],[-118.83490212015128,34.08037704366806],[-118.84378983127314,34.11478125297708],[-118.884386088462,34.12477275076403],[-118.91607061624624,34.10036126793527],[-118.90716495018823,34.06596534747581],[-118.86659269722203,34.05597261695823]]]},"properties":{"h3_index":"862912497ffffff","station_count":1,"program_id":"smc","program":"SMC","resolution":6,"stations":[{"station_id":"{6649C3A0-B7C7-43A5-A5D3-A35E92499F1B}","station_name":"Tributary Creek 0.4miles up stream of confluence to E Fork Arroyo Sequit","lat":34.08976,"lon":-118.911765,"county":"VENTURA","huc8":"Arroyp Sequit-Frontal Pacific Ocean"}]}},{"type":"Feature","geometry":{"type":"Polygon","coordinates":[[[-118.8893689146214,33.997146928179006],[-118.85770364695551,34.02155925352044],[-118.86659269722203,34.05597261695823],[-118.90716495018823,34.06596534747581],[-118.93882415017697,34.041545955130914],[-118.9299171789226,34.00714090329511],[-118.8893689146214,33.997146928179006]]]},"properties":{"h3_index":"8629124b7ffffff","station_count":1,"program_id":"smc","program":"SMC","resolution":6,"stations":[{"station_id":"{894716FC-EDE7-474A-B736-16695E2E1F47}","station_name":"Los Allos Canyon Creek","lat":34.04201,"lon":-118.89747,"county":"LOS ANGELES","huc8":"Arroyo Sequit - Frontal Pacific Ocean"}]}},{"type":"Feature","geometry":{"type":"Polygon","coordinates":[[[-119.11001068802574,34.115690033357076],[-119.07839539777906,34.14013839616073],[-119.08735217166536,34.1744908851219],[-119.12794206278825,34.18438661260628],[-119.15955103245166,34.15993123502004],[-119.15057644574418,34.1255871487021],[-119.11001068802574,34.115690033357076]]]},"properties":{"h3_index":"8629124c7ffffff","station_count":1,"program_id":"smc","program":"SMC","resolution":6,"stations":[{"station_id":"{DC918C4D-C2E4-41D1-9B77-3D324659485F}","station_name":"Revolon Slough Below Wood Road","lat":34.16522,"lon":-119.09069,"county":"VENTURA"}]}},{"type":"Feature","geometry":{"type":"Polygon","coordinates":[[[-119.03781583042226,34.130218039429224],[-119.00616894179119,34.15465151874715],[-119.01510785018034,34.18901237068376],[-119.0557115268468,34.19893138432105],[-119.08735217166536,34.1744908851219],[-119.07839539777906,34.14013839616073],[-119.03781583042226,34.130218039429224]]]},"properties":{"h3_index":"8629124d7ffffff","station_count":1,"program_id":"smc","program":"SMC","resolution":6,"stations":[{"station_id":"{68ED3144-39E7-40E8-BC32-661EF73A061A}","station_name":"Calleguas Creek","lat":34.16864,"lon":-119.05728,"county":"VENTURA","huc8":"Revolon Slough-Calleguas Creek"}]}},{"type":"Feature","geometry":{"type":"Polygon","coordinates":[[[-117.16506416721562,33.947890393052795],[-117.13278596523932,33.97195573779293],[-117.14120630359508,34.006637209635336],[-117.18192386070055,34.01724594370535],[-117.21419790345524,33.99317336823603],[-117.20575856165769,33.95849929395304],[-117.16506416721562,33.947890393052795]]]},"properties":{"h3_index":"8629a0017ffffff","station_count":1,"program_id":"smc","program":"SMC","resolution":6,"stations":[{"station_id":"{2CECF41D-C082-428E-9442-C8DAB5624C42}","station_name":"San Timeteo SMC Site 01805","lat":33.98668,"lon":-117.14229,"county":"RIVERSIDE","huc8":"San Timoteo Canyon-San Timoteo Wash"}]}},{"type":"Feature","geometry":{"type":"Polygon","coordinates":[[[-117.21419790345524,33.99317336823603],[-117.18192386070055,34.01724594370535],[-117.19036109445295,34.051910761210095],[-117.23109137290805,34.06249559058723],[-117.26336119805059,34.03841579768064],[-117.25490497572,34.00375839735253],[-117.21419790345524,33.99317336823603]]]},"properties":{"h3_index":"8629a001fffffff","station_count":1,"program_id":"smc","program":"SMC","resolution":6,"stations":[{"station_id":"{AF776A9B-2759-46B9-8995-FC01C69CBEFF}","station_name":"San Timoteo Creek SMC2_15524","lat":34.048135,"lon":-117.230016,"county":"SAN BERNARDINO","huc8":"San Timoteo Canyon-San Timoteo Wash"}]}},{"type":"Feature","geometry":{"type":"Polygon","coordinates":[[[-117.0681749036385,34.020060987422745],[-117.03584205428191,34.04410082959784],[-117.04424116257545,34.07878035379807],[-117.08499222094791,34.08941270834648],[-117.11732101438103,34.065365645126576],[-117.1089028186787,34.030693452965984],[-117.0681749036385,34.020060987422745]]]},"properties":{"h3_index":"8629a0087ffffff","station_count":1,"program_id":"smc","program":"SMC","resolution":6,"stations":[{"station_id":"{A4C5088B-2F0E-42D0-991E-BA7ADFA62E81}","station_name":"Mill Creek SMC2_15530","lat":34.078658,"lon":-117.067173,"county":"SAN BERNARDINO","huc8":"Santa Ana Wash-Santa Ana River"}]}},{"type":"Feature","geometry":{"type":"Polygon","coordinates":[[[-117.04424116257545,34.07878035379807],[-117.01188300174508,34.10281094861087],[-117.02027991925583,34.13748110306149],[-117.06105413303405,34.148113358135795],[-117.09340826057216,34.12407555365722],[-117.08499222094791,34.08941270834648],[-117.04424116257545,34.07878035379807]]]},"properties":{"h3_index":"8629a009fffffff","station_count":1,"program_id":"smc","program":"SMC","resolution":6,"stations":[{"station_id":"{03446FFC-CE33-4F00-A2D7-DB02FD63531A}","station_name":"SMC2_15479","lat":34.098819,"lon":-117.026221,"county":"SAN BERNARDINO"}]}},{"type":"Feature","geometry":{"type":"Polygon","coordinates":[[[-117.1664968587361,34.110629717393145],[-117.13417217970178,34.134683988543266],[-117.14260515723582,34.16933009108955],[-117.18338188510485,34.17991455563538],[-117.21570239117936,34.15585308971341],[-117.20725035573517,34.12121435856279],[-117.1664968587361,34.110629717393145]]]},"properties":{"h3_index":"8629a00d7ffffff","station_count":1,"program_id":"smc","program":"SMC","resolution":6,"stations":[{"station_id":"{C2E832E2-3563-4551-A894-2C781C7A4603}","station_name":"City Creek ~0.1mi below confluence","lat":34.17289,"lon":-117.18064,"county":"SAN BERNARDINO"}]}},{"type":"Feature","geometry":{"type":"Polygon","coordinates":[[[-117.65557796223071,34.23659344327955],[-117.62339018553716,34.260741551328074],[-117.63196666693929,34.29528999943431],[-117.67274973449841,34.30568272714769],[-117.70493278054401,34.281527487741315],[-117.69633750332963,34.246986656398875],[-117.65557796223071,34.23659344327955]]]},"properties":{"h3_index":"8629a022fffffff","station_count":1,"program_id":"smc","program":"SMC","resolution":6,"stations":[{"station_id":"{8BE60AB8-2B97-4491-8929-23376B656A1D}","station_name":"San Antonio Creek Non-perennial site 002","lat":34.2559,"lon":-117.64111,"county":"SAN BERNARDINO"}]}},{"type":"Feature","geometry":{"type":"Polygon","coordinates":[[[-117.533301164992,34.20531791243636],[-117.50107871822361,34.22944269326418],[-117.50961943607699,34.26401577037181],[-117.55040147640828,34.27445651512892],[-117.58261933178818,34.25032458651582],[-117.57405975181237,34.215759065382095],[-117.533301164992,34.20531791243636]]]},"properties":{"h3_index":"8629a0237ffffff","station_count":1,"program_id":"smc","program":"SMC","resolution":6,"stations":[{"station_id":"{F28C9456-F34F-42C3-96F4-49BDAA6F0CF1}","station_name":"Lytle Creek Middle Fork Non-perennial site 001","lat":34.2442,"lon":-117.50727,"county":"SAN BERNARDINO"}]}},{"type":"Feature","geometry":{"type":"Polygon","coordinates":[[[-116.89796296642675,34.10548886476193],[-116.86554630643228,34.129486316341314],[-116.87390483199783,34.16417096083549],[-116.914699251377,34.17485093475327],[-116.94711204081042,34.15084627039697],[-116.93873429469133,34.11616884952039],[-116.89796296642675,34.10548886476193]]]},"properties":{"h3_index":"8629a0447ffffff","station_count":1,"program_id":"smc","program":"SMC","resolution":6,"stations":[{"station_id":"{BFF5589F-97DB-4BFB-A745-D5114D16B679}","station_name":"SMC2_15447","lat":34.166907,"lon":-116.88835,"county":"SAN BERNARDINO"}]}},{"type":"Feature","geometry":{"type":"Polygon","coordinates":[[[-116.82476503525777,34.11878247768195],[-116.79231924434822,34.14276325472287],[-116.80065850031603,34.1774550799322],[-116.84146283002725,34.188158952028004],[-116.87390483199783,34.16417096083549],[-116.86554630643228,34.129486316341314],[-116.82476503525777,34.11878247768195]]]},"properties":{"h3_index":"8629a0457ffffff","station_count":2,"program_id":"smc","program":"SMC","resolution":6,"stations":[{"station_id":"{47D0B638-F460-4991-91DF-77B0ED64309C}","station_name":"Upper Santa Ana River near Seven Oaks Road SMC2_15511","lat":34.177075,"lon":-116.844262,"county":"SAN BERNARDINO"},{"station_id":"{253D601E-F3D8-49AB-9334-832031E9263D}","station_name":"Santa Ana River near Barton Flats SMC Site 01671","lat":34.16963,"lon":-116.82558,"county":"SAN BERNARDINO","huc8":"Fish Creek-Santa Ana River"}]}},{"type":"Feature","geometry":{"type":"Polygon","coordinates":[[[-116.87390483199783,34.16417096083549],[-116.84146283002725,34.188158952028004],[-116.84981908164991,34.22283411394235],[-116.89063660390545,34.233514088577635],[-116.92307475838669,34.20951889594711],[-116.914699251377,34.17485093475327],[-116.87390483199783,34.16417096083549]]]},"properties":{"h3_index":"8629a045fffffff","station_count":1,"program_id":"smc","program":"SMC","resolution":6,"stations":[{"station_id":"{EEB72CF1-5D92-4F31-92C0-683163E0CBF2}","station_name":"Barton Creek ~ 1.4 mi. NW of Barton Flats Campground","lat":34.18128,"lon":-116.91197,"county":"SAN BERNARDINO"}]}},{"type":"Feature","geometry":{"type":"Polygon","coordinates":[[[-116.99629113464388,34.1961630895573],[-116.96388227432641,34.22017495386549],[-116.97227476965277,34.25482616782582],[-117.01309533034866,34.26545825871858],[-117.04550020290768,34.2414392073271],[-117.03708851587285,34.20679525672939],[-116.99629113464388,34.1961630895573]]]},"properties":{"h3_index":"8629a0717ffffff","station_count":2,"program_id":"smc","program":"SMC","resolution":6,"stations":[{"station_id":"{D5AD6039-9DC9-4ED1-93C0-68C6B5671F50}","station_name":"Bear Creek ~5mi W Big Bear Lake","lat":34.23169,"lon":-116.99915,"county":"SAN BERNARDINO"},{"station_id":"{6E090FE0-3CA9-4692-9196-59B22127201E}","station_name":"Big Bear Lake, Pine Oak Lane North Beach","lat":34.24529,"lon":-116.97269,"county":"SAN BERNARDINO"}]}},{"type":"Feature","geometry":{"type":"Polygon","coordinates":[[[-117.09340826057216,34.12407555365722],[-117.06105413303405,34.148113358135795],[-117.06946800311577,34.18276678955114],[-117.11025512155015,34.193375092186464],[-117.14260515723582,34.16933009108955],[-117.13417217970178,34.134683988543266],[-117.09340826057216,34.12407555365722]]]},"properties":{"h3_index":"8629a0727ffffff","station_count":1,"program_id":"smc","program":"SMC","resolution":6,"stations":[{"station_id":"{1CB1E63C-9DA8-4750-955D-4E4B8121A607}","station_name":"Fredalba Creek above City Creek Road","lat":34.17,"lon":-117.12977,"county":"SAN BERNARDINO"}]}},{"type":"Feature","geometry":{"type":"Polygon","coordinates":[[[-117.14260515723582,34.16933009108955],[-117.11025512155015,34.193375092186464],[-117.11868595083143,34.22801173679758],[-117.15948592186855,34.238596036354885],[-117.19183180705548,34.21454385173076],[-117.18338188510485,34.17991455563538],[-117.14260515723582,34.16933009108955]]]},"properties":{"h3_index":"8629a072fffffff","station_count":1,"program_id":"smc","program":"SMC","resolution":6,"stations":[{"station_id":"{5A27A1CE-6B14-4F91-B362-D7F4247CE500}","station_name":"City Creek Above West Fork","lat":34.187778,"lon":-117.181944,"county":"SAN BERNARDINO","waterbody":"City Creek"}]}},{"type":"Feature","geometry":{"type":"Polygon","coordinates":[[[-116.92307475838669,34.20951889594711],[-116.89063660390545,34.233514088577635],[-116.8990098581777,34.26817252318213],[-116.93984052129974,34.27882854913727],[-116.97227476965277,34.25482616782582],[-116.96388227432641,34.22017495386549],[-116.92307475838669,34.20951889594711]]]},"properties":{"h3_index":"8629a07a7ffffff","station_count":3,"program_id":"smc","program":"SMC","resolution":6,"stations":[{"station_id":"{05C4C733-708E-4E0D-A5A4-939D8DD581F9}","station_name":"Metcalf Creek at Hwy 18","lat":34.238617,"lon":-116.936657,"county":"SAN BERNARDINO","huc8":"Big Bear Lake"},{"station_id":"{5D858FCC-7007-4386-BDBA-6704850A992D}","station_name":"Boulder Creek SMC2_15547","lat":34.234937,"lon":-116.95849,"county":"SAN BERNARDINO","huc8":"Big Bear Lake"},{"station_id":"{563FCF84-40F3-45D1-91B1-3E3C29D7A520}","station_name":"Big Bear Lake, Pine Knot Marina","lat":34.24779,"lon":-116.91302,"county":"SAN BERNARDINO"}]}},{"type":"Feature","geometry":{"type":"Polygon","coordinates":[[[-116.97227476965277,34.25482616782582],[-116.93984052129974,34.27882854913727],[-116.9482307851444,34.31347019260514],[-116.98907453729447,34.324102218892335],[-117.02150482079217,34.30009266170057],[-117.01309533034866,34.26545825871858],[-116.97227476965277,34.25482616782582]]]},"properties":{"h3_index":"8629a07afffffff","station_count":1,"program_id":"smc","program":"SMC","resolution":6,"stations":[{"station_id":"{F892857F-9E04-4E9F-9D28-8B64B7790B75}","station_name":"Mid Grout Creek","lat":34.275082,"lon":-116.954657,"county":"SAN BERNARDINO"}]}},{"type":"Feature","geometry":{"type":"Polygon","coordinates":[[[-116.84981908164991,34.22283411394235],[-116.81735171234313,34.24681256623282],[-116.82570567633323,34.28147817866894],[-116.86654631319722,34.29215816563029],[-116.8990098581777,34.26817252318213],[-116.89063660390545,34.233514088577635],[-116.84981908164991,34.22283411394235]]]},"properties":{"h3_index":"8629a07b7ffffff","station_count":1,"program_id":"smc","program":"SMC","resolution":6,"stations":[{"station_id":"{479FFBB6-6A69-481E-80D3-EB53A4454B52}","station_name":"Rathbun Creek below Sandalwood Dr","lat":34.2531,"lon":-116.887354,"county":"SAN BERNARDINO","huc8":"Big Bear Lake"}]}},{"type":"Feature","geometry":{"type":"Polygon","coordinates":[[[-117.40390968493554,33.52262804599355],[-117.37183716210647,33.54677068482535],[-117.38029088938106,33.58150766558239],[-117.4208358664953,33.592094411392196],[-117.45290399665936,33.56794446215092],[-117.4444315556598,33.5332150819192],[-117.40390968493554,33.52262804599355]]]},"properties":{"h3_index":"8629a0807ffffff","station_count":5,"program_id":"smc","program":"SMC","resolution":6,"stations":[{"station_id":"{5EAF1BB3-A3A4-4B2F-949A-8492909C1389}","station_name":"San Mateo Creek ~0.6mi below Los Alamos Cyn. Cr.","lat":33.54344,"lon":-117.397393,"county":"RIVERSIDE"},{"station_id":"{142BFCE4-9758-4F04-AAA8-973C9CAFD282}","station_name":"San Mateo Creek ~0.4mi above Los Alamos Cyn. Cr.","lat":33.555239,"lon":-117.397797,"county":"RIVERSIDE","waterbody":"San Mateo Creek"},{"station_id":"{EC24151A-1AE5-4D5C-AA01-A1092F4DDD46}","station_name":"San Mateo Canyon Creek below Tenaja Cyn. Cr.","lat":33.531606,"lon":-117.414154,"county":"RIVERSIDE"},{"station_id":"{182D8233-E278-431B-B879-1CF4DCE95B5B}","station_name":"San Mateo Canyon above Tenaja Cyn. Cr.","lat":33.52999,"lon":-117.408551,"county":"RIVERSIDE","huc8":"Middle San Mateo Creek"},{"station_id":"{D498043B-F22E-48F5-9375-D8615630B24E}","station_name":"San Mateo Creek above Los Alamos Cyn. Cr.","lat":33.553349,"lon":-117.395796,"county":"RIVERSIDE","waterbody":"San Mateo Creek"}]}},{"type":"Feature","geometry":{"type":"Polygon","coordinates":[[[-117.45290399665936,33.56794446215092],[-117.4208358664953,33.592094411392196],[-117.42930632602535,33.626815031351754],[-117.46986362757892,33.63737808648509],[-117.50192730728645,33.613220840692634],[-117.49343814921974,33.57850784071889],[-117.45290399665936,33.56794446215092]]]},"properties":{"h3_index":"8629a080fffffff","station_count":2,"program_id":"smc","program":"SMC","resolution":6,"stations":[{"station_id":"{6B868020-AA56-4520-9776-602A616ABC23}","station_name":"San Juan Creek ~0.4mi above Lion Cyn. Cr.","lat":33.603476,"lon":-117.453146,"county":"RIVERSIDE"},{"station_id":"{341D5B5E-7669-45CF-BCD3-1353215713F5}","station_name":"San Juan Creek ~1mi above Lion Cyn. Cr.","lat":33.606429,"lon":-117.446235,"county":"ORANGE","huc8":"Upper San Juan Creek"}]}},{"type":"Feature","geometry":{"type":"Polygon","coordinates":[[[-117.42750140306619,33.4637313093017],[-117.39545395509893,33.48788235015151],[-117.40390968493554,33.52262804599355],[-117.4444315556598,33.5332150819192],[-117.47647458947607,33.50905671878281],[-117.46800017999402,33.474318646403624],[-117.42750140306619,33.4637313093017]]]},"properties":{"h3_index":"8629a0827ffffff","station_count":1,"program_id":"smc","program":"SMC","resolution":6,"stations":[{"station_id":"{E04B419D-1325-4888-9EE5-6FBC89451D18}","station_name":"San Mateo Canyon Creek above Devil Cyn. Cr.","lat":33.474861,"lon":-117.466052,"county":"SAN DIEGO"}]}},{"type":"Feature","geometry":{"type":"Polygon","coordinates":[[[-117.52547671117871,33.55434216921811],[-117.49343814921974,33.57850784071889],[-117.50192730728645,33.613220840692634],[-117.54247368976216,33.62376051126073],[-117.5745077220772,33.59958754536224],[-117.56599991490947,33.56488220767156],[-117.52547671117871,33.55434216921811]]]},"properties":{"h3_index":"8629a0877ffffff","station_count":1,"program_id":"smc","program":"SMC","resolution":6,"stations":[{"station_id":"{5BD99C49-D827-4362-917C-AE41A230839F}","station_name":"Hot Spring Canyon Creek ~1.2mi above Hwy 74","lat":33.603698,"lon":-117.510004,"county":"ORANGE","huc8":"Upper San Juan Creek"}]}},{"type":"Feature","geometry":{"type":"Polygon","coordinates":[[[-117.3532487595405,33.31402973458702],[-117.32121766233467,33.33817438793729],[-117.32964201939484,33.372961076261554],[-117.37011616259777,33.38359550836829],[-117.40214293925436,33.35944349296058],[-117.3936999064476,33.324664411904266],[-117.3532487595405,33.31402973458702]]]},"properties":{"h3_index":"8629a0937ffffff","station_count":1,"program_id":"smc","program":"SMC","resolution":6,"stations":[{"station_id":"{9A671F1B-87A0-4F66-8C20-75160BD6B1DE}","station_name":"Santa Margarita River above Wood Cyn.","lat":33.340951,"lon":-117.331936,"county":"SAN DIEGO","waterbody":"Santa Margarita River"}]}},{"type":"Feature","geometry":{"type":"Polygon","coordinates":[[[-117.62148294507851,33.481797227975036],[-117.58949911349679,33.505986831335434],[-117.59800883396345,33.54070088344623],[-117.63852096490737,33.55121760913845],[-117.67050016678085,33.52702070185094],[-117.66197188078237,33.49231437714009],[-117.62148294507851,33.481797227975036]]]},"properties":{"h3_index":"8629a094fffffff","station_count":3,"program_id":"smc","program":"SMC","resolution":6,"stations":[{"station_id":"{CCAE87EF-7C09-4C0B-A5D6-9DC21761E9DB}","station_name":"San Juan Creek ~1mi above La Novia Ave.","lat":33.5099,"lon":-117.6348,"county":"ORANGE"},{"station_id":"{664A9E46-3178-4C02-8B7B-DC65C42577E1}","station_name":"San Juan Creek above La Novia Ave.","lat":33.50267,"lon":-117.647948,"county":"ORANGE","huc8":"Lower San Juan Creek"},{"station_id":"{4DBE39E1-21B3-48E9-83A5-D1BE65D40807}","station_name":"San Juan Creek ~0.3mi below Hwy 74","lat":33.514425,"lon":-117.626137,"county":"ORANGE"}]}},{"type":"Feature","geometry":{"type":"Polygon","coordinates":[[[-117.59596284092387,33.37760424128449],[-117.5639994779706,33.401794714544664],[-117.5724944393959,33.43653372205144],[-117.6129713241768,33.447074529574635],[-117.64493009406121,33.42287672633108],[-117.63641658554964,33.388145449884945],[-117.59596284092387,33.37760424128449]]]},"properties":{"h3_index":"8629a0967ffffff","station_count":1,"program_id":"smc","program":"SMC","resolution":6,"stations":[{"station_id":"{F6C8B045-B6A0-4FCC-BC86-CCCBF72E545F}","station_name":"Segunda Deshecha Canada above E Avenida Pico","lat":33.440027,"lon":-117.619377,"county":"ORANGE","huc8":"Prima Deshecha Canada-Frontal Capistrano Bight"}]}},{"type":"Feature","geometry":{"type":"Polygon","coordinates":[[[-117.64493009406121,33.42287672633108],[-117.6129713241768,33.447074529574635],[-117.62148294507851,33.481797227975036],[-117.66197188078237,33.49231437714009],[-117.69392599998922,33.4681092581146],[-117.68539584752237,33.43339431003409],[-117.64493009406121,33.42287672633108]]]},"properties":{"h3_index":"8629a096fffffff","station_count":1,"program_id":"smc","program":"SMC","resolution":6,"stations":[{"station_id":"{1084ABC2-0F6F-4E4A-A450-75F1B8BAA055}","station_name":"San Juan Creek ~0.2mi above Stonehill Dr.","lat":33.4779,"lon":-117.6785,"county":"ORANGE"}]}},{"type":"Feature","geometry":{"type":"Polygon","coordinates":[[[-117.2334194127492,33.44534602802665],[-117.20130902267191,33.46945820751612],[-117.20971051093422,33.5042352341765],[-117.2502411951001,33.514892567111865],[-117.28234738722529,33.49077304791788],[-117.27392710632081,33.45600353994336],[-117.2334194127492,33.44534602802665]]]},"properties":{"h3_index":"8629a0987ffffff","station_count":1,"program_id":"smc","program":"SMC","resolution":6,"stations":[{"station_id":"{D6CD4EA4-8764-4B91-9CD3-89957BD73BE0}","station_name":"Sandia Canyon Creek ~1.9mi above De Anza Rd.","lat":33.487242,"lon":-117.255378,"county":"RIVERSIDE","huc8":"Sandia Canyon"}]}},{"type":"Feature","geometry":{"type":"Polygon","coordinates":[[[-117.25710120070521,33.38643972910411],[-117.22501584581686,33.41056035400217],[-117.2334194127492,33.44534602802665],[-117.27392710632081,33.45600353994336],[-117.30600824143036,33.43187556332763],[-117.29758591592098,33.39709743094963],[-117.25710120070521,33.38643972910411]]]},"properties":{"h3_index":"8629a09a7ffffff","station_count":3,"program_id":"smc","program":"SMC","resolution":6,"stations":[{"station_id":"{B5B70010-C31B-4DFC-9232-D13C80ED5C43}","station_name":"Santa Margarita River ~0.8mi below Sandia Cr.","lat":33.405685,"lon":-117.249771,"county":"SAN DIEGO"},{"station_id":"{BF298ED5-6E81-4DFF-9351-7F81F53DE4FE}","station_name":"Santa Margarita River ~2.5mi below De Luz Rd.","lat":33.397108,"lon":-117.283647,"county":"SAN DIEGO"},{"station_id":"{03BA4D5B-6862-446A-BCCF-A8B864C264E4}","station_name":"Santa Margarita River ~0.3mi above Sandia Cr. Dr.","lat":33.410319,"lon":-117.239036,"county":"SAN DIEGO","huc8":"Rainbow Creek-Santa Margarita River"}]}},{"type":"Feature","geometry":{"type":"Polygon","coordinates":[[[-117.18452068299042,33.39987935612209],[-117.15240615250937,33.42398418229053],[-117.16079091211179,33.4587773552009],[-117.20130902267191,33.46945820751612],[-117.2334194127492,33.44534602802665],[-117.22501584581686,33.41056035400217],[-117.18452068299042,33.39987935612209]]]},"properties":{"h3_index":"8629a09b7ffffff","station_count":1,"program_id":"smc","program":"SMC","resolution":6,"stations":[{"station_id":"{9FE54868-2498-4BF2-A90F-E676A0BA1A93}","station_name":"Santa Margarita River ~1.2mi above Rainbow Cr.","lat":33.423397,"lon":-117.204668,"county":"SAN DIEGO"}]}},{"type":"Feature","geometry":{"type":"Polygon","coordinates":[[[-117.76862057179021,33.61734709509864],[-117.73665080273162,33.64155856764719],[-117.74521059869497,33.67622317035485],[-117.78575869551791,33.68666852012941],[-117.81772366131351,33.66244978633601],[-117.80914534702269,33.6277929683272],[-117.76862057179021,33.61734709509864]]]},"properties":{"h3_index":"8629a0b27ffffff","station_count":1,"program_id":"smc","program":"SMC","resolution":6,"stations":[{"station_id":"{4645DA77-D886-4E9E-BB30-61640662BCC0}","station_name":"San Diego Creek Randon SMC Site 19399","lat":33.655516,"lon":-117.762242,"county":"ORANGE","huc8":"Upper San Diego Creek"}]}},{"type":"Feature","geometry":{"type":"Polygon","coordinates":[[[-117.81772366131351,33.66244978633601],[-117.78575869551791,33.68666852012941],[-117.7943351943104,33.721316511614134],[-117.83489517476373,33.73173796998089],[-117.86685527928901,33.70751198925911],[-117.8582602781413,33.67287180140406],[-117.81772366131351,33.66244978633601]]]},"properties":{"h3_index":"8629a0b2fffffff","station_count":1,"program_id":"smc","program":"SMC","resolution":6,"stations":[{"station_id":"{76622DA1-DB26-4FB7-91B0-D54602A138BF}","station_name":"San Diego Creek Randon SMC Site 19486","lat":33.676256,"lon":-117.826992,"county":"ORANGE","huc8":"Lower San Diego Creek"}]}},{"type":"Feature","geometry":{"type":"Polygon","coordinates":[[[-118.41565558206518,34.52438760830355],[-118.38366201151123,34.548672080625785],[-118.39246670667812,34.583042473790535],[-118.43328339068009,34.59312043020994],[-118.4652713582026,34.56882895826014],[-118.45644825882376,34.534466533748386],[-118.41565558206518,34.52438760830355]]]},"properties":{"h3_index":"8629a101fffffff","station_count":2,"program_id":"smc","program":"SMC","resolution":6,"stations":[{"station_id":"{3279FBD0-A8B6-4A36-8B2B-94B8D44A9B86}","station_name":"Bouquet Canyon Creek ~0.5mi Below Bouquet Reservoir","lat":34.57066,"lon":-118.38974,"county":"LOS ANGELES"},{"station_id":"{928BD8C4-5AC2-4AC7-B0B3-B612D5592E89}","station_name":"Boquet Canyon Creek (1536)","lat":34.56909,"lon":-118.392126,"county":"LOS ANGELES","waterbody":"Boquet Canyon Creek"}]}},{"type":"Feature","geometry":{"type":"Polygon","coordinates":[[[-118.46195208067232,34.40702275013166],[-118.43000955273246,34.431324576310125],[-118.43881736009247,34.46571431918404],[-118.47958604451219,34.47579422593735],[-118.5115229301155,34.45148537914954],[-118.50269678767813,34.41710365041976],[-118.46195208067232,34.40702275013166]]]},"properties":{"h3_index":"8629a1027ffffff","station_count":1,"program_id":"smc","program":"SMC","resolution":6,"stations":[{"station_id":"{593EE3E0-CA37-46C8-AD47-06C677E329E3}","station_name":"Plum Canyon Rd","lat":34.446055,"lon":-118.48921,"county":"LOS ANGELES","huc8":"Lower Bouquet Canyon"}]}},{"type":"Feature","geometry":{"type":"Polygon","coordinates":[[[-118.5380319671047,34.5545759859488],[-118.50607523640423,34.5788831795844],[-118.51491518202543,34.61322786721861],[-118.55573020653938,34.62325733877917],[-118.5876811956314,34.59894316467282],[-118.57882291594593,34.56460650367365],[-118.5380319671047,34.5545759859488]]]},"properties":{"h3_index":"8629a1057ffffff","station_count":1,"program_id":"smc","program":"SMC","resolution":6,"stations":[{"station_id":"{8CC4C374-4CD8-471E-9B08-A8F8CF7558EE}","station_name":"Unnamed 640","lat":34.60115,"lon":-118.558,"county":"LOS ANGELES","huc8":"Elizabeth Lake Canyon"}]}},{"type":"Feature","geometry":{"type":"Polygon","coordinates":[[[-118.4652713582026,34.56882895826014],[-118.43328339068009,34.59312043020994],[-118.44210494978384,34.62747310417024],[-118.48293287703297,34.63752632407507],[-118.51491518202543,34.61322786721861],[-118.50607523640423,34.5788831795844],[-118.4652713582026,34.56882895826014]]]},"properties":{"h3_index":"8629a10e7ffffff","station_count":4,"program_id":"smc","program":"SMC","resolution":6,"stations":[{"station_id":"{6E1FDC3C-7D65-434B-B04B-402B054594D8}","station_name":"San Francisquito d/s of Power Plant","lat":34.572321,"lon":-118.46288,"county":"LOS ANGELES","huc8":"San Francisquito Canyon"},{"station_id":"{B6D1E114-A309-4D92-8DFF-C894D54D6132}","station_name":"San Francisquito u/s of Power Plant","lat":34.587394,"lon":-118.45117,"county":"LOS ANGELES","huc8":"San Francisquito Canyon"},{"station_id":"{1E74437A-80AA-4BD3-8721-BC0024AD1EB3}","station_name":"San Francisquito Canyon (01728)","lat":34.574901,"lon":-118.460022,"county":"LOS ANGELES","waterbody":"San Francisquito Canyon"},{"station_id":"{4A97B4AE-769B-4D8E-8680-D96C48960F41}","station_name":"Clearwater Canyon Creek","lat":34.59079,"lon":-118.4617,"county":"LOS ANGELES","waterbody":"Clearwater Creek"}]}},{"type":"Feature","geometry":{"type":"Polygon","coordinates":[[[-118.51491518202543,34.61322786721861],[-118.48293287703297,34.63752632407507],[-118.49177130451406,34.67186121842303],[-118.53261041983052,34.68188965621415],[-118.5645870027218,34.6575842292158],[-118.55573020653938,34.62325733877917],[-118.51491518202543,34.61322786721861]]]},"properties":{"h3_index":"8629a10efffffff","station_count":2,"program_id":"smc","program":"SMC","resolution":6,"stations":[{"station_id":"{95E43C93-C87A-42AA-A350-4D7B9E40F115}","station_name":"Elizabeth Canyon Creek Lake Hughes Rd. ~10mi E I5","lat":34.63193,"lon":-118.52977,"county":"LOS ANGELES","huc8":"Elizabeth Lake Canyon "},{"station_id":"{3BEAE163-A130-4459-94E1-39D469649EB9}","station_name":"Elizabeth Lake Canyon","lat":34.64435,"lon":-118.51372,"county":"LOS ANGELES"}]}},{"type":"Feature","geometry":{"type":"Polygon","coordinates":[[[-118.60722016777032,34.3785105960746],[-118.5753399947376,34.402843532565974],[-118.5841844200336,34.43721720675273],[-118.62492726299791,34.447249853762315],[-118.6568016364142,34.42290990543603],[-118.64793898056962,34.38854432609005],[-118.60722016777032,34.3785105960746]]]},"properties":{"h3_index":"8629a1147ffffff","station_count":2,"program_id":"smc","program":"SMC","resolution":6,"stations":[{"station_id":"{77E48272-716B-44A6-A777-67EDE0C9BA71}","station_name":"Santa Clara River (403S39062)","lat":34.4323,"lon":-118.61744,"county":"LOS ANGELES"},{"station_id":"{A7BEAB1C-AEFE-42F9-A8D2-4420821EEF88}","station_name":"Santa Clara River Site 14156","lat":34.42523,"lon":-118.582,"county":"LOS ANGELES","huc8":"Salt Canyon-Santa Clara River"}]}},{"type":"Feature","geometry":{"type":"Polygon","coordinates":[[[-118.53460817349537,34.39278623317753],[-118.50269678767813,34.41710365041976],[-118.5115229301155,34.45148537914954],[-118.55227875529368,34.461541640272586],[-118.5841844200336,34.43721720675273],[-118.5753399947376,34.402843532565974],[-118.53460817349537,34.39278623317753]]]},"properties":{"h3_index":"8629a1157ffffff","station_count":2,"program_id":"smc","program":"SMC","resolution":6,"stations":[{"station_id":"{0B198CFC-3D59-4EA8-9D5F-A7B95517B4D6}","station_name":"Santa Clara River 11084","lat":34.42487,"lon":-118.56081,"county":"LOS ANGELES"},{"station_id":"{D1E8A956-F3EE-4514-9552-9E9EEDE8AF0D}","station_name":"Santa Clara River (34646)","lat":34.425565,"lon":-118.566167,"county":"LOS ANGELES"}]}},{"type":"Feature","geometry":{"type":"Polygon","coordinates":[[[-118.67978787060257,34.3641959422804],[-118.64793898056962,34.38854432609005],[-118.6568016364142,34.42290990543603],[-118.69753137454924,34.43291897006673],[-118.72937438662956,34.40856357897538],[-118.72049355263627,34.374206134666444],[-118.67978787060257,34.3641959422804]]]},"properties":{"h3_index":"8629a116fffffff","station_count":4,"program_id":"smc","program":"SMC","resolution":6,"stations":[{"station_id":"{7A9FBB7F-9EC0-4504-91AD-B704BDD5C7E4}","station_name":"Santa Clara River 15608","lat":34.4019,"lon":-118.70052,"county":"VENTURA"},{"station_id":"{A00419DB-3D10-4E0A-8B06-099C8A236B20}","station_name":"Santa Clara River Site 1272","lat":34.40303,"lon":-118.6905,"county":"LOS ANGELES","huc8":"Salt Canyon-Santa Clara River"},{"station_id":"{708CD867-1BFF-458C-9879-B5657D835B9C}","station_name":"Santa Clara River 4600","lat":34.39728,"lon":-118.7105,"county":"VENTURA"},{"station_id":"{8F873253-9D24-47BC-BAE5-BD6B73EFF232}","station_name":"Tapo Canyon","lat":34.39996,"lon":-118.72346,"county":"VENTURA"}]}},{"type":"Feature","geometry":{"type":"Polygon","coordinates":[[[-118.832481717482,34.65873514669944],[-118.80060554886987,34.68309443632704],[-118.80953256552455,34.717369354619215],[-118.85035393888957,34.72727682884492],[-118.88222402963666,34.702910613358995],[-118.87327883916242,34.66864385362676],[-118.832481717482,34.65873514669944]]]},"properties":{"h3_index":"8629a130fffffff","station_count":4,"program_id":"smc","program":"SMC","resolution":6,"stations":[{"station_id":"{217C2B3A-0E2D-41E6-A385-BD3CD153C20E}","station_name":"Piru Creek (06283)","lat":34.693866,"lon":-118.860798,"county":"VENTURA"},{"station_id":"{40A0BB5C-A23A-4FC4-820B-33B5D5382CE8}","station_name":"Piru Creek (16493)","lat":34.686704,"lon":-118.845469,"county":"VENTURA"},{"station_id":"{3AC885E4-57FB-44FD-ADC6-762898F131BB}","station_name":"Piru Creek u/s of Hardluck Campground Site 1163","lat":34.69943,"lon":-118.86529,"county":"VENTURA","huc8":"Snowy Creek-Piru Creek"},{"station_id":"{E44CFB77-DEE2-4212-951E-92B6FF1948D6}","station_name":"Piru Creek (18093)","lat":34.69441,"lon":-118.856582,"county":"VENTURA"}]}},{"type":"Feature","geometry":{"type":"Polygon","coordinates":[[[-118.73307979075804,34.57025577805114],[-118.70119164526454,34.59460117046734],[-118.71008502097929,34.62891193254825],[-118.75088476704565,34.638869182111314],[-118.78276695388347,34.614516833521556],[-118.77385536751832,34.580214195682586],[-118.73307979075804,34.57025577805114]]]},"properties":{"h3_index":"8629a1337ffffff","station_count":4,"program_id":"smc","program":"SMC","resolution":6,"stations":[{"station_id":"{B5CD3E1C-614D-4C18-AEF3-B341818D1586}","station_name":"Piru Creek 1.3 miles upstream from Fish Creek","lat":34.61359,"lon":-118.7798,"county":"LOS ANGELES"},{"station_id":"{2F3E76BC-216E-4204-BE7D-07E22863DAD8}","station_name":"Piru Creek 01136","lat":34.627623,"lon":-118.74403,"county":"LOS ANGELES","waterbody":"Piru Creek"},{"station_id":"{ED738906-863B-466E-A71F-6EBCBE745F44}","station_name":"Piru Creek (07024)","lat":34.6092,"lon":-118.757717,"county":"LOS ANGELES"},{"station_id":"{06D45BDC-8C1F-4B40-8025-BC8EE7BEAD5D}","station_name":"Piru Creek 403R4S216","lat":34.61029,"lon":-118.77807,"county":"LOS ANGELES"}]}},{"type":"Feature","geometry":{"type":"Polygon","coordinates":[[[-119.0274707919358,34.673875711128694],[-118.9956642940326,34.69827282565762],[-119.00464439413292,34.73251334185084],[-119.04544905508087,34.7423484928719],[-119.07724925890699,34.71794447822148],[-119.06825111021749,34.68371221673537],[-119.0274707919358,34.673875711128694]]]},"properties":{"h3_index":"8629a136fffffff","station_count":2,"program_id":"smc","program":"SMC","resolution":6,"stations":[{"station_id":"{157FA4D4-B529-4F7B-9750-7F9A6481EE2D}","station_name":"Lockwood Creek","lat":34.71629,"lon":-119.0189,"county":"VENTURA"},{"station_id":"{3E756FD8-18E4-4426-82C4-9C96087EAAED}","station_name":"Lockwood Creek Lockwood Valley Campground","lat":34.72654,"lon":-119.02842,"county":"VENTURA"}]}},{"type":"Feature","geometry":{"type":"Polygon","coordinates":[[[-118.60019442555557,34.054497528211776],[-118.56840436949484,34.07884954042379],[-118.57722121474124,34.11329574861351],[-118.61784625925259,34.12338179797463],[-118.64963055710943,34.09902270072163],[-118.64079558262065,34.06458464326651],[-118.60019442555557,34.054497528211776]]]},"properties":{"h3_index":"8629a1807ffffff","station_count":1,"program_id":"smc","program":"SMC","resolution":6,"stations":[{"station_id":"{FCEFC3DD-FD3C-4F19-86BD-BD3BAC58788C}","station_name":"Topanga Canyon (34230)","lat":34.069093,"lon":-118.586781,"county":"LOS ANGELES"}]}},{"type":"Feature","geometry":{"type":"Polygon","coordinates":[[[-118.6231408566894,33.995682039015584],[-118.59137611714627,34.02004214138195],[-118.60019442555557,34.054497528211776],[-118.64079558262065,34.06458464326651],[-118.67255454494428,34.0402174449065],[-118.66371814137067,34.005770231589395],[-118.6231408566894,33.995682039015584]]]},"properties":{"h3_index":"8629a1827ffffff","station_count":1,"program_id":"smc","program":"SMC","resolution":6,"stations":[{"station_id":"{E884B84F-C5E5-4DBF-872A-83518A6EC6A6}","station_name":"Las Flores Canyon Creek","lat":34.045876,"lon":-118.638734,"county":"LOS ANGELES","huc8":"Santa Monica Beach-Frontal Santa Monica Bay"}]}},{"type":"Feature","geometry":{"type":"Polygon","coordinates":[[[-118.67255454494428,34.0402174449065],[-118.64079558262065,34.06458464326651],[-118.64963055710943,34.09902270072163],[-118.69024258521434,34.10908537280611],[-118.72199571166249,34.084711093751146],[-118.71314265986462,34.05028122740105],[-118.67255454494428,34.0402174449065]]]},"properties":{"h3_index":"8629a182fffffff","station_count":6,"program_id":"smc","program":"SMC","resolution":6,"stations":[{"station_id":"{55E39E1A-DD01-42D5-A042-47FADA20DEDC}","station_name":"Malibu Creek (35418)","lat":34.08262,"lon":-118.708577,"county":"LOS ANGELES"},{"station_id":"{0882BD33-C33D-4FE4-91E7-2A865825438E}","station_name":"Malibu Creek Site 11406","lat":34.04939,"lon":-118.69,"county":"LOS ANGELES","huc8":"Cold Creek-Malibu Creek"},{"station_id":"{7B0325B5-C6FB-4E2E-9A72-AA8E2237F0A7}","station_name":"Malibu Creek 13672","lat":34.075401,"lon":-118.70292,"county":"LOS ANGELES","waterbody":"Malibu Creek"},{"station_id":"{3B8EFABB-F56A-43EA-9728-FD4E0BCAF310}","station_name":"Malibu Creek (25298)","lat":34.045532,"lon":-118.687325,"county":"LOS ANGELES"},{"station_id":"{ED8BD26E-855B-42AD-9880-C8331665BE09}","station_name":"Malibu Creek 16168","lat":34.06765,"lon":-118.70704,"county":"LOS ANGELES"},{"station_id":"{63619673-293B-4622-B478-F527196E708D}","station_name":"Malibu Creek near Palm Canyon Ln","lat":34.048658,"lon":-118.689862,"county":"LOS ANGELES"}]}},{"type":"Feature","geometry":{"type":"Polygon","coordinates":[[[-118.55078588571087,34.00993062959066],[-118.51899013012556,34.03427554157026],[-118.52779029157364,34.06873906144598],[-118.56840436949484,34.07884954042379],[-118.60019442555557,34.054497528211776],[-118.59137611714627,34.02004214138195],[-118.55078588571087,34.00993062959066]]]},"properties":{"h3_index":"8629a1837ffffff","station_count":4,"program_id":"smc","program":"SMC","resolution":6,"stations":[{"station_id":"{AC1D959F-A9D1-4C9C-B098-F5FEDC8F941B}","station_name":"Topanga Creek 8846","lat":34.05442,"lon":-118.58176,"county":"LOS ANGELES"},{"station_id":"{A2833E72-A5F2-4FAB-B6AC-5A41EA7E3925}","station_name":"Topanga Creek (45622)","lat":34.061494,"lon":-118.585344,"county":"LOS ANGELES"},{"station_id":"{38C49DDF-7096-406F-B93D-4E04DCC3FEEC}","station_name":"Topanga Canyon (23297)","lat":34.050062,"lon":-118.581031,"county":"LOS ANGELES"},{"station_id":"{2605496F-CDE7-4212-9DAB-E8C828EB7579}","station_name":"Topanga Creek Site 6456","lat":34.06463,"lon":-118.58685,"county":"LOS ANGELES","huc8":"Garapito Creek"}]}},{"type":"Feature","geometry":{"type":"Polygon","coordinates":[[[-118.77146430608046,34.12916287821763],[-118.7397170742329,34.15354422262464],[-118.748585392926,34.18794743738101],[-118.78921899876153,34.197961085780506],[-118.82096027721475,34.173572691408594],[-118.8120739172801,34.13917770267729],[-118.77146430608046,34.12916287821763]]]},"properties":{"h3_index":"8629a1847ffffff","station_count":15,"program_id":"smc","program":"SMC","resolution":6,"stations":[{"station_id":"{D425BB7A-122A-45E1-AC4B-D45FEEDFE3CF}","station_name":"Medea Creek Site 5992","lat":34.15698,"lon":-118.7588,"county":"VENTURA","huc8":"Medea Creek"},{"station_id":"{E3815172-7087-414C-AEEA-E13675AE2D6C}","station_name":"Lindero Canyon Site 3048","lat":34.18426,"lon":-118.79089,"county":"VENTURA","huc8":"Medea Creek"},{"station_id":"{D8E8AC45-E885-463C-B478-B6D13F76332A}","station_name":"Santa Monica watershed unknown Site 8040","lat":34.14358,"lon":-118.75527,"county":"VENTURA","huc8":"Medea Creek"},{"station_id":"{38F55472-59C8-4A24-AF29-784E05029AC2}","station_name":"Medea Creek 13160","lat":34.1578,"lon":-118.75973,"county":"LOS ANGELES"},{"station_id":"{9FC9855B-17C1-4CF2-A252-50AA9E5E09F3}","station_name":"Medea Creek 18666","lat":34.172068,"lon":-118.763755,"county":"VENTURA","waterbody":"Medea Creek"},{"station_id":"{257905E8-8A42-4D47-B1D1-4E076A47D1D0}","station_name":"Lindero Canyon (34120)","lat":34.165588,"lon":-118.789188,"county":"LOS ANGELES"},{"station_id":"{980C77C1-2F20-403C-80DD-21B625082C56}","station_name":"Medea Creek u/s of Thousand Oaks","lat":34.176012,"lon":-118.761699,"county":"VENTURA","huc8":"Medea Creek"},{"station_id":"{72A51F2E-8835-4CB0-9C43-025F27C3F16E}","station_name":"Creek next to Via Merida Road","lat":34.163293,"lon":-118.810699,"county":"VENTURA","huc8":"Potrero Valley Creek"},{"station_id":"{D9E3A412-30EC-4B24-972C-C595AA3813C2}","station_name":"Medea Creek (26670)","lat":34.163856,"lon":-118.76205,"county":"LOS ANGELES"},{"station_id":"{6D81D9DA-681B-463B-9755-2A77789F3B25}","station_name":"Medea Creek (27470)","lat":34.174456,"lon":-118.76389,"county":"VENTURA"},{"station_id":"{334EA04C-036A-4F88-8A16-F8AD9D1C7495}","station_name":"Medea Creek (44210)","lat":34.143019,"lon":-118.757795,"county":"VENTURA"},{"station_id":"{29F7626A-1428-4BD9-BDBA-DE247028456D}","station_name":"GTG Medea at E Thousand Oaks Blvd","lat":34.15459,"lon":-118.75848,"county":"LOS ANGELES"},{"station_id":"{1551196D-5EEE-4728-BE7A-981AD5FFFF17}","station_name":"Medea Creek Site 2920","lat":34.17748,"lon":-118.767,"county":"VENTURA","huc8":"Medea Creek"},{"station_id":"{DA32C308-7812-46F2-B129-134871E192E0}","station_name":"Medea Creek (31468)","lat":34.16874,"lon":-118.76171,"county":"VENTURA"},{"station_id":"{73DCE1FC-52FE-4EF6-B83B-552FB1762C46}","station_name":"Lindero Canyon Creek near Yerba Buena Elementary School","lat":34.167227,"lon":-118.787702,"county":"LOS ANGELES"}]}},{"type":"Feature","geometry":{"type":"Polygon","coordinates":[[[-118.69909422982292,34.143506039505084],[-118.66731574891932,34.167872206563395],[-118.67616597416558,34.20228360716786],[-118.71681278779442,34.21232065896478],[-118.748585392926,34.18794743738101],[-118.7397170742329,34.15354422262464],[-118.69909422982292,34.143506039505084]]]},"properties":{"h3_index":"8629a1857ffffff","station_count":4,"program_id":"smc","program":"SMC","resolution":6,"stations":[{"station_id":"{EFB8A671-2459-4030-803E-93E184A1FF3D}","station_name":"Las Virgenes Creek Site 17664","lat":34.14994,"lon":-118.6976,"county":"LOS ANGELES","huc8":"Las Virgenes Creek"},{"station_id":"{56D1A0C3-1492-4AA6-B922-D56729870CB3}","station_name":"Las Virgenes (24066)","lat":34.163219,"lon":-118.700774,"county":"VENTURA"},{"station_id":"{9CF3D4E5-A76F-4B0C-A5BD-0293B28E8D1F}","station_name":"Las Virgenes Creek (33670)","lat":34.158248,"lon":-118.700126,"county":"LOS ANGELES"},{"station_id":"{CFCE4700-515B-4729-9E43-E6A85461373B}","station_name":"Las Virgenes (44642)","lat":34.16873,"lon":-118.70306,"county":"VENTURA"}]}},{"type":"Feature","geometry":{"type":"Polygon","coordinates":[[[-118.79431648817541,34.070361031217416],[-118.76259460213701,34.094750420127895],[-118.77146430608046,34.12916287821763],[-118.8120739172801,34.13917770267729],[-118.84378983127314,34.11478125297708],[-118.83490212015128,34.08037704366806],[-118.79431648817541,34.070361031217416]]]},"properties":{"h3_index":"8629a1867ffffff","station_count":5,"program_id":"smc","program":"SMC","resolution":6,"stations":[{"station_id":"{C1EE6D75-EAFF-474B-9705-35E1423D77C5}","station_name":"Malibu Creek (17016)","lat":34.118309,"lon":-118.780574,"county":"VENTURA"},{"station_id":"{5761D70B-DBA5-43A5-9A4E-C01CE525F007}","station_name":"Malibu Creek Site 8616","lat":34.12188,"lon":-118.792402,"county":"VENTURA","huc8":"Cold Creek-Malibu Creek"},{"station_id":"{9CF63F32-D387-46E7-8E13-3A5598614BA7}","station_name":"Triunfo Canyon 808","lat":34.11411,"lon":-118.77907,"county":"LOS ANGELES"},{"station_id":"{0EDEC48F-800C-4F5D-94C5-3954DB3EEC0D}","station_name":"Potrero Valley Creek (18250)","lat":34.132222,"lon":-118.82051,"county":"VENTURA"},{"station_id":"{5903D59A-DAEF-4319-8783-40BF794262DA}","station_name":"Potero Valley Creek (44532)","lat":34.126825,"lon":-118.796174,"county":"VENTURA"}]}},{"type":"Feature","geometry":{"type":"Polygon","coordinates":[[[-118.72199571166249,34.084711093751146],[-118.69024258521434,34.10908537280611],[-118.69909422982292,34.143506039505084],[-118.7397170742329,34.15354422262464],[-118.77146430608046,34.12916287821763],[-118.76259460213701,34.094750420127895],[-118.72199571166249,34.084711093751146]]]},"properties":{"h3_index":"8629a1877ffffff","station_count":17,"program_id":"smc","program":"SMC","resolution":6,"stations":[{"station_id":"{F6610966-B848-4D12-A199-688F6CE2EA50}","station_name":"404R4S015","lat":34.142552,"lon":-118.75225,"county":"LOS ANGELES","huc8":"Medea Creek"},{"station_id":"{AFED93F3-B0A3-48A4-9F2D-282AAF8941F8}","station_name":"Malibu Creek (32468)","lat":34.0999,"lon":-118.723049,"county":"LOS ANGELES"},{"station_id":"{D410517D-4039-4A47-9A2D-408DBEA0A822}","station_name":"Las Virgenes Creek 25668","lat":34.12139,"lon":-118.70914,"county":"LOS ANGELES"},{"station_id":"{770259F3-6098-48AE-B975-BA8FD4D003A7}","station_name":"Las Virgenes Creek 13416","lat":34.098751,"lon":-118.715946,"county":"LOS ANGELES","waterbody":"Las Virgenes Creek"},{"station_id":"{5EE0803D-6DE2-4321-AB68-097761FB59D5}","station_name":"Las Virgenes Creek 1128","lat":34.1039,"lon":-118.71271,"county":"LOS ANGELES"},{"station_id":"{30BA2753-F38B-4205-A51A-C2295BEB41A7}","station_name":"Medea Creek (28270)","lat":34.136633,"lon":-118.757257,"county":"LOS ANGELES"},{"station_id":"{9F7A5CD2-5BFD-418F-BD48-77AB9FE34268}","station_name":"Las Virgenes Creek (26868)","lat":34.096751,"lon":-118.717372,"county":"LOS ANGELES"},{"station_id":"{B9762CBC-0AA1-4D88-BA53-EC192A56D85E}","station_name":"Medea Creek Site 16516","lat":34.12998,"lon":-118.75648,"county":"VENTURA","huc8":"Medea Creek"},{"station_id":"{12AAB05F-00CF-4655-A232-95549219F180}","station_name":"Las Virgenes Creek 14952","lat":34.14268,"lon":-118.700899,"county":"LOS ANGELES","waterbody":"Las Virgenes Creek"},{"station_id":"{C0352671-B38E-48CE-8C23-78603E57D99A}","station_name":"Las Virgenes Creek (35270)","lat":34.133251,"lon":-118.706562,"county":"LOS ANGELES"},{"station_id":"{74C109C4-8CE1-415B-A724-C6059F293B34}","station_name":"Las Virgenes Creek (28068)","lat":34.139362,"lon":-118.703664,"county":"LOS ANGELES"},{"station_id":"{085850CB-BFE3-4B0F-A72E-87D08BB456A3}","station_name":"Las Virgenes Creek downstream of Agoura Rd.","lat":34.141621,"lon":-118.701083,"county":"LOS ANGELES"},{"station_id":"{D51A8B95-0006-4C5F-86EA-2C8A83B1FED2}","station_name":"Las Virgenes Creek (37670)","lat":34.14074,"lon":-118.701178,"county":"LOS ANGELES"},{"station_id":"{0E7D755D-E570-45CD-9253-DA2E6D7E2102}","station_name":"Medea Creek 16232","lat":34.125498,"lon":-118.753172,"county":"LOS ANGELES","waterbody":"Medea Creek"},{"station_id":"{39C519F0-F41E-4B20-8E39-63559C4849DC}","station_name":"Virgenes Creek","lat":34.125293,"lon":-118.708279,"county":"LOS ANGELES","waterbody":"Virgenes Creek"},{"station_id":"{9C9E1BE2-6CA4-47E8-A2A2-3158A59F7191}","station_name":"Las Virgenes Creek Site 22464","lat":34.12676,"lon":-118.70685,"county":"LOS ANGELES","huc8":"Las Virgenes Creek"},{"station_id":"{481CC4C7-4B4F-422C-8672-B5D2A41B1A10}","station_name":"Liberty Canyon Creek","lat":34.11117,"lon":-118.716392,"county":"LOS ANGELES"}]}},{"type":"Feature","geometry":{"type":"Polygon","coordinates":[[[-118.69545179546876,33.981395010563965],[-118.66371814137067,34.005770231589395],[-118.67255454494428,34.0402174449065],[-118.71314265986462,34.05028122740105],[-118.7448704592486,34.025898914730256],[-118.73601601239606,33.99145991529063],[-118.69545179546876,33.981395010563965]]]},"properties":{"h3_index":"8629a1957ffffff","station_count":1,"program_id":"smc","program":"SMC","resolution":6,"stations":[{"station_id":"{DF1CCBA7-C4AB-4107-88EA-C7452FA1AB43}","station_name":"Puerco Canyon 0.2miles down stream of HWY 1","lat":34.033249,"lon":-118.713863,"county":"LOS ANGELES","huc8":"Solstice Canyon-Frontal Santa Monica Bay"}]}},{"type":"Feature","geometry":{"type":"Polygon","coordinates":[[[-118.35657475552433,33.99364067534489],[-118.32471169293866,34.01794786850726],[-118.33345869108281,34.052444746849154],[-118.37408703326844,34.06262640237371],[-118.40594461096687,34.0383120859001],[-118.39717934521336,34.003823241397214],[-118.35657475552433,33.99364067534489]]]},"properties":{"h3_index":"8629a1997ffffff","station_count":1,"program_id":"smc","program":"SMC","resolution":6,"stations":[{"station_id":"{6FBF9FF4-A20C-4FD7-BF59-9CDD53B7B27D}","station_name":"Ballona Creek downstream of S. Fairfax Ave.","lat":34.03767,"lon":-118.370384,"county":"LOS ANGELES"}]}},{"type":"Feature","geometry":{"type":"Polygon","coordinates":[[[-118.37966395159235,33.93481926445656],[-118.34782618236768,33.95913466063702],[-118.35657475552433,33.99364067534489],[-118.39717934521336,34.003823241397214],[-118.42901160999708,33.979500710820595],[-118.42024480336616,33.9450027527579],[-118.37966395159235,33.93481926445656]]]},"properties":{"h3_index":"8629a19b7ffffff","station_count":1,"program_id":"smc","program":"SMC","resolution":6,"stations":[{"station_id":"{895405F2-197F-4559-8D23-DCAE3223BD0A}","station_name":"Centinela Creek","lat":33.98426,"lon":-118.41426,"county":"LOS ANGELES","huc8":"Ballona Creek"}]}},{"type":"Feature","geometry":{"type":"Polygon","coordinates":[[[-118.94682392611489,34.365291491432664],[-118.9150754136338,34.389692777436885],[-118.92400915769404,34.42401609362718],[-118.96470943030907,34.43392985578055],[-118.99645177189703,34.40952159231181],[-118.98750002596995,34.37520654820486],[-118.94682392611489,34.365291491432664]]]},"properties":{"h3_index":"8629a1a07ffffff","station_count":2,"program_id":"smc","program":"SMC","resolution":6,"stations":[{"station_id":"{0C92B720-442C-4405-9304-D471005461BF}","station_name":"Sespe Creek Above Fillmore Site 772","lat":34.40976,"lon":-118.9322,"county":"VENTURA"},{"station_id":"{78204113-7925-4C39-A26C-8C3E847E3415}","station_name":"Sespe Creek 04868","lat":34.404915,"lon":-118.939435,"county":"VENTURA","waterbody":"Sespe Creek"}]}},{"type":"Feature","geometry":{"type":"Polygon","coordinates":[[[-118.92400915769404,34.42401609362718],[-118.89223516972991,34.44840913612271],[-118.90116759261498,34.48272290372355],[-118.94189205380998,34.49263538352438],[-118.97365988931865,34.46823537401216],[-118.96470943030907,34.43392985578055],[-118.92400915769404,34.42401609362718]]]},"properties":{"h3_index":"8629a1a1fffffff","station_count":1,"program_id":"smc","program":"SMC","resolution":6,"stations":[{"station_id":"{FA911FCE-7AE1-4B1B-9824-D94CEF9B375F}","station_name":"Sespe Creek (06660)","lat":34.429633,"lon":-118.923739,"county":"VENTURA"}]}},{"type":"Feature","geometry":{"type":"Polygon","coordinates":[[[-118.9696119377826,34.306549240890924],[-118.93788887295511,34.330958692393246],[-118.94682392611489,34.365291491432664],[-118.98750002596995,34.37520654820486],[-119.01921690155008,34.35079010872741],[-119.01026388071496,34.31646560448939],[-118.9696119377826,34.306549240890924]]]},"properties":{"h3_index":"8629a1a27ffffff","station_count":1,"program_id":"smc","program":"SMC","resolution":6,"stations":[{"station_id":"{6F7B9058-0EE7-4BCB-AD1D-F42CE2120A9A}","station_name":"Santa Clara River","lat":34.369316,"lon":-118.98739,"county":"VENTURA"}]}},{"type":"Feature","geometry":{"type":"Polygon","coordinates":[[[-119.01921690155008,34.35079010872741],[-118.98750002596995,34.37520654820486],[-118.99645177189703,34.40952159231181],[-119.03713835661652,34.419411889195345],[-119.06884898381871,34.39498847735028],[-119.0598792889064,34.36068174501609],[-119.01921690155008,34.35079010872741]]]},"properties":{"h3_index":"8629a1a2fffffff","station_count":1,"program_id":"smc","program":"SMC","resolution":6,"stations":[{"station_id":"{2D777EA7-011C-451A-8872-6862EA35EADA}","station_name":"Santa Paula Creek ~2.5mi above Santa Clara River","lat":34.379167,"lon":-119.063333,"county":"VENTURA","waterbody":"Santa Paula Creek","huc8":"Santa Paula Creek"}]}},{"type":"Feature","geometry":{"type":"Polygon","coordinates":[[[-119.06884898381871,34.39498847735028],[-119.03713835661652,34.419411889195345],[-119.04610679881783,34.45370911836354],[-119.08680381265845,34.463574611049026],[-119.11850813228604,34.43914424248782],[-119.10952175990926,34.404855341974304],[-119.06884898381871,34.39498847735028]]]},"properties":{"h3_index":"8629a1a77ffffff","station_count":2,"program_id":"smc","program":"SMC","resolution":6,"stations":[{"station_id":"{FA34CFF9-4B89-4239-B6D3-1514F1693E1E}","station_name":"Santa Paula Creek ~1.5mi N Hwy 150","lat":34.43952,"lon":-119.07616,"county":"VENTURA"},{"station_id":"{F06BE008-61E9-4534-89C7-584D3EA10160}","station_name":"Santa Paula Creek 403R4S225","lat":34.397391,"lon":-119.07746,"county":"VENTURA","huc8":"Santa Paula Creek"}]}},{"type":"Feature","geometry":{"type":"Polygon","coordinates":[[[-118.7560475969875,34.51158136409864],[-118.72418500066922,34.53593529084481],[-118.73307979075804,34.57025577805114],[-118.77385536751832,34.580214195682586],[-118.80571198621503,34.5558533024393],[-118.79679901996666,34.52154096218795],[-118.7560475969875,34.51158136409864]]]},"properties":{"h3_index":"8629a1a9fffffff","station_count":2,"program_id":"smc","program":"SMC","resolution":6,"stations":[{"station_id":"{61DFF4F4-AC59-42DB-8F2D-329491720F99}","station_name":"Piru Creek (16332)","lat":34.531705,"lon":-118.758128,"county":"VENTURA"},{"station_id":"{3ACC21E0-8C56-4A38-A245-B5A2B35033BB}","station_name":"Agua Blanca Creek ~1mi Above Piru Creek","lat":34.54172,"lon":-118.77286,"county":"VENTURA"}]}},{"type":"Feature","geometry":{"type":"Polygon","coordinates":[[[-118.80190247885828,34.3941783314774],[-118.77009089767819,34.41854909317826],[-118.77898847969745,34.45288883405604],[-118.8197157644388,34.462849624934705],[-118.8515213303193,34.43847187590021],[-118.84260564092348,34.4041403274188],[-118.80190247885828,34.3941783314774]]]},"properties":{"h3_index":"8629a1aa7ffffff","station_count":3,"program_id":"smc","program":"SMC","resolution":6,"stations":[{"station_id":"{59C475E8-DDD2-411A-A903-5A93DE2B9E12}","station_name":"Hopper Canyon Cr.","lat":34.43048,"lon":-118.8318,"county":"VENTURA"},{"station_id":"{995EF751-0CDD-4FCC-9B1F-51E96D709008}","station_name":"Piru Creek 403R4S193","lat":34.417227,"lon":-118.78928,"county":"VENTURA","huc8":"Hosler Canyon-Piru Creek"},{"station_id":"{4281D377-80CE-4294-B45C-BA8A76A086ED}","station_name":"Piru Creek 6904","lat":34.41964,"lon":-118.78769,"county":"VENTURA"}]}},{"type":"Feature","geometry":{"type":"Polygon","coordinates":[[[-118.72937438662956,34.40856357897538],[-118.69753137454924,34.43291897006673],[-118.70641079656643,34.46726686334393],[-118.74715140481018,34.47725121725215],[-118.77898847969745,34.45288883405604],[-118.77009089767819,34.41854909317826],[-118.72937438662956,34.40856357897538]]]},"properties":{"h3_index":"8629a1ab7ffffff","station_count":3,"program_id":"smc","program":"SMC","resolution":6,"stations":[{"station_id":"{8C213AA1-46D0-40E0-BA30-4AE36059E889}","station_name":"Piru Creek 02764","lat":34.447782,"lon":-118.754901,"county":"VENTURA","waterbody":"Piru Creek"},{"station_id":"{49410456-9A2E-4FC3-82AF-EDBD32BA8E08}","station_name":"Piru Creek 1.7 miles down stream from Lake Piru","lat":34.43957,"lon":-118.7591,"county":"VENTURA","huc8":"Hosler Canyon-Piru Creek"},{"station_id":"{24A3EB18-8BF0-46E0-8B95-6775190A7DC4}","station_name":"Piru Creek (16978)","lat":34.42319,"lon":-118.767716,"county":"VENTURA"}]}},{"type":"Feature","geometry":{"type":"Polygon","coordinates":[[[-119.04195531817857,34.29204106701324],[-119.01026388071496,34.31646560448939],[-119.01921690155008,34.35079010872741],[-119.0598792889064,34.36068174501609],[-119.09156445981691,34.33625022466218],[-119.08259352413671,34.30193405490999],[-119.04195531817857,34.29204106701324]]]},"properties":{"h3_index":"8629a1b57ffffff","station_count":2,"program_id":"smc","program":"SMC","resolution":6,"stations":[{"station_id":"{AC29D9B9-AAD0-440A-B8DA-F2DABEEB7B79}","station_name":"Santa Paula Creek ~0.6mi above Santa Clara River","lat":34.356111,"lon":-119.048611,"county":"VENTURA","waterbody":"Santa Paula Creek","huc8":"Santa Paula Creek"},{"station_id":"{5D19D13F-2CDD-468D-AB80-1144CEE92F8F}","station_name":"Santa Clara River 403RS230","lat":34.349221,"lon":-119.044,"county":"VENTURA","huc8":"Timber Canyon-Santa Clara River"}]}},{"type":"Feature","geometry":{"type":"Polygon","coordinates":[[[-119.09156445981691,34.33625022466218],[-119.0598792889064,34.36068174501609],[-119.06884898381871,34.39498847735028],[-119.10952175990926,34.404855341974304],[-119.14120060516633,34.38041685445717],[-119.13221301423323,34.34611847348213],[-119.09156445981691,34.33625022466218]]]},"properties":{"h3_index":"8629a1b5fffffff","station_count":1,"program_id":"smc","program":"SMC","resolution":6,"stations":[{"station_id":"{FDC87767-D553-4BF1-96EC-0D0686149D03}","station_name":"Santa Paula Creek ~2mi above Santa Paula","lat":34.39548,"lon":-119.07511,"county":"VENTURA","waterbody":"Santa Paula Creek"}]}},{"type":"Feature","geometry":{"type":"Polygon","coordinates":[[[-119.18650559614196,34.26290965773935],[-119.15487761554236,34.28736414926977],[-119.16386641315503,34.32167194495495],[-119.2045010145579,34.33151683952985],[-119.23612257462173,34.30705537563747],[-119.22711596807007,34.27275599349691],[-119.18650559614196,34.26290965773935]]]},"properties":{"h3_index":"8629a1b6fffffff","station_count":2,"program_id":"smc","program":"SMC","resolution":6,"stations":[{"station_id":"{157CA26B-10D2-45FC-9F8F-F0EDCF041EBA}","station_name":"Arundell Barranca ~0.25mi above Telegraph Rd.","lat":34.28,"lon":-119.220833,"county":"VENTURA"},{"station_id":"{CE2684DF-F68D-40BE-BBF3-E500378D9BDC}","station_name":"Arundell Barranca ~0.25mi above Telgraph Road","lat":34.279861,"lon":-119.220139,"county":"VENTURA"}]}},{"type":"Feature","geometry":{"type":"Polygon","coordinates":[[[-118.75231108990127,34.34984237558417],[-118.72049355263627,34.374206134666444],[-118.72937438662956,34.40856357897538],[-118.77009089767819,34.41854909317826],[-118.80190247885828,34.3941783314774],[-118.79300351920487,34.35982906229998],[-118.75231108990127,34.34984237558417]]]},"properties":{"h3_index":"8629a1b9fffffff","station_count":2,"program_id":"smc","program":"SMC","resolution":6,"stations":[{"station_id":"{1F1B2BCA-CACE-48C6-B0AE-D55487831110}","station_name":"Santa Clara River u/s Site 1784","lat":34.40228,"lon":-118.7471,"county":"VENTURA"},{"station_id":"{78C7C99F-7F96-4F6D-8CBC-65D1FFDB01B1}","station_name":"Piru Creek d/s of HWY 126 Site 3832","lat":34.40211,"lon":-118.78471,"county":"VENTURA"}]}},{"type":"Feature","geometry":{"type":"Polygon","coordinates":[[[-117.10787629867336,32.92270752154134],[-117.07587015599867,32.946823923728694],[-117.08419884744215,32.981722429660024],[-117.12455239033484,32.99249700392275],[-117.15655451163482,32.96837313219846],[-117.14820712436487,32.933482160175714],[-117.10787629867336,32.92270752154134]]]},"properties":{"h3_index":"8629a408fffffff","station_count":1,"program_id":"smc","program":"SMC","resolution":6,"stations":[{"station_id":"{8509685F-9FAB-429A-8E8A-B88869C1A0D3}","station_name":"Los Penasquitos ~0.8mi above I-15","lat":32.946365,"lon":-117.098493,"county":"SAN DIEGO"}]}},{"type":"Feature","geometry":{"type":"Polygon","coordinates":[[[-117.03552922723054,32.936026259480805],[-117.00349431642277,32.96012712569878],[-117.01180426414162,32.995033122353576],[-117.05216787931354,33.00583076651659],[-117.08419884744215,32.981722429660024],[-117.07587015599867,32.946823923728694],[-117.03552922723054,32.936026259480805]]]},"properties":{"h3_index":"8629a409fffffff","station_count":1,"program_id":"smc","program":"SMC","resolution":6,"stations":[{"station_id":"{5DC36567-4FED-4DF4-A0E0-702297C91491}","station_name":"Poway Creek","lat":32.949075,"lon":-117.064432,"county":"SAN DIEGO","huc8":"Penasquitos"}]}},{"type":"Feature","geometry":{"type":"Polygon","coordinates":[[[-117.20526183084057,33.01399996066279],[-117.17326378771985,33.03813128817032],[-117.18162568422365,33.072998421371956],[-117.22200430388665,33.08372665747937],[-117.25399821194159,33.05958788798719],[-117.24561764842134,33.02472832878176],[-117.20526183084057,33.01399996066279]]]},"properties":{"h3_index":"8629a40dfffffff","station_count":2,"program_id":"smc","program":"SMC","resolution":6,"stations":[{"station_id":"{D1476365-3FFA-42C0-A41E-147DC6E062A5}","station_name":"Rancho Santa Fe Golf Course","lat":33.02292,"lon":-117.2273,"county":"SAN DIEGO"},{"station_id":"{E616587D-2D3A-4454-B670-749CD81BDFAC}","station_name":"Escondido Creek above El Camino Del Norte","lat":33.050316,"lon":-117.224287,"county":"SAN DIEGO"}]}},{"type":"Feature","geometry":{"type":"Polygon","coordinates":[[[-117.10654254229377,32.75890937764834],[-117.07458196776359,32.783034162107334],[-117.08289832851698,32.81796423754389],[-117.12319391958957,32.82876197314704],[-117.15515048577967,32.804629680071656],[-117.14681548212896,32.769707164418875],[-117.10654254229377,32.75890937764834]]]},"properties":{"h3_index":"8629a418fffffff","station_count":1,"program_id":"smc","program":"SMC","resolution":6,"stations":[{"station_id":"{763B7AB7-4581-4713-9A64-23E40EDB3A43}","station_name":"Murphy Canyon Creek","lat":32.7818,"lon":-117.1142,"county":"SAN DIEGO"}]}},{"type":"Feature","geometry":{"type":"Polygon","coordinates":[[[-117.35155798132695,33.15064656545744],[-117.3195725143898,33.17480017734381],[-117.32798426524019,33.209619755155515],[-117.36840011908404,33.22027809194873],[-117.40038127980691,33.19611707974242],[-117.3919509060328,33.1613051354454],[-117.35155798132695,33.15064656545744]]]},"properties":{"h3_index":"8629a42b7ffffff","station_count":1,"program_id":"smc","program":"SMC","resolution":6,"stations":[{"station_id":"{7DE483E0-E925-489F-B9A2-082BF469C6B9}","station_name":"Buena Vista Creek above Buena Vista Lagoon","lat":33.179798,"lon":-117.337354,"county":"SAN DIEGO"}]}},{"type":"Feature","geometry":{"type":"Polygon","coordinates":[[[-116.76964309534257,32.92992433796275],[-116.73751868947551,32.953970700603435],[-116.74575547129179,32.988914414372715],[-116.78613557217842,32.99980442995384],[-116.81825632915307,32.97575058079443],[-116.81000064693252,32.9408142070975],[-116.76964309534257,32.92992433796275]]]},"properties":{"h3_index":"8629a440fffffff","station_count":1,"program_id":"smc","program":"SMC","resolution":6,"stations":[{"station_id":"{8D871DCF-2937-4059-9F76-138330E6A09A}","station_name":"San Diego River below El Capitan Truck Trail","lat":32.961986,"lon":-116.750772,"county":"SAN DIEGO"}]}},{"type":"Feature","geometry":{"type":"Polygon","coordinates":[[[-116.6971516243385,32.94305772673818],[-116.66499883653469,32.96708828056424],[-116.67321667064378,33.002039290750325],[-116.71360625303409,33.01295245524037],[-116.74575547129179,32.988914414372715],[-116.73751868947551,32.953970700603435],[-116.6971516243385,32.94305772673818]]]},"properties":{"h3_index":"8629a441fffffff","station_count":2,"program_id":"smc","program":"SMC","resolution":6,"stations":[{"station_id":"{4E49D190-85D4-4A7E-9CEB-395BB366506E}","station_name":"Cedar Creek ~1.5mi above San Diego R.","lat":32.992545,"lon":-116.717712,"county":"SAN DIEGO","huc8":"Cedar Creek"},{"station_id":"{341C220A-05A5-4EB5-AC16-E3D90EF157BC}","station_name":"San Diego River ~0.4mi above Boulder Cr.","lat":32.97974,"lon":-116.742466,"county":"SAN DIEGO"}]}},{"type":"Feature","geometry":{"type":"Polygon","coordinates":[[[-116.67250553239471,32.83815682461285],[-116.64037399852404,32.862188174555726],[-116.64857750430495,32.8971626968982],[-116.68893148404072,32.908098575047276],[-116.72105948217776,32.88405971216031],[-116.71283704903625,32.84909248861055],[-116.67250553239471,32.83815682461285]]]},"properties":{"h3_index":"8629a4437ffffff","station_count":1,"program_id":"smc","program":"SMC","resolution":6,"stations":[{"station_id":"{138324E9-8E54-4C27-B8A7-BCE09C7E1E91}","station_name":"King Creek ~1.1mi below Grove Dr.","lat":32.894218,"lon":-116.658443,"county":"SAN DIEGO"}]}},{"type":"Feature","geometry":{"type":"Polygon","coordinates":[[[-116.62462238277001,32.956152177974985],[-116.5924412909216,32.980166855361915],[-116.60064013013655,33.0151251182149],[-116.64103906883516,33.026061455582735],[-116.67321667064378,33.002039290750325],[-116.66499883653469,32.96708828056424],[-116.62462238277001,32.956152177974985]]]},"properties":{"h3_index":"8629a44afffffff","station_count":1,"program_id":"smc","program":"SMC","resolution":6,"stations":[{"station_id":"{99B05F9E-3832-4DC8-BA21-F4251648494A}","station_name":"Boulder Creek ~0.7mi above Boulder Cr. Rd.","lat":32.966755,"lon":-116.652751,"county":"SAN DIEGO"}]}},{"type":"Feature","geometry":{"type":"Polygon","coordinates":[[[-116.64925458337204,33.06100425472658],[-116.6170521432116,33.08501795069195],[-116.62526532475407,33.11995246936558],[-116.66569997466051,33.13086604633446],[-116.69789889098685,33.106844888595475],[-116.6896666940287,33.07191762023459],[-116.64925458337204,33.06100425472658]]]},"properties":{"h3_index":"8629a44d7ffffff","station_count":1,"program_id":"smc","program":"SMC","resolution":6,"stations":[{"station_id":"{2BC80477-F23D-4FB5-B2BF-A5E954C3F8E2}","station_name":"San Diego River below Sentenac Cr.","lat":33.0767,"lon":-116.67455,"county":"SAN DIEGO","huc8":"Ritchie Creek-San Diego River"}]}},{"type":"Feature","geometry":{"type":"Polygon","coordinates":[[[-116.74575547129179,32.988914414372715],[-116.71360625303409,33.01295245524037],[-116.72184074910308,33.047887981020715],[-116.76224341043687,33.05877815344615],[-116.7943890024465,33.03473263870876],[-116.78613557217842,32.99980442995384],[-116.74575547129179,32.988914414372715]]]},"properties":{"h3_index":"8629a44e7ffffff","station_count":1,"program_id":"smc","program":"SMC","resolution":6,"stations":[{"station_id":"{07C853B2-A7D2-4D83-A8B1-EFA0B7DD1463}","station_name":"San Diego River below Ritchie Cr.","lat":33.003129,"lon":-116.729186,"county":"SAN DIEGO"}]}},{"type":"Feature","geometry":{"type":"Polygon","coordinates":[[[-116.64790236995808,32.73318596580414],[-116.61579207663249,32.75721799301143],[-116.62398128850695,32.792215796944326],[-116.6642997133973,32.80317427709959],[-116.69640650464528,32.779134710913354],[-116.68819838575774,32.74414420808841],[-116.64790236995808,32.73318596580414]]]},"properties":{"h3_index":"8629a4517ffffff","station_count":3,"program_id":"smc","program":"SMC","resolution":6,"stations":[{"station_id":"{33E19C18-B05F-4B67-AF14-CFFA3AD6FE5C}","station_name":"Pine Valley Creek below Secret Cyn. Cr.","lat":32.76142,"lon":-116.642572,"county":"SAN DIEGO"},{"station_id":"{01BE4790-E067-4701-9FAA-B01621538AFD}","station_name":"Pine Valley Creek ~2.3mi above Secret Cyn. Cr.","lat":32.781234,"lon":-116.632071,"county":"SAN DIEGO","huc8":"Middle Pine Valley Creek"},{"station_id":"{88075F1B-1A82-4C6B-A64B-4EEB97A99AA7}","station_name":"Pine Valley Creek ~0.9mi below Espinosa Cr.","lat":32.735477,"lon":-116.652682,"county":"SAN DIEGO"}]}},{"type":"Feature","geometry":{"type":"Polygon","coordinates":[[[-116.69640650464528,32.779134710913354],[-116.6642997133973,32.80317427709959],[-116.67250553239471,32.83815682461285],[-116.71283704903625,32.84909248861055],[-116.74494028183547,32.825045396653714],[-116.73671556915676,32.79007017099871],[-116.69640650464528,32.779134710913354]]]},"properties":{"h3_index":"8629a451fffffff","station_count":1,"program_id":"smc","program":"SMC","resolution":6,"stations":[{"station_id":"{9AF14990-17BA-4425-A103-FB3BB90ED1C1}","station_name":"Viejas Creek (SMC Code SMC14218)","lat":32.829985,"lon":-116.736039,"county":"SAN DIEGO","waterbody":"Viejas Creek"}]}},{"type":"Feature","geometry":{"type":"Polygon","coordinates":[[[-116.81733719994912,32.8118952539383],[-116.78526234562256,32.83595802024937],[-116.79350365899708,32.870917901269735],[-116.83383867246981,32.881807634305865],[-116.8659098328781,32.85773735602232],[-116.85764968651289,32.822784861173346],[-116.81733719994912,32.8118952539383]]]},"properties":{"h3_index":"8629a4557ffffff","station_count":1,"program_id":"smc","program":"SMC","resolution":6,"stations":[{"station_id":"{D6B7DD8E-F83A-4F01-BC9C-A833198629FB}","station_name":"Coches Creek, Los (SMC Code SMC11430)","lat":32.848374,"lon":-116.860048,"county":"SAN DIEGO","waterbody":"Los Coches Creek"}]}},{"type":"Feature","geometry":{"type":"Polygon","coordinates":[[[-116.9620167374307,32.78547919194414],[-116.9299988706332,32.80957310344725],[-116.93827780263321,32.84451816857802],[-116.97859335243415,32.85536185349023],[-117.01060736777464,32.83126043145837],[-117.00230969760815,32.79632283949704],[-116.9620167374307,32.78547919194414]]]},"properties":{"h3_index":"8629a456fffffff","station_count":1,"program_id":"smc","program":"SMC","resolution":6,"stations":[{"station_id":"{AEC8DD1F-8F5A-4F26-83F3-5D156FAE935E}","station_name":"Forester Creek above Veron Way","lat":32.811821,"lon":-116.973235,"county":"SAN DIEGO"}]}},{"type":"Feature","geometry":{"type":"Polygon","coordinates":[[[-116.60003315368631,32.851229446344654],[-116.56787339654956,32.875244986749976],[-116.57605792795826,32.910226764054094],[-116.61642120357043,32.9211857505553],[-116.64857750430495,32.8971626968982],[-116.64037399852404,32.862188174555726],[-116.60003315368631,32.851229446344654]]]},"properties":{"h3_index":"8629a458fffffff","station_count":1,"program_id":"smc","program":"SMC","resolution":6,"stations":[{"station_id":"{F474F1B1-6673-4BE5-ABCF-EDA4658684EB}","station_name":"King Creek ~0.8mi above WF","lat":32.90475,"lon":-116.62501,"county":"SAN DIEGO","huc8":"Conejos Creek"}]}},{"type":"Feature","geometry":{"type":"Polygon","coordinates":[[[-116.47901868630889,32.81826152020304],[-116.44682746363316,32.84225365731394],[-116.45497632016014,32.87725790708054],[-116.49533544626728,32.888262834227],[-116.52752334846143,32.86426317074526],[-116.51935545765699,32.829266111082276],[-116.47901868630889,32.81826152020304]]]},"properties":{"h3_index":"8629a4597ffffff","station_count":1,"program_id":"smc","program":"SMC","resolution":6,"stations":[{"station_id":"{E4A02975-C4E4-44CC-9FBE-31E42DAB4AB1}","station_name":"Pine Valley Creek below Noble Cyn. Cr.","lat":32.862159,"lon":-116.520376,"county":"SAN DIEGO","huc8":"Upper Pine Valley Creek"}]}},{"type":"Feature","geometry":{"type":"Polygon","coordinates":[[[-116.57548679280556,32.74623675117557],[-116.5433483567303,32.770253035837605],[-116.55151861475473,32.80525809696703],[-116.5918462753525,32.81623962079735],[-116.62398128850695,32.792215796944326],[-116.61579207663249,32.75721799301143],[-116.57548679280556,32.74623675117557]]]},"properties":{"h3_index":"8629a45a7ffffff","station_count":1,"program_id":"smc","program":"SMC","resolution":6,"stations":[{"station_id":"{73A3B123-DAB4-40CA-A2F4-CE8843033616}","station_name":"Pine Valley Creek ~3.8mi above Secret Cyn. Cr.","lat":32.791121,"lon":-116.616771,"county":"SAN DIEGO","huc8":"Middle Pine Valley Creek"}]}},{"type":"Feature","geometry":{"type":"Polygon","coordinates":[[[-117.03800041046152,33.26324260073706],[-117.00587380322725,33.287325285687444],[-117.01420841526367,33.32216650441349],[-117.05468849825048,33.33291760368014],[-117.08681113722649,33.308827524825666],[-117.07845767450807,33.27399374509438],[-117.03800041046152,33.26324260073706]]]},"properties":{"h3_index":"8629a461fffffff","station_count":1,"program_id":"smc","program":"SMC","resolution":6,"stations":[{"station_id":"{39E3297C-EAA1-429F-9F16-909473822B57}","station_name":"Keys Creek East of Shady Creek Lane","lat":33.269344,"lon":-117.031468,"county":"SAN DIEGO","huc8":"San Luis Rey - Escondido"}]}},{"type":"Feature","geometry":{"type":"Polygon","coordinates":[[[-117.10921389380216,33.08637031473615],[-117.07716205290099,33.11047795091164],[-117.0855031116119,33.14534435729785],[-117.12591477320986,33.156095623965825],[-117.15796257963886,33.1319805569192],[-117.1496027719468,33.09712165852115],[-117.10921389380216,33.08637031473615]]]},"properties":{"h3_index":"8629a470fffffff","station_count":1,"program_id":"smc","program":"SMC","resolution":6,"stations":[{"station_id":"{C3E2875A-454C-4AA3-9276-2BE0FA97C94E}","station_name":"Escondido Creek above Harmony Grove","lat":33.099184,"lon":-117.130139,"county":"SAN DIEGO"}]}},{"type":"Feature","geometry":{"type":"Polygon","coordinates":[[[-117.13289768114488,33.027379856696],[-117.10087071249897,33.051495650544574],[-117.10921389380216,33.08637031473615],[-117.1496027719468,33.09712165852115],[-117.18162568422365,33.072998421371956],[-117.17326378771985,33.03813128817032],[-117.13289768114488,33.027379856696]]]},"properties":{"h3_index":"8629a472fffffff","station_count":1,"program_id":"smc","program":"SMC","resolution":6,"stations":[{"station_id":"{FCB3C38A-B936-4FD4-B1A0-D88750DD4372}","station_name":"Escondido Creek ~1.1mi below Country Club Dr.","lat":33.088998,"lon":-117.137485,"county":"SAN DIEGO"}]}},{"type":"Feature","geometry":{"type":"Polygon","coordinates":[[[-117.25399821194159,33.05958788798719],[-117.22200430388665,33.08372665747937],[-117.23038281234173,33.11857800487616],[-117.27077389434669,33.12928299326364],[-117.30276361036755,33.10513679563026],[-117.29436644947644,33.070293042151135],[-117.25399821194159,33.05958788798719]]]},"properties":{"h3_index":"8629a4767ffffff","station_count":1,"program_id":"smc","program":"SMC","resolution":6,"stations":[{"station_id":"{579A30AA-ADD6-468E-83B3-40471B9F53B5}","station_name":"San Marcos Creek ~1.6mi above El Camino Real","lat":33.090865,"lon":-117.244701,"county":"SAN DIEGO"}]}},{"type":"Feature","geometry":{"type":"Polygon","coordinates":[[[-116.91557148665291,33.06728743464133],[-116.88345819767342,33.09135621695484],[-116.89174494537009,33.12625321511524],[-116.93216385404978,33.13707403406734],[-116.96427332375595,33.112997805207655],[-116.95596771696759,33.07810820844073],[-116.91557148665291,33.06728743464133]]]},"properties":{"h3_index":"8629a47a7ffffff","station_count":1,"program_id":"smc","program":"SMC","resolution":6,"stations":[{"station_id":"{DF6A4B7F-6FE1-411D-BFE8-D13688A02B30}","station_name":"Santa Ysabel Creek below Clevenger Cyn. Cr.","lat":33.089585,"lon":-116.903207,"county":"SAN DIEGO","huc8":"San Pasqual Valley-Santa Ysabel Creek"}]}},{"type":"Feature","geometry":{"type":"Polygon","coordinates":[[[-116.84305217486093,33.080512279053416],[-116.81091026588754,33.10456525444413],[-116.81917810675343,33.139469610607954],[-116.85960677630702,33.15031363789842],[-116.89174494537009,33.12625321511524],[-116.88345819767342,33.09135621695484],[-116.84305217486093,33.080512279053416]]]},"properties":{"h3_index":"8629a47b7ffffff","station_count":1,"program_id":"smc","program":"SMC","resolution":6,"stations":[{"station_id":"{6A94F6A3-6F54-43B7-9EAF-6185B695B210}","station_name":"Santa Ysabel Creek below Temescal Cr.","lat":33.117781,"lon":-116.854448,"county":"SAN DIEGO"}]}},{"type":"Feature","geometry":{"type":"Polygon","coordinates":[[[-116.69566352266813,32.6150783589233],[-116.66360259657468,32.63912655233282],[-116.67179643553052,32.67414010303852],[-116.71207005312573,32.685098117586975],[-116.74412743181638,32.66104235926831],[-116.73591475297441,32.626036155821424],[-116.69566352266813,32.6150783589233]]]},"properties":{"h3_index":"8629a4c9fffffff","station_count":1,"program_id":"smc","program":"SMC","resolution":6,"stations":[{"station_id":"{ADD7EE59-F0B9-4EF3-A192-8A96B851DB2E}","station_name":"Cottonwood Creek ~0.6mi below Bob Owens Cyn. Cr.","lat":32.656651,"lon":-116.680563,"county":"SAN DIEGO"}]}},{"type":"Feature","geometry":{"type":"Polygon","coordinates":[[[-116.84019365046316,32.58882812381387],[-116.80818923591006,32.61290733100861],[-116.81642070774458,32.647906143394664],[-116.85667535283416,32.658818318285284],[-116.88867606280897,32.63473154700671],[-116.88042584498893,32.59974016938839],[-116.84019365046316,32.58882812381387]]]},"properties":{"h3_index":"8629a4cf7ffffff","station_count":2,"program_id":"smc","program":"SMC","resolution":6,"stations":[{"station_id":"{B9722E42-B415-48BA-BDED-78C668F9C849}","station_name":"Jamul creek below Otay Lakes Rd.","lat":32.634814,"lon":-116.885413,"county":"SAN DIEGO"},{"station_id":"{80D6649B-08E8-44C1-B681-7D40624E8984}","station_name":"Jamul Creek below Dulzura Cr.","lat":32.647877,"lon":-116.869991,"county":"SAN DIEGO"}]}},{"type":"Feature","geometry":{"type":"Polygon","coordinates":[[[-117.74295051214354,33.513301721798605],[-117.71100110130122,33.53751414235999],[-117.71954605794497,33.572204028984395],[-117.76005893902493,33.58267371077072],[-117.79200358373772,33.55845400296413],[-117.78344012692567,33.523771904926186],[-117.74295051214354,33.513301721798605]]]},"properties":{"h3_index":"8629a5487ffffff","station_count":4,"program_id":"smc","program":"SMC","resolution":6,"stations":[{"station_id":"{3D77E3E3-6830-4E3D-B6DB-CDF239ECF1D7}","station_name":"Aliso Creek ~0.7mi above Aliso Cr. Rd.","lat":33.56418,"lon":-117.717926,"county":"ORANGE","huc8":"Aliso Creek"},{"station_id":"{6814FA0F-AE91-4FFA-9E82-245C689A75CC}","station_name":"Aliso Creek ~1mi above mouth (SMC)","lat":33.516368,"lon":-117.740624,"county":"ORANGE"},{"station_id":"{C062A5B5-6685-4540-8C5C-8C5D56AD2955}","station_name":"Aliso Creek ~0.8mi below Wood Cyn. Cr.","lat":33.531543,"lon":-117.741447,"county":"ORANGE"},{"station_id":"{5BCEDC5A-1D4F-4E3C-AAC1-19BE49D18392}","station_name":"Laguna Canyon ~1.5mi above Mouth","lat":33.559753,"lon":-117.772006,"county":"ORANGE","huc8":"Salt Creek-Frontal Gulf of Santa Catalina"}]}},{"type":"Feature","geometry":{"type":"Polygon","coordinates":[[[-117.67050016678085,33.52702070185094],[-117.63852096490737,33.55121760913845],[-117.64704737163547,33.58591524234663],[-117.68757154355305,33.596408226016145],[-117.71954605794497,33.572204028984395],[-117.71100110130122,33.53751414235999],[-117.67050016678085,33.52702070185094]]]},"properties":{"h3_index":"8629a5497ffffff","station_count":1,"program_id":"smc","program":"SMC","resolution":6,"stations":[{"station_id":"{53AD1FA4-85E6-4019-9C6C-F46F341F5F91}","station_name":"Oso Creek ~0.5mi below Crown Valley Pkwy","lat":33.550524,"lon":-117.675428,"county":"ORANGE"}]}},{"type":"Feature","geometry":{"type":"Polygon","coordinates":[[[-117.69392599998922,33.4681092581146],[-117.66197188078237,33.49231437714009],[-117.67050016678085,33.52702070185094],[-117.71100110130122,33.53751414235999],[-117.74295051214354,33.513301721798605],[-117.73440371021917,33.478603166583],[-117.69392599998922,33.4681092581146]]]},"properties":{"h3_index":"8629a54b7ffffff","station_count":1,"program_id":"smc","program":"SMC","resolution":6,"stations":[{"station_id":"{7CBB3BED-FE44-43F0-93C6-D24D354DF07E}","station_name":"San Juan Creek above Arroyo Trabuco","lat":33.490389,"lon":-117.665322,"county":"ORANGE"}]}},{"type":"Feature","geometry":{"type":"Polygon","coordinates":[[[-118.11014522722252,33.76966413337981],[-118.07825561741485,33.793935487558365],[-118.08691911352462,33.82851750247799],[-118.12749058555205,33.838820224753995],[-118.15937500263256,33.8145416732696],[-118.15069315408006,33.77996760104609],[-118.11014522722252,33.76966413337981]]]},"properties":{"h3_index":"8629a56a7ffffff","station_count":1,"program_id":"smc","program":"SMC","resolution":6,"stations":[{"station_id":"{3834710F-6281-4259-BFF5-E448FDBCDB1F}","station_name":"Cerritos Channel d/s of LB Airport","lat":33.81024,"lon":-118.1282,"county":"LOS ANGELES","huc8":"Colorado Lagoon-Frontal Alamitos Bay"}]}},{"type":"Feature","geometry":{"type":"Polygon","coordinates":[[[-118.33034414774414,33.8900964495062],[-118.29850093256555,33.914404696339524],[-118.30723281762917,33.94892781911436],[-118.34782618236768,33.95913466063702],[-118.37966395159235,33.93481926445656],[-118.37091381583033,33.90030418028013],[-118.33034414774414,33.8900964495062]]]},"properties":{"h3_index":"8629a56efffffff","station_count":1,"program_id":"smc","program":"SMC","resolution":6,"stations":[{"station_id":"{81B918F7-923B-4200-BDB7-EED13DF4ACE6}","station_name":"Dominguez Channel at Jack Northrop Field Hawthorn Municipal Airport","lat":33.923857,"lon":-118.330647,"county":"LOS ANGELES","huc8":"Upper Dominguez Channel"}]}},{"type":"Feature","geometry":{"type":"Polygon","coordinates":[[[-116.45497632016014,32.87725790708054],[-116.42276035152,32.901241626391716],[-116.43090679361929,32.93623778175064],[-116.47128828503674,32.94724305538778],[-116.50350095640934,32.92325182256779],[-116.49533544626728,32.888262834227],[-116.45497632016014,32.87725790708054]]]},"properties":{"h3_index":"8629a696fffffff","station_count":1,"program_id":"smc","program":"SMC","resolution":6,"stations":[{"station_id":"{FB36C197-BFB3-41B0-B452-2AEC652D42C2}","station_name":"Indian creek ~1.2mi above Deer Park Rd.","lat":32.902824,"lon":-116.493371,"county":"SAN DIEGO"}]}},{"type":"Feature","geometry":{"type":"Polygon","coordinates":[[[-116.62526532475407,33.11995246936558],[-116.59303802188593,33.14395761665083],[-116.6012488569731,33.17888378553662],[-116.64170605708291,33.18979758445888],[-116.67392985910556,33.16578498795535],[-116.66569997466051,33.13086604633446],[-116.62526532475407,33.11995246936558]]]},"properties":{"h3_index":"8629a6b2fffffff","station_count":1,"program_id":"smc","program":"SMC","resolution":6,"stations":[{"station_id":"{CB0B1895-039F-4C6F-9861-14539145247F}","station_name":"Santa Ysabel Creek ~2mi below Dan Price Cr.","lat":33.129743,"lon":-116.635916,"county":"SAN DIEGO"}]}},{"type":"Feature","geometry":{"type":"Polygon","coordinates":[[[-116.79527689840282,33.19841016550143],[-116.76308520041482,33.222446207609295],[-116.77134851183563,33.257333794913635],[-116.81182250885685,33.26817803270607],[-116.84401051216695,33.244134568091596],[-116.83572822603564,33.209254292738784],[-116.79527689840282,33.19841016550143]]]},"properties":{"h3_index":"8629a6b6fffffff","station_count":1,"program_id":"smc","program":"SMC","resolution":6,"stations":[{"station_id":"{2AF6FAB7-B706-4AE0-A7FF-58350BF4FCCF}","station_name":"San Luis Rey River ~0.5mi above Lusardi Cyn.","lat":33.2645,"lon":-116.8131,"county":"SAN DIEGO"}]}},{"type":"Feature","geometry":{"type":"Polygon","coordinates":[[[-119.29027053728348,34.51266053906776],[-119.25861102423833,34.53711983334844],[-119.26764744856075,34.571354880885416],[-119.30836121984179,34.581122220151414],[-119.3400141701846,34.5566560220044],[-119.33095992633267,34.52242939242146],[-119.29027053728348,34.51266053906776]]]},"properties":{"h3_index":"8629acd07ffffff","station_count":2,"program_id":"smc","program":"SMC","resolution":6,"stations":[{"station_id":"{7E67CBC0-7879-4C97-9460-320CCCCD7B01}","station_name":"Tule Creek 875","lat":34.55668,"lon":-119.30629,"county":"VENTURA","waterbody":"Tule Creek"},{"station_id":"{6C4B432B-D049-4A58-B242-B977D1F0A9F8}","station_name":"Sespe Creek Site 1195","lat":34.55903,"lon":-119.2678,"county":"VENTURA","huc8":"Tule Creek-Sespe Creek"}]}},{"type":"Feature","geometry":{"type":"Polygon","coordinates":[[[-119.3400141701846,34.5566560220044],[-119.30836121984179,34.581122220151414],[-119.31741433440513,34.61533919818915],[-119.35813821383711,34.62508154765644],[-119.38978454205566,34.60060846157676],[-119.38071362738457,34.56639991791635],[-119.3400141701846,34.5566560220044]]]},"properties":{"h3_index":"8629acd0fffffff","station_count":1,"program_id":"smc","program":"SMC","resolution":6,"stations":[{"station_id":"{C9898636-4240-4DCE-ADDF-CA0EADC7BB35}","station_name":"Sespe","lat":34.59835,"lon":-119.34799,"county":"VENTURA"}]}},{"type":"Feature","geometry":{"type":"Polygon","coordinates":[[[-119.2179074175087,34.527327547423894],[-119.18621589088208,34.55177178228751],[-119.19523444217651,34.586015208586524],[-119.23596240749045,34.59580602524762],[-119.26764744856075,34.571354880885416],[-119.25861102423833,34.53711983334844],[-119.2179074175087,34.527327547423894]]]},"properties":{"h3_index":"8629acd17ffffff","station_count":4,"program_id":"smc","program":"SMC","resolution":6,"stations":[{"station_id":"{EA499F9E-1F98-419F-A81D-4071C8E5FF4D}","station_name":"Sespe Creek Jacinto Reyes Scenic Byway~0.4mi W Beaver Cmp.","lat":34.55734,"lon":-119.24876,"county":"VENTURA"},{"station_id":"{395BB2D6-85E5-4725-AEF0-4506EE8D6B54}","station_name":"Sespe Creek 5291","lat":34.56397,"lon":-119.26305,"county":"VENTURA"},{"station_id":"{58C0A6C6-588A-4F87-AF11-23FF4B7E1B89}","station_name":"Howard Creek ~1.6mi N Route 6n31","lat":34.5515,"lon":-119.20811,"county":"VENTURA"},{"station_id":"{95C5DEE5-3F5D-4D94-AF93-710A4AC4378A}","station_name":"Sespe Creek (06139)","lat":34.55464,"lon":-119.240503,"county":"VENTURA"}]}},{"type":"Feature","geometry":{"type":"Polygon","coordinates":[[[-119.26764744856075,34.571354880885416],[-119.23596240749045,34.59580602524762],[-119.2449976683147,34.63003139856976],[-119.28573583834752,34.63979723622322],[-119.31741433440513,34.61533919818915],[-119.30836121984179,34.581122220151414],[-119.26764744856075,34.571354880885416]]]},"properties":{"h3_index":"8629acd1fffffff","station_count":1,"program_id":"smc","program":"SMC","resolution":6,"stations":[{"station_id":"{B49CCC69-09A8-43BE-A259-4A7AC368256A}","station_name":"Sespe Creek (06315)","lat":34.59223,"lon":-119.310339,"county":"VENTURA"}]}},{"type":"Feature","geometry":{"type":"Polygon","coordinates":[[[-119.36258735932553,34.49795511185303],[-119.33095992633267,34.52242939242146],[-119.3400141701846,34.5566560220044],[-119.38071362738457,34.56639991791635],[-119.412334420744,34.541918739219675],[-119.40326241093962,34.507700566678984],[-119.36258735932553,34.49795511185303]]]},"properties":{"h3_index":"8629acd2fffffff","station_count":2,"program_id":"smc","program":"SMC","resolution":6,"stations":[{"station_id":"{89D6D155-7022-46AA-9BFF-EA598153429C}","station_name":"Matilija Creek 1.7 miles upstream from Upper North Fork Matilija Creek.","lat":34.5196,"lon":-119.4054,"county":"VENTURA"},{"station_id":"{99512830-BD5F-4028-8598-0260F642C64B}","station_name":"Matilija Creek","lat":34.52216,"lon":-119.40402,"county":"VENTURA","huc8":"Matilija Creek"}]}},{"type":"Feature","geometry":{"type":"Polygon","coordinates":[[[-119.12277533816574,34.600636898143115],[-119.09102631622673,34.62505771564629],[-119.10002570899657,34.659299761844146],[-119.14079209882888,34.669112677776795],[-119.1725347306222,34.64468495544237],[-119.16351737708932,34.61045122603239],[-119.12277533816574,34.600636898143115]]]},"properties":{"h3_index":"8629acd87ffffff","station_count":2,"program_id":"smc","program":"SMC","resolution":6,"stations":[{"station_id":"{93E72F27-4FD1-4537-AF2C-12A6261822E0}","station_name":"Piru Creek ~1.9 miles upstream from Cedar Creek.","lat":34.65136,"lon":-119.1185,"county":"VENTURA"},{"station_id":"{22D6B724-2BE5-495A-A54A-660EA0FB4369}","station_name":"Piru Creek Above Mutau Flat Road","lat":34.65926,"lon":-119.14255,"county":"VENTURA"}]}},{"type":"Feature","geometry":{"type":"Polygon","coordinates":[[[-119.05027032449037,34.6152198429051],[-119.01848941331902,34.63962538754601],[-119.0274707919358,34.673875711128694],[-119.06825111021749,34.68371221673537],[-119.10002570899657,34.659299761844146],[-119.09102631622673,34.62505771564629],[-119.05027032449037,34.6152198429051]]]},"properties":{"h3_index":"8629acd97ffffff","station_count":1,"program_id":"smc","program":"SMC","resolution":6,"stations":[{"station_id":"{9EA870CA-B1D3-4E40-8C93-9CE3601122FF}","station_name":"Piru Creek ~1.7mi Below Cedar Creek","lat":34.6408,"lon":-119.08094,"county":"VENTURA"}]}},{"type":"Feature","geometry":{"type":"Polygon","coordinates":[[[-119.14549818660147,34.54195602995621],[-119.11377471331781,34.56638513237764],[-119.12277533816574,34.600636898143115],[-119.16351737708932,34.61045122603239],[-119.19523444217651,34.586015208586524],[-119.18621589088208,34.55177178228751],[-119.14549818660147,34.54195602995621]]]},"properties":{"h3_index":"8629acda7ffffff","station_count":4,"program_id":"smc","program":"SMC","resolution":6,"stations":[{"station_id":"{D6C20EA2-7806-43E2-9AAD-A6A537071888}","station_name":"Sespe Creek ~0.2 miles downstream from Trout Creek.","lat":34.55841,"lon":-119.1408,"county":"VENTURA"},{"station_id":"{5677FD05-02B4-45A1-98DA-2F179D4759CA}","station_name":"Sespe (upper) 02363","lat":34.558855,"lon":-119.154565,"county":"VENTURA","waterbody":"Sespe Creek"},{"station_id":"{10DFD836-86CC-4836-929A-D4215ABE9978}","station_name":"Sespe Creek 3643","lat":34.56213,"lon":-119.12891,"county":"VENTURA"},{"station_id":"{FC4C790D-DF49-4A72-B4E4-774138EE00AD}","station_name":"Sespe Creek 07227","lat":34.56208,"lon":-119.16664,"county":"VENTURA"}]}},{"type":"Feature","geometry":{"type":"Polygon","coordinates":[[[-116.55098319710943,32.6411747864811],[-116.51886606839632,32.66519169628421],[-116.52702208735928,32.70021980972301],[-116.56731418096513,32.71122375854251],[-116.5994279200835,32.68719928347785],[-116.59125296779257,32.652178429410085],[-116.55098319710943,32.6411747864811]]]},"properties":{"h3_index":"864859247ffffff","station_count":1,"program_id":"smc","program":"SMC","resolution":6,"stations":[{"station_id":"{67BCFDB2-D8BF-4099-9DAD-B0947983B638}","station_name":"Cottonwood Creek ~0.7mi below Hauser Cr.","lat":32.674548,"lon":-116.577779,"county":"SAN DIEGO"}]}}]}